{
    "type": "FeatureCollection",
    "features": [
      {
        "type": "Feature",
        "properties": {
          "name": "Singharpal beach",
          "description": "Singharpal and Udayakani beaches is for souls who want to just hear the susurration of sea waves and its breeze.",
          "image": "singharpal.jpg",
          "state": "Odisha",
          "visited": 2019
        },
        "geometry": {
          "coordinates": [
            86.1995044, 19.8925548
          ],
          "type": "Point"
        }
      },
      {
        "type": "Feature",
        "properties": {
          "name": "Turtle beach",
          "description": "As the name says, it is nesting place for the Olive Ridley turtles. There is hardly any presence of tourists on this beach.",
          "image": "turtle.jpg",
          "state": "Odisha",
          "visited": 2019
        },
        "geometry": {
          "coordinates": [
            86.1675327, 19.8822549
          ],
          "type": "Point"
        }
      },
      {
        "type": "Feature",
        "properties": {
          "name": "Chandrabhaga beach",
          "description": "Popular ocean retreat near Konark sun temple with clean sand, swimming, surfing, sailing, ATV rentals and sea-food vendors.",
          "image": "chandrabhaga.jpg",
          "state": "Odisha",
          "visited": 2019
        },
        "geometry": {
          "coordinates": [
            86.1157583, 19.8656324
          ],
          "type": "Point"
        }
      },
      {
        "type": "Feature",
        "properties": {
          "name": "Chandipur beach",
          "description": "During low tides the beach recedes upto 5kms offering visitors an opportunity to walk on the sea bed.",
          "image": "chandipur.jpg",
          "state": "Odisha",
          "visited": 2019
        },
        "geometry": {
          "coordinates": [
            87.0404449, 21.4521835
          ],
          "type": "Point"
        }
      },
      {
        "type": "Feature",
        "properties": {
          "name": "Puri beach",
          "description": "Tourists visit the Puri beach for its undeniable charm, its sun, sand and stunning views of the Bay of Bengal.",
          "image": "puri.jpg",
          "state": "Odisha",
          "visited": 2019
        },
        "geometry": {
          "coordinates": [
            85.8417968, 19.7980254
          ],
          "type": "Point"
        }
      },
      {
        "type": "Feature",
        "properties": {
            "name": "Mahabalipuram beach",
            "description": "The beach lies on the shore of Bay of Bengal and comprises of some astonishing ancient rock-cut sculptures.",
            "image": "mahabalipuram.jpg",
            "state": "Tamil Nadu",
            "visited": 2012
        },
        "geometry": {
          "coordinates": [
            80.1954744, 12.6141268
          ],
          "type": "Point"
        }
      },
      {
        "type": "Feature",
        "properties": {
          "name": "Promenade beach",
          "description": "Rock beach (Plage de la promenade) is the popular stretch of beachfront in the city of Puducherry, along the Bay of Bengal.",
          "image": "promenade.jpg",
          "state": "Puducherry",
          "visited": 2012
        },
        "geometry": {
          "coordinates": [
            79.8361087, 11.9315116
          ],
          "type": "Point"
        }
      },
      {
        "type": "Feature",
        "properties": {
          "name": "Paradise beach",
          "description": "Paradise beach near Puducherry is widely famous for its unparalleled charm, pristine shores, and jaw-dropping scenery.",
          "image": "paradise.jpg",
          "state": "Puducherry",
          "visited": 2012
        },
        "geometry": {
          "coordinates": [
            79.8195601, 11.872288
          ],
          "type": "Point"
        }
      },
      {
        "type": "Feature",
        "properties": {
            "name": "Pichavaram mangrove forest",
            "description": "A hidden treasure near Chidabaram beach is one of the largest mangrove forests in India. Row boat is recommended to see the beauty of the place.",
            "image": "pichavaram.jpg",
            "state": "Tamil Nadu",
            "visited": 2012
        },
        "geometry": {
          "coordinates": [
            79.802158, 11.4315474
          ],
          "type": "Point"
        }
      },
      {
        "type": "Feature",
        "properties": {
            "name": "Nagaon beach",
            "description": "Bustling beach featuring a range of water sports, camel rides, bike rentals and nearby sea-food restaurants.",
            "image": "nagaon.jpg",
            "state": "Maharashtra",
            "visited": 2018
        },
        "geometry": {
          "coordinates": [
            72.8988139, 18.6015885
          ],
          "type": "Point"
        }
      },
      {
        "type": "Feature",
        "properties": {
            "name": "Revdanda beach",
            "description": "An abandoned fort stands in the jungle fringing this remote and tranquil beach with black sand.",
            "image": "revdanda.jpg",
            "state": "Maharashtra",
            "visited": 2018
        },
        "geometry": {
          "coordinates": [
            72.9189038, 18.5583457
          ],
          "type": "Point"
        }
      },
      {
        "type": "Feature",
        "properties": {
            "name": "Korlai beach",
            "description": "Set below an old fort and lighthouse, this secluded beach provides walking, fishing and sunset views.",
            "image": "korlai.jpg",
            "state": "Maharashtra",
            "visited": 2018
        },
        "geometry": {
          "coordinates": [
            72.9093211, 18.5251306
          ],
          "type": "Point"
        }
      }
    ]
  }