{
    "type": "FeatureCollection",
    "features": [
      {
        "type": "Feature",
        "properties": {
          "name": "Bhasar Lake",
          "description": "Bhasar Lake is a classic example of human efforts towards water preservation. The slope of the meadow is complemented with rock-concrete to ensure the snow melt and rain water remain available for long.",
          "image": "bhasarlake.jpg",
          "state": "Uttarakhand",
          "visited": 2023
        },
        "geometry": {
          "coordinates": [
            78.77722, 30.40208
          ],
          "type": "Point"
        }
      },
      {
        "type": "Feature",
        "properties": {
          "name": "Rai Lake",
          "description": "Located near Bhasar Lake, this lake is quite big and collects natural water from rainfall and snow melt.",
          "image": "railake.jpg",
          "state": "Uttarakhand",
          "visited": 2023
        },
        "geometry": {
          "coordinates": [
            78.78722, 30.40018
          ],
          "type": "Point"
        }
      },
      {
        "type": "Feature",
        "properties": {
          "name": "Jaral Tal",
          "description": "There are two lakes present out of which one is quite large. The water is fed from season rainfall and snow melt.",
          "image": "jaraltal.jpg",
          "state": "Uttarakhand",
          "visited": 2023
        },
        "geometry": {
          "coordinates": [
            78.62291,30.60015
          ],
          "type": "Point"
        }
      },
      {
        "type": "Feature",
        "properties": {
          "name": "Manjhyaar Tal",
          "description": "Manjhyaar Tal is a beautiful natural water lake that can be visited throughout the year. There are many paths to reach the lake but the easiest one is from Marwari village.",
          "image": "manjhyaartal.jpg",
          "state": "Uttarakhand",
          "visited": 2023
        },
        "geometry": {
          "coordinates": [
            78.61718,30.60855
          ],
          "type": "Point"
        }
      },
      {
        "type": "Feature",
        "properties": {
          "name": "Kanatal",
          "description": "Perched at an altitude of 2400m, Kanatal is a paradise for people who are looking for solace from hustle-bustle. There are multiples ways to reach Kanatal but the easiest one is 3.5 kms trek from Marwari village.",
          "image": "kanatalmaid.jpg",
          "state": "Uttarakhand",
          "visited": 2023
        },
        "geometry": {
          "coordinates": [
            78.61239,30.61757
          ],
          "type": "Point"
        }
      },
      {
        "type": "Feature",
        "properties": {
          "name": "Bharnala Tal",
          "description": "A picturesque lake near Barsu village that adorns a temple of Naag Devta and commands astonishing views of Srikantha, Jaonli and Gangotri peaks.",
          "image": "bharnalatal.jpg",
          "state": "Uttarakhand",
          "visited": 2023
        },
        "geometry": {
          "coordinates": [
            78.57749,30.83624
          ],
          "type": "Point"
        }
      },
      {
        "type": "Feature",
        "properties": {
          "name": "Gantachali Lake",
          "description": "A man-made lake to conserve rainwater that is starting point for a trek to Ghantakarn Temple.",
          "image": "gantachalilake.jpg",
          "state": "Uttarakhand",
          "visited": 2023
        },
        "geometry": {
          "coordinates": [
            78.41411,30.24217
          ],
          "type": "Point"
        }
      },
      {
        "type": "Feature",
        "properties": {
          "name": "Kaplas Kund",
          "description": "The lake is popularly known as Kailash Kund and is adobe of Vasuki Naag. Every year, a fair and yatra is organised from Bhaderwah during Janmastami.",
          "image": "kaplaskund.jpg",
          "state": "Jammu and Kashmir",
          "visited": 2023
        },
        "geometry": {
          "coordinates": [
            75.687,32.871
          ],
          "type": "Point"
        }
      },
      {
        "type": "Feature",
        "properties": {
          "name": "Rishi Pishi Dal",
          "description": "A group of two-three small lakes situated below Kailash Kund.",
          "image": "rishipishidal.jpg",
          "state": "Jammu and Kashmir",
          "visited": 2023
        },
        "geometry": {
          "coordinates": [
            75.684,32.878
          ],
          "type": "Point"
        }
      },
      {
        "type": "Feature",
        "properties": {
          "name": "Dodi Tal",
          "description": "A freshwater lake that is considered source of Assi Ganga river and is home to trout fish.",
          "image": "dodital.jpg",
          "state": "Uttarakhand",
          "visited": 2022
        },
        "geometry": {
          "coordinates": [
            78.52546,30.89794
          ],
          "type": "Point"
        }
      },
      {
        "type": "Feature",
        "properties": {
          "name": "Darwa Lake",
          "description": "A high altitude lake located near Darwa Pass commanding excellent view of Bandarpoonch peaks.",
          "image": "darwalake.jpg",
          "state": "Uttarakhand",
          "visited": 2022
        },
        "geometry": {
          "coordinates": [
            78.51110,30.91180
          ],
          "type": "Point"
        }
      },
      {
        "type": "Feature",
        "properties": {
          "name": "Kanatal",
          "description": "A small lake surrounded by apple orchards.",
          "image": "kanatalbanal.jpg",
          "state": "Uttarakhand",
          "visited": 2022
        },
        "geometry": {
          "coordinates": [
            78.15572,30.88818
          ],
          "type": "Point"
        }
      },
      {
        "type": "Feature",
        "properties": {
          "name": "Kaina Tal",
          "description": "A small lake near Kaina Danda used to store rainwater and is a source of drinking water for cattle.",
          "image": "kainatal.jpg",
          "state": "Uttarakhand",
          "visited": 2022
        },
        "geometry": {
          "coordinates": [
            77.94325,30.78371
          ],
          "type": "Point"
        }
      },
      {
        "type": "Feature",
        "properties": {
          "name": "Nausiri Tal",
          "description": "A small lake on Nausiri Danda near Kota village used to store rainwater and is a source of drinking water for the cattle.",
          "image": "nausirital.jpg",
          "state": "Uttarakhand",
          "visited": 2022
        },
        "geometry": {
          "coordinates": [
            78.03091,30.67743
          ],
          "type": "Point"
        }
      },
      {
        "type": "Feature",
        "properties": {
          "name": "Achhranda Tal",
          "description": "It is known as Aachhari Tal, commands nice view of mountain peaks and is a short hike from Patharkhol.",
          "image": "achhrandatal.jpg",
          "state": "Uttarakhand",
          "visited": 2022
        },
        "geometry": {
          "coordinates": [
            78.15588,30.63690
          ],
          "type": "Point"
        }
      },
      {
        "type": "Feature",
        "properties": {
          "name": "Sama Lake",
          "description": "These cluster of lakes on the ridge is an example of efforts put in by locals to store rainwater. The view of sunrise and sunset is mesmerizing.",
          "image": "samalake.jpg",
          "state": "Uttarakhand",
          "visited": 2021
        },
        "geometry": {
          "coordinates": [
            80.04317,29.98399
          ],
          "type": "Point"
        }
      },
      {
        "type": "Feature",
        "properties": {
          "name": "Niharika Lake",
          "description": "Nestled in the Aravalli hills close to Gurgaon - Faridabad road, this lake is a pristine beauty. One has to trek through thorny bushes and litle rough terrain to reach the lake.",
          "image": "niharikalake.jpg",
          "state": "Haryana",
          "visited": 2013
        },
        "geometry": {
          "coordinates": [
            77.22486,28.40813
          ],
          "type": "Point"
        }
      },
      {
        "type": "Feature",
        "properties": {
          "name": "Mangar Lake",
          "description": "It is an attractive lake near Mangar village, although one has to pass through thorny bushes and rough roads to reach the lake.",
          "image": "mangarlake.jpg",
          "state": "Haryana",
          "visited": 2013
        },
        "geometry": {
          "coordinates": [
            77.19423,28.39233
          ],
          "type": "Point"
        }
      },
      {
        "type": "Feature",
        "properties": {
          "name": "Gadisar Lake",
          "description": "An artificial lake in Jaisalmer that provides drinking water to the entire city.",
          "image": "gadisarlake.jpg",
          "state": "Rajasthan",
          "visited": 2013
        },
        "geometry": {
          "coordinates": [
            70.92205,26.90810
          ],
          "type": "Point"
        }
      },
      {
        "type": "Feature",
        "properties": {
          "name": "Karnaji Lake",
          "description": "A wetland in Mysuru that is favourite haunt of migratory birds like herons and egrets.",
          "image": "karnajilake.jpg",
          "state": "Karnataka",
          "visited": 2012
        },
        "geometry": {
          "coordinates": [
            76.67379,12.30249
          ],
          "type": "Point"
        }
      },
      {
        "type": "Feature",
        "properties": {
          "name": "Chandragiri Fort Pond",
          "description": "A small pond formed due to water seeping in from the upper section of Chandragiri Kota is used for leaisure activities like boating.",
          "image": "chandragiripond.jpg",
          "state": "Andhra Pradesh",
          "visited": 2012
        },
        "geometry": {
          "coordinates": [
            79.30448,13.58329
          ],
          "type": "Point"
        }
      },
      {
        "type": "Feature",
        "properties": {
          "name": "Khajjiar Lake",
          "description": "The lake is set in a huge grassy landscape, with evergreen cedar trees surrounding it from all sides.",
          "image": "khajjiarlake.jpg",
          "state": "Himachal Pradesh",
          "visited": 2014
        },
        "geometry": {
          "coordinates": [
            76.05807,32.54636
          ],
          "type": "Point"
        }
      },
      {
        "type": "Feature",
        "properties": {
          "name": "Parashar Lake",
          "description": "A freshwater lake with three storied pagoda-like temple dedicated to the sage Parashar and a floating island.",
          "image": "parasharlake.jpg",
          "state": "Himachal Pradesh",
          "visited": 2014
        },
        "geometry": {
          "coordinates": [
            77.10119,31.75436
          ],
          "type": "Point"
        }
      },
      {
        "type": "Feature",
        "properties": {
          "name": "Roopkund",
          "description": "A high altitude mystery lake known for the hundreds of human skeletons found at the edge of the lake and the wrath of Nanda Devi",
          "image": "roopkund.jpg",
          "state": "Uttarakhand",
          "visited": 2014
        },
        "geometry": {
          "coordinates": [
            79.73172,30.26216
          ],
          "type": "Point"
        }
      },
      {
        "type": "Feature",
        "properties": {
          "name": "Bedni Kund",
          "description": "It is a small lake also known as Vaitarani (Bedni Kund) and is situated amidst the lush green alpine meadows of Bedni Bugyal.",
          "image": "bednikund.jpg",
          "state": "Uttarakhand",
          "visited": 2014
        },
        "geometry": {
          "coordinates": [
            79.66725,30.20603
          ],
          "type": "Point"
        }
      },
      {
        "type": "Feature",
        "properties": {
          "name": "Kareri Lake",
          "description": "This lake is formed by snow melting from the Dhauladhar range and serves as the source of Nyund stream.",
          "image": "karerilake.jpg",
          "state": "Himachal Pradesh",
          "visited": 2014
        },
        "geometry": {
          "coordinates": [
            76.27353,32.32608
          ],
          "type": "Point"
        }
      }
    ]
  }