{"type":"FeatureCollection","features":[{"type":"Feature","properties":{"name":"Adi Badri","description":"The Adi Badri temple complex is a cluster of 16 small shrines. Seven temples of this chain were built during the late Gupta period.","image":"uk_adibadri.jpg"},"geometry":{"coordinates":[79.22664951196674,30.156115319721962],"type":"Point"}},{"type":"Feature","properties":{"name":"Vriddh Badri","description":"The Vriddha Badri legend says that Vishnu appeared in the form of a Vriddha or old man before sage Narada who performed penance here.","image":"uk_vriddhbadri.jpg"},"geometry":{"coordinates":[79.52144756395103,30.532654151655507],"type":"Point"}},{"type":"Feature","properties":{"name":"Bhavishya Badri","description":"According to the legend, when evil transcends the world, the mountains of Nara and Narayana would block up the route to Badrinath and the sacred shrine would become inaccessible. Then, Badrinath will appear at the Bhavishya Badri temple and be worshipped here.","image":"uk_bhavishyabadri.jpg"},"geometry":{"coordinates":[79.67574119028455,30.467533045009887],"type":"Point"}},{"type":"Feature","properties":{"name":"Yogadhyan Badri","description":"Yogadhyan Badri, also called Yoga Badri is the same place King Pandu, father of the five Pandavas, meditated  to god Vishnu to cleanse him of the sin of killing of two mating deer, who were ascetics in their previous lives.","image":"uk_yogbadri.jpg"},"geometry":{"coordinates":[79.54954340813629,30.632701352963167],"type":"Point"}},{"type":"Feature","properties":{"name":"Dhyan Badri","description":"The legend of Dhyan Badri (meditating Badri) is linked to the Urvarishi, son of King Puranjaya of the Pandavas lineage who meditated in the Urgam region and established the temple for Vishnu.","image":"uk_dhyanbadri.jpg"},"geometry":{"coordinates":[79.4601986937588,30.533517028539706],"type":"Point"}},{"type":"Feature","properties":{"name":"Badrinath","description":"The Badrinath Temple also known as the Badrinarayan Temple, located in Uttarakhand's Badrinath town, is one of the four important pilgrimages in the state.","image":"uk_badrinath.jpg"},"geometry":{"coordinates":[79.49113359581605,30.74479249346959],"type":"Point"}},{"type":"Feature","properties":{"name":"Narsingh Badri","description":"It is believed that one arm of the Narsingh idol is getting emaciated with time and finally fall off. When the arm disappears, the main shrine of Badrinath will be closed to the world and Lord Badrinath will shift to Bhavishya Badri shrine.","image":"uk_narsinghbadri.jpg"},"geometry":{"coordinates":[79.5658393374635,30.556360856691754],"type":"Point"}},{"type":"Feature","properties":{"name":"Ardha Badri","description":"Ardha Badri (half Badri), located on the Joshimath-Tapovan road is in a remote village called Mrig and can be approached only by short trek along a steep bridle path. ","image":"uk_ardhabadri.jpg"},"geometry":{"coordinates":[79.60855214243014,30.51705587765815],"type":"Point"}}]}