{"type":"FeatureCollection","features":[{"type":"Feature","properties":{"name":"Yamunotri","description":"Yamunotri, is the source of the Yamuna River and the seat of the Goddess Yamuna in Hinduism.","image":"uk_yamunotri.jpg"},"geometry":{"coordinates":[78.46295438835517,30.999131298409665],"type":"Point"},"id":0},{"type":"Feature","properties":{"name":"Gangotri","description":"It is a Hindu pilgrim town on the banks of the river Bhagirathi - the origin of the river Ganges.","image":"uk_gangotri.jpg"},"geometry":{"coordinates":[78.94121902141416,30.994434805103808],"type":"Point"}},{"type":"Feature","properties":{"name":"Badrinath","description":"The Badrinath Temple also known as the Badrinarayan Temple, located in Uttarakhand's Badrinath town, is one of the four important pilgrimages in the state. ","image":"uk_badrinath.jpg"},"geometry":{"coordinates":[79.4911431525473,30.744785070741017],"type":"Point"}},{"type":"Feature","properties":{"name":"Kedarnath","description":"Kedarnath is a prominent pilgrimage center and is part of twelve auspicious and holy jyothirlingas (a manifestation of Lord Shiva).","image":"uk_kedarnath.jpg"},"geometry":{"coordinates":[79.06688485778159,30.735270269440278],"type":"Point"}}]}