{"type":"FeatureCollection","features":[{"type":"Feature","properties":{"Subbasin":"Yamuna","LakeType":"E(o)","Area":7},"geometry":{"type":"Point","coordinates":[78.312,31.274]}},{"type":"Feature","properties":{"Subbasin":"Yamuna","LakeType":"E(o)","Area":4},"geometry":{"type":"Point","coordinates":[78.315,31.273]}},{"type":"Feature","properties":{"Subbasin":"Yamuna","LakeType":"M(e)","Area":12.6},"geometry":{"type":"Point","coordinates":[78.339,31.269]}},{"type":"Feature","properties":{"Subbasin":"Yamuna","LakeType":"E(o)","Area":20.7},"geometry":{"type":"Point","coordinates":[78.347,31.228]}},{"type":"Feature","properties":{"Subbasin":"Yamuna","LakeType":"I(s)","Area":2.8},"geometry":{"type":"Point","coordinates":[78.402,31.21]}},{"type":"Feature","properties":{"Subbasin":"Yamuna","LakeType":"I(s)","Area":3.3},"geometry":{"type":"Point","coordinates":[78.405,31.209]}},{"type":"Feature","properties":{"Subbasin":"Yamuna","LakeType":"E(o)","Area":6.9},"geometry":{"type":"Point","coordinates":[78.297,31.209]}},{"type":"Feature","properties":{"Subbasin":"Yamuna","LakeType":"E(o)","Area":3.8},"geometry":{"type":"Point","coordinates":[78.299,31.201]}},{"type":"Feature","properties":{"Subbasin":"Yamuna","LakeType":"O","Area":8},"geometry":{"type":"Point","coordinates":[78.348,31.185]}},{"type":"Feature","properties":{"Subbasin":"Yamuna","LakeType":"O","Area":2.8},"geometry":{"type":"Point","coordinates":[78.343,31.185]}},{"type":"Feature","properties":{"Subbasin":"Yamuna","LakeType":"O","Area":3.6},"geometry":{"type":"Point","coordinates":[78.344,31.184]}},{"type":"Feature","properties":{"Subbasin":"Yamuna","LakeType":"E(o)","Area":7.2},"geometry":{"type":"Point","coordinates":[78.406,31.179]}},{"type":"Feature","properties":{"Subbasin":"Yamuna","LakeType":"O","Area":5.9},"geometry":{"type":"Point","coordinates":[78.458,31.081]}},{"type":"Feature","properties":{"Subbasin":"Yamuna","LakeType":"E(o)","Area":33.1},"geometry":{"type":"Point","coordinates":[78.38,31.078]}},{"type":"Feature","properties":{"Subbasin":"Yamuna","LakeType":"E(o)","Area":12.7},"geometry":{"type":"Point","coordinates":[78.487,31.011]}},{"type":"Feature","properties":{"Subbasin":"Upper Ganga","LakeType":"M(o)","Area":56.4},"geometry":{"type":"Point","coordinates":[78.628,31.174]}},{"type":"Feature","properties":{"Subbasin":"Upper Ganga","LakeType":"E(o)","Area":3.9},"geometry":{"type":"Point","coordinates":[78.649,31.163]}},{"type":"Feature","properties":{"Subbasin":"Yamuna","LakeType":"I(s)","Area":4.1},"geometry":{"type":"Point","coordinates":[78.526,31.152]}},{"type":"Feature","properties":{"Subbasin":"Yamuna","LakeType":"I(s)","Area":3},"geometry":{"type":"Point","coordinates":[78.522,31.151]}},{"type":"Feature","properties":{"Subbasin":"Upper Ganga","LakeType":"O","Area":4.2},"geometry":{"type":"Point","coordinates":[78.687,31.144]}},{"type":"Feature","properties":{"Subbasin":"Upper Ganga","LakeType":"M(o)","Area":3.5},"geometry":{"type":"Point","coordinates":[78.896,31.28]}},{"type":"Feature","properties":{"Subbasin":"Upper Ganga","LakeType":"M(o)","Area":52.3},"geometry":{"type":"Point","coordinates":[78.939,31.27]}},{"type":"Feature","properties":{"Subbasin":"Upper Ganga","LakeType":"M(o)","Area":5.1},"geometry":{"type":"Point","coordinates":[78.911,31.259]}},{"type":"Feature","properties":{"Subbasin":"Upper Ganga","LakeType":"M(o)","Area":2.8},"geometry":{"type":"Point","coordinates":[78.938,31.253]}},{"type":"Feature","properties":{"Subbasin":"Upper Ganga","LakeType":"M(o)","Area":9.3},"geometry":{"type":"Point","coordinates":[78.957,31.203]}},{"type":"Feature","properties":{"Subbasin":"Upper Ganga","LakeType":"E(o)","Area":5.5},"geometry":{"type":"Point","coordinates":[78.794,31.183]}},{"type":"Feature","properties":{"Subbasin":"Upper Ganga","LakeType":"M(o)","Area":31.7},"geometry":{"type":"Point","coordinates":[79.414,31.06]}},{"type":"Feature","properties":{"Subbasin":"Upper Ganga","LakeType":"E(c)","Area":22.8},"geometry":{"type":"Point","coordinates":[79.396,31.059]}},{"type":"Feature","properties":{"Subbasin":"Upper Ganga","LakeType":"M(o)","Area":21},"geometry":{"type":"Point","coordinates":[79.407,31.054]}},{"type":"Feature","properties":{"Subbasin":"Upper Ganga","LakeType":"M(e)","Area":15.8},"geometry":{"type":"Point","coordinates":[79.412,31.053]}},{"type":"Feature","properties":{"Subbasin":"Upper Ganga","LakeType":"O","Area":43.7},"geometry":{"type":"Point","coordinates":[79.4,31.047]}},{"type":"Feature","properties":{"Subbasin":"Upper Ganga","LakeType":"O","Area":9.3},"geometry":{"type":"Point","coordinates":[79.403,31.046]}},{"type":"Feature","properties":{"Subbasin":"Upper Ganga","LakeType":"O","Area":2.7},"geometry":{"type":"Point","coordinates":[79.397,31.043]}},{"type":"Feature","properties":{"Subbasin":"Upper Ganga","LakeType":"O","Area":6.7},"geometry":{"type":"Point","coordinates":[79.393,31.042]}},{"type":"Feature","properties":{"Subbasin":"Upper Ganga","LakeType":"M(o)","Area":3.9},"geometry":{"type":"Point","coordinates":[79.274,31.033]}},{"type":"Feature","properties":{"Subbasin":"Upper Ganga","LakeType":"E(o)","Area":3.9},"geometry":{"type":"Point","coordinates":[79.375,31.029]}},{"type":"Feature","properties":{"Subbasin":"Upper Ganga","LakeType":"M(o)","Area":5.8},"geometry":{"type":"Point","coordinates":[79.36,31.026]}},{"type":"Feature","properties":{"Subbasin":"Upper Ganga","LakeType":"M(o)","Area":9},"geometry":{"type":"Point","coordinates":[79.35,31.025]}},{"type":"Feature","properties":{"Subbasin":"Upper Ganga","LakeType":"M(o)","Area":15.4},"geometry":{"type":"Point","coordinates":[79.363,31.025]}},{"type":"Feature","properties":{"Subbasin":"Upper Ganga","LakeType":"M(o)","Area":2.6},"geometry":{"type":"Point","coordinates":[79.352,31.024]}},{"type":"Feature","properties":{"Subbasin":"Upper Ganga","LakeType":"M(o)","Area":2.5},"geometry":{"type":"Point","coordinates":[79.349,31.024]}},{"type":"Feature","properties":{"Subbasin":"Upper Ganga","LakeType":"M(o)","Area":10.4},"geometry":{"type":"Point","coordinates":[79.356,31.024]}},{"type":"Feature","properties":{"Subbasin":"Upper Ganga","LakeType":"M(o)","Area":33.4},"geometry":{"type":"Point","coordinates":[79.361,31.023]}},{"type":"Feature","properties":{"Subbasin":"Upper Ganga","LakeType":"M(o)","Area":7.6},"geometry":{"type":"Point","coordinates":[79.35,31.023]}},{"type":"Feature","properties":{"Subbasin":"Upper Ganga","LakeType":"E(o)","Area":3.4},"geometry":{"type":"Point","coordinates":[79.344,31.023]}},{"type":"Feature","properties":{"Subbasin":"Upper Ganga","LakeType":"M(o)","Area":3.7},"geometry":{"type":"Point","coordinates":[79.35,31.022]}},{"type":"Feature","properties":{"Subbasin":"Upper Ganga","LakeType":"E(o)","Area":6.7},"geometry":{"type":"Point","coordinates":[79.428,31.017]}},{"type":"Feature","properties":{"Subbasin":"Upper Ganga","LakeType":"E(o)","Area":6},"geometry":{"type":"Point","coordinates":[79.369,31.016]}},{"type":"Feature","properties":{"Subbasin":"Upper Ganga","LakeType":"M(o)","Area":9.8},"geometry":{"type":"Point","coordinates":[79.453,31.016]}},{"type":"Feature","properties":{"Subbasin":"Upper Ganga","LakeType":"E(o)","Area":8.9},"geometry":{"type":"Point","coordinates":[79.363,31.015]}},{"type":"Feature","properties":{"Subbasin":"Upper Ganga","LakeType":"E(o)","Area":3.5},"geometry":{"type":"Point","coordinates":[79.367,31.015]}},{"type":"Feature","properties":{"Subbasin":"Upper Ganga","LakeType":"E(o)","Area":21.4},"geometry":{"type":"Point","coordinates":[79.449,31.014]}},{"type":"Feature","properties":{"Subbasin":"Upper Ganga","LakeType":"E(o)","Area":11.2},"geometry":{"type":"Point","coordinates":[79.432,31.012]}},{"type":"Feature","properties":{"Subbasin":"Upper Ganga","LakeType":"M(o)","Area":6.3},"geometry":{"type":"Point","coordinates":[79.443,31.007]}},{"type":"Feature","properties":{"Subbasin":"Upper Ganga","LakeType":"M(o)","Area":19.8},"geometry":{"type":"Point","coordinates":[79.406,31.005]}},{"type":"Feature","properties":{"Subbasin":"Upper Ganga","LakeType":"E(c)","Area":5.2},"geometry":{"type":"Point","coordinates":[79.446,31.004]}},{"type":"Feature","properties":{"Subbasin":"Upper Ganga","LakeType":"M(o)","Area":4.5},"geometry":{"type":"Point","coordinates":[79.405,31.004]}},{"type":"Feature","properties":{"Subbasin":"Upper Ganga","LakeType":"I(s)","Area":6.8},"geometry":{"type":"Point","coordinates":[79.274,31.001]}},{"type":"Feature","properties":{"Subbasin":"Upper Ganga","LakeType":"I(s)","Area":3.7},"geometry":{"type":"Point","coordinates":[79.092,30.913]}},{"type":"Feature","properties":{"Subbasin":"Upper Ganga","LakeType":"M(o)","Area":6.8},"geometry":{"type":"Point","coordinates":[79.189,30.912]}},{"type":"Feature","properties":{"Subbasin":"Upper Ganga","LakeType":"I(s)","Area":3.6},"geometry":{"type":"Point","coordinates":[79.095,30.91]}},{"type":"Feature","properties":{"Subbasin":"Upper Ganga","LakeType":"I(s)","Area":7.6},"geometry":{"type":"Point","coordinates":[79.172,30.907]}},{"type":"Feature","properties":{"Subbasin":"Upper Ganga","LakeType":"I(s)","Area":4.9},"geometry":{"type":"Point","coordinates":[79.096,30.894]}},{"type":"Feature","properties":{"Subbasin":"Upper Ganga","LakeType":"I(s)","Area":7.6},"geometry":{"type":"Point","coordinates":[79.098,30.888]}},{"type":"Feature","properties":{"Subbasin":"Upper Ganga","LakeType":"I(s)","Area":2.7},"geometry":{"type":"Point","coordinates":[79.098,30.881]}},{"type":"Feature","properties":{"Subbasin":"Upper Ganga","LakeType":"I(s)","Area":3},"geometry":{"type":"Point","coordinates":[79.099,30.868]}},{"type":"Feature","properties":{"Subbasin":"Upper Ganga","LakeType":"I(s)","Area":3.5},"geometry":{"type":"Point","coordinates":[79.11,30.858]}},{"type":"Feature","properties":{"Subbasin":"Upper Ganga","LakeType":"I(s)","Area":2.7},"geometry":{"type":"Point","coordinates":[79.11,30.856]}},{"type":"Feature","properties":{"Subbasin":"Upper Ganga","LakeType":"I(s)","Area":22.4},"geometry":{"type":"Point","coordinates":[79.114,30.847]}},{"type":"Feature","properties":{"Subbasin":"Upper Ganga","LakeType":"I(s)","Area":7.1},"geometry":{"type":"Point","coordinates":[79.114,30.834]}},{"type":"Feature","properties":{"Subbasin":"Upper Ganga","LakeType":"I(s)","Area":5.3},"geometry":{"type":"Point","coordinates":[79.126,30.826]}},{"type":"Feature","properties":{"Subbasin":"Upper Ganga","LakeType":"I(s)","Area":3.5},"geometry":{"type":"Point","coordinates":[79.128,30.817]}},{"type":"Feature","properties":{"Subbasin":"Upper Ganga","LakeType":"I(s)","Area":4.6},"geometry":{"type":"Point","coordinates":[79.15,30.808]}},{"type":"Feature","properties":{"Subbasin":"Upper Ganga","LakeType":"M(l)","Area":34.9},"geometry":{"type":"Point","coordinates":[79.123,30.807]}},{"type":"Feature","properties":{"Subbasin":"Upper Ganga","LakeType":"I(s)","Area":7.8},"geometry":{"type":"Point","coordinates":[79.154,30.806]}},{"type":"Feature","properties":{"Subbasin":"Upper Ganga","LakeType":"E(o)","Area":4.4},"geometry":{"type":"Point","coordinates":[79.126,30.804]}},{"type":"Feature","properties":{"Subbasin":"Upper Ganga","LakeType":"I(s)","Area":6},"geometry":{"type":"Point","coordinates":[79.157,30.804]}},{"type":"Feature","properties":{"Subbasin":"Upper Ganga","LakeType":"I(s)","Area":3.6},"geometry":{"type":"Point","coordinates":[79.059,30.758]}},{"type":"Feature","properties":{"Subbasin":"Upper Ganga","LakeType":"I(s)","Area":3.2},"geometry":{"type":"Point","coordinates":[79.057,30.758]}},{"type":"Feature","properties":{"Subbasin":"Upper Ganga","LakeType":"E(c)","Area":30.3},"geometry":{"type":"Point","coordinates":[79.01,30.742]}},{"type":"Feature","properties":{"Subbasin":"Upper Ganga","LakeType":"E(o)","Area":10.6},"geometry":{"type":"Point","coordinates":[79.034,30.734]}},{"type":"Feature","properties":{"Subbasin":"Upper Ganga","LakeType":"E(c)","Area":85.9},"geometry":{"type":"Point","coordinates":[79.038,30.726]}},{"type":"Feature","properties":{"Subbasin":"Upper Ganga","LakeType":"E(o)","Area":31},"geometry":{"type":"Point","coordinates":[79.127,30.722]}},{"type":"Feature","properties":{"Subbasin":"Upper Ganga","LakeType":"E(c)","Area":5.5},"geometry":{"type":"Point","coordinates":[79.249,30.66]}},{"type":"Feature","properties":{"Subbasin":"Upper Ganga","LakeType":"M(l)","Area":6.5},"geometry":{"type":"Point","coordinates":[79.292,30.995]}},{"type":"Feature","properties":{"Subbasin":"Upper Ganga","LakeType":"M(e)","Area":2.8},"geometry":{"type":"Point","coordinates":[79.41,30.995]}},{"type":"Feature","properties":{"Subbasin":"Upper Ganga","LakeType":"M(o)","Area":4.6},"geometry":{"type":"Point","coordinates":[79.409,30.995]}},{"type":"Feature","properties":{"Subbasin":"Upper Ganga","LakeType":"M(o)","Area":18.1},"geometry":{"type":"Point","coordinates":[79.354,30.994]}},{"type":"Feature","properties":{"Subbasin":"Upper Ganga","LakeType":"M(o)","Area":7.5},"geometry":{"type":"Point","coordinates":[79.356,30.993]}},{"type":"Feature","properties":{"Subbasin":"Upper Ganga","LakeType":"M(l)","Area":19.4},"geometry":{"type":"Point","coordinates":[79.303,30.992]}},{"type":"Feature","properties":{"Subbasin":"Upper Ganga","LakeType":"M(o)","Area":32.9},"geometry":{"type":"Point","coordinates":[79.359,30.991]}},{"type":"Feature","properties":{"Subbasin":"Upper Ganga","LakeType":"E(o)","Area":4.4},"geometry":{"type":"Point","coordinates":[79.35,30.984]}},{"type":"Feature","properties":{"Subbasin":"Upper Ganga","LakeType":"M(o)","Area":3},"geometry":{"type":"Point","coordinates":[79.341,30.982]}},{"type":"Feature","properties":{"Subbasin":"Upper Ganga","LakeType":"M(o)","Area":5.6},"geometry":{"type":"Point","coordinates":[79.368,30.982]}},{"type":"Feature","properties":{"Subbasin":"Upper Ganga","LakeType":"M(o)","Area":56},"geometry":{"type":"Point","coordinates":[79.488,30.981]}},{"type":"Feature","properties":{"Subbasin":"Upper Ganga","LakeType":"M(o)","Area":2.5},"geometry":{"type":"Point","coordinates":[79.367,30.981]}},{"type":"Feature","properties":{"Subbasin":"Upper Ganga","LakeType":"I(s)","Area":2.5},"geometry":{"type":"Point","coordinates":[79.364,30.978]}},{"type":"Feature","properties":{"Subbasin":"Upper Ganga","LakeType":"M(o)","Area":5.7},"geometry":{"type":"Point","coordinates":[79.482,30.976]}},{"type":"Feature","properties":{"Subbasin":"Upper Ganga","LakeType":"M(e)","Area":170.2},"geometry":{"type":"Point","coordinates":[79.46,30.976]}},{"type":"Feature","properties":{"Subbasin":"Upper Ganga","LakeType":"I(s)","Area":10.8},"geometry":{"type":"Point","coordinates":[79.736,30.87]}},{"type":"Feature","properties":{"Subbasin":"Upper Ganga","LakeType":"I(s)","Area":2.5},"geometry":{"type":"Point","coordinates":[79.733,30.87]}},{"type":"Feature","properties":{"Subbasin":"Upper Ganga","LakeType":"E(o)","Area":4.7},"geometry":{"type":"Point","coordinates":[79.552,30.869]}},{"type":"Feature","properties":{"Subbasin":"Upper Ganga","LakeType":"I(s)","Area":5.8},"geometry":{"type":"Point","coordinates":[79.514,30.868]}},{"type":"Feature","properties":{"Subbasin":"Upper Ganga","LakeType":"I(s)","Area":4.8},"geometry":{"type":"Point","coordinates":[79.525,30.84]}},{"type":"Feature","properties":{"Subbasin":"Upper Ganga","LakeType":"I(s)","Area":16.3},"geometry":{"type":"Point","coordinates":[79.526,30.838]}},{"type":"Feature","properties":{"Subbasin":"Upper Ganga","LakeType":"I(s)","Area":4.4},"geometry":{"type":"Point","coordinates":[79.707,30.8]}},{"type":"Feature","properties":{"Subbasin":"Upper Ganga","LakeType":"I(s)","Area":4},"geometry":{"type":"Point","coordinates":[79.712,30.794]}},{"type":"Feature","properties":{"Subbasin":"Upper Ganga","LakeType":"I(s)","Area":5},"geometry":{"type":"Point","coordinates":[79.58,30.761]}},{"type":"Feature","properties":{"Subbasin":"Upper Ganga","LakeType":"I(s)","Area":2.9},"geometry":{"type":"Point","coordinates":[79.742,30.746]}},{"type":"Feature","properties":{"Subbasin":"Upper Ganga","LakeType":"I(s)","Area":3.2},"geometry":{"type":"Point","coordinates":[79.745,30.746]}},{"type":"Feature","properties":{"Subbasin":"Upper Ganga","LakeType":"I(s)","Area":5},"geometry":{"type":"Point","coordinates":[79.738,30.743]}},{"type":"Feature","properties":{"Subbasin":"Upper Ganga","LakeType":"E(c)","Area":4.7},"geometry":{"type":"Point","coordinates":[79.574,30.73]}},{"type":"Feature","properties":{"Subbasin":"Upper Ganga","LakeType":"E(c)","Area":97.4},"geometry":{"type":"Point","coordinates":[79.618,30.699]}},{"type":"Feature","properties":{"Subbasin":"Upper Ganga","LakeType":"M(l)","Area":13.8},"geometry":{"type":"Point","coordinates":[79.695,30.639]}},{"type":"Feature","properties":{"Subbasin":"Upper Ganga","LakeType":"E(c)","Area":75.2},"geometry":{"type":"Point","coordinates":[79.665,30.629]}},{"type":"Feature","properties":{"Subbasin":"Upper Ganga","LakeType":"E(o)","Area":5.6},"geometry":{"type":"Point","coordinates":[79.7,30.584]}},{"type":"Feature","properties":{"Subbasin":"Upper Ganga","LakeType":"E(o)","Area":5.1},"geometry":{"type":"Point","coordinates":[79.678,30.334]}},{"type":"Feature","properties":{"Subbasin":"Upper Ganga","LakeType":"E(o)","Area":3.9},"geometry":{"type":"Point","coordinates":[79.677,30.333]}},{"type":"Feature","properties":{"Subbasin":"Upper Ganga","LakeType":"E(o)","Area":10.9},"geometry":{"type":"Point","coordinates":[79.678,30.329]}},{"type":"Feature","properties":{"Subbasin":"Upper Ganga","LakeType":"E(o)","Area":7.4},"geometry":{"type":"Point","coordinates":[79.589,30.177]}},{"type":"Feature","properties":{"Subbasin":"Upper Ganga","LakeType":"E(c)","Area":10.2},"geometry":{"type":"Point","coordinates":[79.751,30.988]}},{"type":"Feature","properties":{"Subbasin":"Upper Ganga","LakeType":"E(o)","Area":2.9},"geometry":{"type":"Point","coordinates":[79.751,30.978]}},{"type":"Feature","properties":{"Subbasin":"Upper Ganga","LakeType":"E(c)","Area":81.1},"geometry":{"type":"Point","coordinates":[79.825,30.908]}},{"type":"Feature","properties":{"Subbasin":"Upper Ganga","LakeType":"M(e)","Area":220.4},"geometry":{"type":"Point","coordinates":[79.754,30.901]}},{"type":"Feature","properties":{"Subbasin":"Upper Ganga","LakeType":"M(o)","Area":7.1},"geometry":{"type":"Point","coordinates":[79.751,30.899]}},{"type":"Feature","properties":{"Subbasin":"Upper Ganga","LakeType":"M(o)","Area":16.9},"geometry":{"type":"Point","coordinates":[79.754,30.898]}},{"type":"Feature","properties":{"Subbasin":"Upper Ganga","LakeType":"M(o)","Area":7.6},"geometry":{"type":"Point","coordinates":[79.757,30.897]}},{"type":"Feature","properties":{"Subbasin":"Upper Ganga","LakeType":"M(o)","Area":2.6},"geometry":{"type":"Point","coordinates":[79.756,30.897]}},{"type":"Feature","properties":{"Subbasin":"Upper Ganga","LakeType":"E(o)","Area":4.6},"geometry":{"type":"Point","coordinates":[79.944,30.879]}},{"type":"Feature","properties":{"Subbasin":"Upper Ganga","LakeType":"E(o)","Area":2.9},"geometry":{"type":"Point","coordinates":[79.975,30.864]}},{"type":"Feature","properties":{"Subbasin":"Upper Ganga","LakeType":"E(o)","Area":4.2},"geometry":{"type":"Point","coordinates":[79.98,30.863]}},{"type":"Feature","properties":{"Subbasin":"Upper Ganga","LakeType":"E(c)","Area":5.2},"geometry":{"type":"Point","coordinates":[79.905,30.837]}},{"type":"Feature","properties":{"Subbasin":"Upper Ganga","LakeType":"M(o)","Area":2.6},"geometry":{"type":"Point","coordinates":[79.92,30.835]}},{"type":"Feature","properties":{"Subbasin":"Upper Ganga","LakeType":"M(e)","Area":48.3},"geometry":{"type":"Point","coordinates":[79.894,30.83]}},{"type":"Feature","properties":{"Subbasin":"Upper Ganga","LakeType":"M(o)","Area":8.6},"geometry":{"type":"Point","coordinates":[79.761,30.826]}},{"type":"Feature","properties":{"Subbasin":"Upper Ganga","LakeType":"M(o)","Area":3.3},"geometry":{"type":"Point","coordinates":[79.92,30.826]}},{"type":"Feature","properties":{"Subbasin":"Upper Ganga","LakeType":"M(o)","Area":3.1},"geometry":{"type":"Point","coordinates":[79.918,30.825]}},{"type":"Feature","properties":{"Subbasin":"Upper Ganga","LakeType":"M(o)","Area":3.1},"geometry":{"type":"Point","coordinates":[79.772,30.823]}},{"type":"Feature","properties":{"Subbasin":"Upper Ganga","LakeType":"M(o)","Area":50.2},"geometry":{"type":"Point","coordinates":[79.926,30.814]}},{"type":"Feature","properties":{"Subbasin":"Upper Ganga","LakeType":"M(e)","Area":29.4},"geometry":{"type":"Point","coordinates":[79.921,30.811]}},{"type":"Feature","properties":{"Subbasin":"Upper Ganga","LakeType":"E(o)","Area":11.6},"geometry":{"type":"Point","coordinates":[79.912,30.81]}},{"type":"Feature","properties":{"Subbasin":"Upper Ganga","LakeType":"I(s)","Area":2.7},"geometry":{"type":"Point","coordinates":[79.754,30.75]}},{"type":"Feature","properties":{"Subbasin":"Upper Ganga","LakeType":"I(s)","Area":3},"geometry":{"type":"Point","coordinates":[79.768,30.747]}},{"type":"Feature","properties":{"Subbasin":"Upper Ganga","LakeType":"I(s)","Area":5.5},"geometry":{"type":"Point","coordinates":[79.782,30.701]}},{"type":"Feature","properties":{"Subbasin":"Upper Ganga","LakeType":"I(s)","Area":8.4},"geometry":{"type":"Point","coordinates":[79.773,30.695]}},{"type":"Feature","properties":{"Subbasin":"Upper Ganga","LakeType":"I(s)","Area":2.5},"geometry":{"type":"Point","coordinates":[79.893,30.567]}},{"type":"Feature","properties":{"Subbasin":"Upper Ganga","LakeType":"M(l)","Area":4.3},"geometry":{"type":"Point","coordinates":[79.946,30.559]}},{"type":"Feature","properties":{"Subbasin":"Upper Ganga","LakeType":"I(s)","Area":4.5},"geometry":{"type":"Point","coordinates":[79.893,30.557]}},{"type":"Feature","properties":{"Subbasin":"Upper Ganga","LakeType":"I(s)","Area":4.2},"geometry":{"type":"Point","coordinates":[79.947,30.555]}},{"type":"Feature","properties":{"Subbasin":"Upper Ganga","LakeType":"I(s)","Area":4.2},"geometry":{"type":"Point","coordinates":[79.95,30.551]}},{"type":"Feature","properties":{"Subbasin":"Upper Ganga","LakeType":"I(s)","Area":3.5},"geometry":{"type":"Point","coordinates":[79.95,30.55]}},{"type":"Feature","properties":{"Subbasin":"Upper Ganga","LakeType":"M(o)","Area":4.5},"geometry":{"type":"Point","coordinates":[79.938,30.541]}},{"type":"Feature","properties":{"Subbasin":"Upper Ganga","LakeType":"I(s)","Area":2.8},"geometry":{"type":"Point","coordinates":[79.919,30.518]}},{"type":"Feature","properties":{"Subbasin":"Upper Ganga","LakeType":"I(s)","Area":2.7},"geometry":{"type":"Point","coordinates":[79.988,30.501]}},{"type":"Feature","properties":{"Subbasin":"Upper Ganga","LakeType":"I(s)","Area":3.5},"geometry":{"type":"Point","coordinates":[79.871,30.493]}},{"type":"Feature","properties":{"Subbasin":"Upper Ganga","LakeType":"I(s)","Area":4.1},"geometry":{"type":"Point","coordinates":[79.875,30.485]}},{"type":"Feature","properties":{"Subbasin":"Upper Ganga","LakeType":"I(s)","Area":2.9},"geometry":{"type":"Point","coordinates":[79.991,30.484]}},{"type":"Feature","properties":{"Subbasin":"Upper Ganga","LakeType":"I(s)","Area":3.1},"geometry":{"type":"Point","coordinates":[79.932,30.483]}},{"type":"Feature","properties":{"Subbasin":"Upper Ganga","LakeType":"M(o)","Area":33.5},"geometry":{"type":"Point","coordinates":[79.874,30.481]}},{"type":"Feature","properties":{"Subbasin":"Upper Ganga","LakeType":"I(s)","Area":2.6},"geometry":{"type":"Point","coordinates":[79.987,30.48]}},{"type":"Feature","properties":{"Subbasin":"Upper Ganga","LakeType":"I(s)","Area":2.7},"geometry":{"type":"Point","coordinates":[79.984,30.48]}},{"type":"Feature","properties":{"Subbasin":"Upper Ganga","LakeType":"I(s)","Area":4},"geometry":{"type":"Point","coordinates":[79.986,30.476]}},{"type":"Feature","properties":{"Subbasin":"Upper Ganga","LakeType":"I(s)","Area":2.7},"geometry":{"type":"Point","coordinates":[79.982,30.473]}},{"type":"Feature","properties":{"Subbasin":"Upper Ganga","LakeType":"I(s)","Area":2.5},"geometry":{"type":"Point","coordinates":[79.986,30.472]}},{"type":"Feature","properties":{"Subbasin":"Upper Ganga","LakeType":"I(s)","Area":2.7},"geometry":{"type":"Point","coordinates":[79.975,30.445]}},{"type":"Feature","properties":{"Subbasin":"Upper Ganga","LakeType":"I(s)","Area":2.8},"geometry":{"type":"Point","coordinates":[79.961,30.435]}},{"type":"Feature","properties":{"Subbasin":"Upper Ganga","LakeType":"I(s)","Area":2.7},"geometry":{"type":"Point","coordinates":[79.964,30.435]}},{"type":"Feature","properties":{"Subbasin":"Upper Ganga","LakeType":"I(s)","Area":5.4},"geometry":{"type":"Point","coordinates":[79.976,30.424]}},{"type":"Feature","properties":{"Subbasin":"Upper Ganga","LakeType":"I(s)","Area":6.9},"geometry":{"type":"Point","coordinates":[79.979,30.419]}},{"type":"Feature","properties":{"Subbasin":"Upper Ganga","LakeType":"I(s)","Area":2.6},"geometry":{"type":"Point","coordinates":[79.976,30.417]}},{"type":"Feature","properties":{"Subbasin":"Upper Ganga","LakeType":"I(s)","Area":6.3},"geometry":{"type":"Point","coordinates":[79.766,30.365]}},{"type":"Feature","properties":{"Subbasin":"Upper Ganga","LakeType":"E(o)","Area":3.5},"geometry":{"type":"Point","coordinates":[79.914,30.349]}},{"type":"Feature","properties":{"Subbasin":"Yamuna","LakeType":"M(o)","Area":8.9},"geometry":{"type":"Point","coordinates":[78.519,30.981]}},{"type":"Feature","properties":{"Subbasin":"Yamuna","LakeType":"M(o)","Area":3.2},"geometry":{"type":"Point","coordinates":[78.522,30.979]}},{"type":"Feature","properties":{"Subbasin":"Yamuna","LakeType":"M(o)","Area":6.2},"geometry":{"type":"Point","coordinates":[78.52,30.978]}},{"type":"Feature","properties":{"Subbasin":"Upper Ganga","LakeType":"I(s)","Area":20.8},"geometry":{"type":"Point","coordinates":[78.962,30.919]}},{"type":"Feature","properties":{"Subbasin":"Upper Ganga","LakeType":"M(l)","Area":60},"geometry":{"type":"Point","coordinates":[78.958,30.912]}},{"type":"Feature","properties":{"Subbasin":"Upper Ganga","LakeType":"E(c)","Area":31.5},"geometry":{"type":"Point","coordinates":[78.771,30.911]}},{"type":"Feature","properties":{"Subbasin":"Upper Ganga","LakeType":"M(l)","Area":32.6},"geometry":{"type":"Point","coordinates":[78.819,30.892]}},{"type":"Feature","properties":{"Subbasin":"Upper Ganga","LakeType":"M(o)","Area":9.2},"geometry":{"type":"Point","coordinates":[78.828,30.888]}},{"type":"Feature","properties":{"Subbasin":"Upper Ganga","LakeType":"M(e)","Area":7},"geometry":{"type":"Point","coordinates":[78.835,30.888]}},{"type":"Feature","properties":{"Subbasin":"Upper Ganga","LakeType":"I(s)","Area":3.2},"geometry":{"type":"Point","coordinates":[78.981,30.881]}},{"type":"Feature","properties":{"Subbasin":"Upper Ganga","LakeType":"E(o)","Area":7.7},"geometry":{"type":"Point","coordinates":[78.947,30.835]}},{"type":"Feature","properties":{"Subbasin":"Upper Ganga","LakeType":"O","Area":11.1},"geometry":{"type":"Point","coordinates":[78.958,30.789]}},{"type":"Feature","properties":{"Subbasin":"Upper Ganga","LakeType":"M(o)","Area":8.4},"geometry":{"type":"Point","coordinates":[78.985,30.751]}},{"type":"Feature","properties":{"Subbasin":"Upper Ganga","LakeType":"M(l)","Area":9.9},"geometry":{"type":"Point","coordinates":[78.988,30.751]}},{"type":"Feature","properties":{"Subbasin":"Upper Ganga","LakeType":"E(o)","Area":23.5},"geometry":{"type":"Point","coordinates":[78.97,30.751]}},{"type":"Feature","properties":{"Subbasin":"Upper Ganga","LakeType":"E(o)","Area":60.8},"geometry":{"type":"Point","coordinates":[78.977,30.748]}},{"type":"Feature","properties":{"Subbasin":"Upper Ganga","LakeType":"E(o)","Area":16.5},"geometry":{"type":"Point","coordinates":[78.847,30.747]}},{"type":"Feature","properties":{"Subbasin":"Upper Ganga","LakeType":"M(e)","Area":255.6},"geometry":{"type":"Point","coordinates":[78.987,30.746]}},{"type":"Feature","properties":{"Subbasin":"Upper Ganga","LakeType":"E(o)","Area":5.6},"geometry":{"type":"Point","coordinates":[78.844,30.745]}},{"type":"Feature","properties":{"Subbasin":"Upper Ganga","LakeType":"E(o)","Area":11.1},"geometry":{"type":"Point","coordinates":[78.799,30.733]}},{"type":"Feature","properties":{"Subbasin":"Upper Ganga","LakeType":"E(c)","Area":5.8},"geometry":{"type":"Point","coordinates":[78.934,30.731]}},{"type":"Feature","properties":{"Subbasin":"Upper Ganga","LakeType":"E(o)","Area":70.8},"geometry":{"type":"Point","coordinates":[78.808,30.726]}},{"type":"Feature","properties":{"Subbasin":"Upper Ganga","LakeType":"E(o)","Area":14.1},"geometry":{"type":"Point","coordinates":[78.997,30.724]}},{"type":"Feature","properties":{"Subbasin":"Upper Ganga","LakeType":"E(o)","Area":18.8},"geometry":{"type":"Point","coordinates":[78.816,30.722]}},{"type":"Feature","properties":{"Subbasin":"Upper Ganga","LakeType":"E(o)","Area":44.3},"geometry":{"type":"Point","coordinates":[78.995,30.722]}},{"type":"Feature","properties":{"Subbasin":"Upper Ganga","LakeType":"E(o)","Area":68.3},"geometry":{"type":"Point","coordinates":[78.814,30.719]}},{"type":"Feature","properties":{"Subbasin":"Upper Ganga","LakeType":"M(e)","Area":40},"geometry":{"type":"Point","coordinates":[79.014,31.379]}},{"type":"Feature","properties":{"Subbasin":"Upper Ganga","LakeType":"M(o)","Area":32.5},"geometry":{"type":"Point","coordinates":[79.011,31.298]}},{"type":"Feature","properties":{"Subbasin":"Upper Ganga","LakeType":"M(o)","Area":21},"geometry":{"type":"Point","coordinates":[79.226,31.267]}},{"type":"Feature","properties":{"Subbasin":"Upper Ganga","LakeType":"M(e)","Area":12.7},"geometry":{"type":"Point","coordinates":[79.155,31.225]}},{"type":"Feature","properties":{"Subbasin":"Upper Ganga","LakeType":"E(c)","Area":9.9},"geometry":{"type":"Point","coordinates":[79.167,31.224]}},{"type":"Feature","properties":{"Subbasin":"Upper Ganga","LakeType":"M(o)","Area":2.8},"geometry":{"type":"Point","coordinates":[79.152,31.221]}},{"type":"Feature","properties":{"Subbasin":"Upper Ganga","LakeType":"E(o)","Area":16.4},"geometry":{"type":"Point","coordinates":[79.166,31.211]}},{"type":"Feature","properties":{"Subbasin":"Upper Ganga","LakeType":"M(o)","Area":4.4},"geometry":{"type":"Point","coordinates":[79.165,31.195]}},{"type":"Feature","properties":{"Subbasin":"Upper Ganga","LakeType":"M(e)","Area":78.9},"geometry":{"type":"Point","coordinates":[79.15,31.191]}},{"type":"Feature","properties":{"Subbasin":"Upper Ganga","LakeType":"M(e)","Area":17.3},"geometry":{"type":"Point","coordinates":[79.146,31.189]}},{"type":"Feature","properties":{"Subbasin":"Upper Ganga","LakeType":"M(o)","Area":2.7},"geometry":{"type":"Point","coordinates":[79,31.179]}},{"type":"Feature","properties":{"Subbasin":"Upper Ganga","LakeType":"E(c)","Area":31.2},"geometry":{"type":"Point","coordinates":[79.154,31.178]}},{"type":"Feature","properties":{"Subbasin":"Upper Ganga","LakeType":"M(o)","Area":3.5},"geometry":{"type":"Point","coordinates":[79,31.175]}},{"type":"Feature","properties":{"Subbasin":"Upper Ganga","LakeType":"M(o)","Area":2.9},"geometry":{"type":"Point","coordinates":[79.242,31.042]}},{"type":"Feature","properties":{"Subbasin":"Upper Ganga","LakeType":"M(o)","Area":4.8},"geometry":{"type":"Point","coordinates":[79.237,31.039]}},{"type":"Feature","properties":{"Subbasin":"Upper Ganga","LakeType":"M(o)","Area":6.3},"geometry":{"type":"Point","coordinates":[79.273,31.168]}},{"type":"Feature","properties":{"Subbasin":"Upper Ganga","LakeType":"M(e)","Area":45.9},"geometry":{"type":"Point","coordinates":[79.267,31.152]}},{"type":"Feature","properties":{"Subbasin":"Upper Ganga","LakeType":"M(e)","Area":17.1},"geometry":{"type":"Point","coordinates":[79.26,31.142]}},{"type":"Feature","properties":{"Subbasin":"Upper Ganga","LakeType":"M(e)","Area":10.8},"geometry":{"type":"Point","coordinates":[79.309,31.138]}},{"type":"Feature","properties":{"Subbasin":"Upper Ganga","LakeType":"M(l)","Area":6.9},"geometry":{"type":"Point","coordinates":[79.328,31.129]}},{"type":"Feature","properties":{"Subbasin":"Upper Ganga","LakeType":"M(o)","Area":5.4},"geometry":{"type":"Point","coordinates":[79.307,31.128]}},{"type":"Feature","properties":{"Subbasin":"Upper Ganga","LakeType":"M(e)","Area":10.4},"geometry":{"type":"Point","coordinates":[79.287,31.064]}},{"type":"Feature","properties":{"Subbasin":"Upper Ganga","LakeType":"M(o)","Area":6.9},"geometry":{"type":"Point","coordinates":[79.415,31.062]}},{"type":"Feature","properties":{"Subbasin":"Upper Ganga","LakeType":"M(o)","Area":32.8},"geometry":{"type":"Point","coordinates":[79.41,31.06]}},{"type":"Feature","properties":{"Subbasin":"Upper Ganga","LakeType":"I(s)","Area":4.1},"geometry":{"type":"Point","coordinates":[79.467,30.968]}},{"type":"Feature","properties":{"Subbasin":"Upper Ganga","LakeType":"M(e)","Area":30.8},"geometry":{"type":"Point","coordinates":[79.362,30.967]}},{"type":"Feature","properties":{"Subbasin":"Upper Ganga","LakeType":"M(o)","Area":4},"geometry":{"type":"Point","coordinates":[79.493,30.965]}},{"type":"Feature","properties":{"Subbasin":"Upper Ganga","LakeType":"M(o)","Area":12.8},"geometry":{"type":"Point","coordinates":[79.386,30.964]}},{"type":"Feature","properties":{"Subbasin":"Upper Ganga","LakeType":"M(o)","Area":9.6},"geometry":{"type":"Point","coordinates":[79.461,30.964]}},{"type":"Feature","properties":{"Subbasin":"Upper Ganga","LakeType":"M(o)","Area":5.9},"geometry":{"type":"Point","coordinates":[79.462,30.962]}},{"type":"Feature","properties":{"Subbasin":"Upper Ganga","LakeType":"M(o)","Area":3.8},"geometry":{"type":"Point","coordinates":[79.359,30.954]}},{"type":"Feature","properties":{"Subbasin":"Upper Ganga","LakeType":"M(o)","Area":7.3},"geometry":{"type":"Point","coordinates":[79.31,30.951]}},{"type":"Feature","properties":{"Subbasin":"Upper Ganga","LakeType":"M(o)","Area":9.2},"geometry":{"type":"Point","coordinates":[79.309,30.95]}},{"type":"Feature","properties":{"Subbasin":"Upper Ganga","LakeType":"M(e)","Area":22},"geometry":{"type":"Point","coordinates":[79.341,30.948]}},{"type":"Feature","properties":{"Subbasin":"Upper Ganga","LakeType":"M(o)","Area":5.6},"geometry":{"type":"Point","coordinates":[79.314,30.946]}},{"type":"Feature","properties":{"Subbasin":"Upper Ganga","LakeType":"I(s)","Area":8.2},"geometry":{"type":"Point","coordinates":[79.49,30.945]}},{"type":"Feature","properties":{"Subbasin":"Upper Ganga","LakeType":"I(s)","Area":3.5},"geometry":{"type":"Point","coordinates":[79.482,30.939]}},{"type":"Feature","properties":{"Subbasin":"Upper Ganga","LakeType":"M(o)","Area":4},"geometry":{"type":"Point","coordinates":[79.372,30.939]}},{"type":"Feature","properties":{"Subbasin":"Upper Ganga","LakeType":"M(l)","Area":6.7},"geometry":{"type":"Point","coordinates":[79.367,30.937]}},{"type":"Feature","properties":{"Subbasin":"Upper Ganga","LakeType":"E(c)","Area":16},"geometry":{"type":"Point","coordinates":[79.416,30.935]}},{"type":"Feature","properties":{"Subbasin":"Upper Ganga","LakeType":"I(s)","Area":4.2},"geometry":{"type":"Point","coordinates":[79.493,30.934]}},{"type":"Feature","properties":{"Subbasin":"Upper Ganga","LakeType":"E(o)","Area":9},"geometry":{"type":"Point","coordinates":[79.407,30.926]}},{"type":"Feature","properties":{"Subbasin":"Upper Ganga","LakeType":"M(o)","Area":9.2},"geometry":{"type":"Point","coordinates":[79.31,30.924]}},{"type":"Feature","properties":{"Subbasin":"Upper Ganga","LakeType":"M(o)","Area":5.9},"geometry":{"type":"Point","coordinates":[79.309,30.923]}},{"type":"Feature","properties":{"Subbasin":"Upper Ganga","LakeType":"M(o)","Area":2.7},"geometry":{"type":"Point","coordinates":[79.463,30.923]}},{"type":"Feature","properties":{"Subbasin":"Upper Ganga","LakeType":"M(o)","Area":6.8},"geometry":{"type":"Point","coordinates":[79.31,30.922]}},{"type":"Feature","properties":{"Subbasin":"Upper Ganga","LakeType":"M(o)","Area":19.7},"geometry":{"type":"Point","coordinates":[79.314,30.92]}},{"type":"Feature","properties":{"Subbasin":"Upper Ganga","LakeType":"E(c)","Area":23.1},"geometry":{"type":"Point","coordinates":[79.304,30.89]}},{"type":"Feature","properties":{"Subbasin":"Upper Ganga","LakeType":"E(o)","Area":3.4},"geometry":{"type":"Point","coordinates":[79.313,30.811]}},{"type":"Feature","properties":{"Subbasin":"Upper Ganga","LakeType":"E(o)","Area":8.7},"geometry":{"type":"Point","coordinates":[79.315,30.806]}},{"type":"Feature","properties":{"Subbasin":"Upper Ganga","LakeType":"E(o)","Area":5.3},"geometry":{"type":"Point","coordinates":[79.318,30.805]}},{"type":"Feature","properties":{"Subbasin":"Upper Ganga","LakeType":"I(s)","Area":3.4},"geometry":{"type":"Point","coordinates":[79.295,30.805]}},{"type":"Feature","properties":{"Subbasin":"Upper Ganga","LakeType":"I(s)","Area":3.2},"geometry":{"type":"Point","coordinates":[79.298,30.796]}},{"type":"Feature","properties":{"Subbasin":"Upper Ganga","LakeType":"I(s)","Area":2.8},"geometry":{"type":"Point","coordinates":[79.361,30.791]}},{"type":"Feature","properties":{"Subbasin":"Upper Ganga","LakeType":"I(s)","Area":6.4},"geometry":{"type":"Point","coordinates":[79.368,30.79]}},{"type":"Feature","properties":{"Subbasin":"Upper Ganga","LakeType":"I(s)","Area":3.4},"geometry":{"type":"Point","coordinates":[79.397,30.767]}},{"type":"Feature","properties":{"Subbasin":"Upper Ganga","LakeType":"I(s)","Area":5.3},"geometry":{"type":"Point","coordinates":[79.398,30.762]}},{"type":"Feature","properties":{"Subbasin":"Upper Ganga","LakeType":"I(s)","Area":2.5},"geometry":{"type":"Point","coordinates":[79.368,30.754]}},{"type":"Feature","properties":{"Subbasin":"Upper Ganga","LakeType":"I(s)","Area":2.5},"geometry":{"type":"Point","coordinates":[79.363,30.754]}},{"type":"Feature","properties":{"Subbasin":"Upper Ganga","LakeType":"I(s)","Area":3},"geometry":{"type":"Point","coordinates":[79.361,30.75]}},{"type":"Feature","properties":{"Subbasin":"Upper Ganga","LakeType":"I(s)","Area":2.7},"geometry":{"type":"Point","coordinates":[79.351,30.746]}},{"type":"Feature","properties":{"Subbasin":"Upper Ganga","LakeType":"I(s)","Area":2.5},"geometry":{"type":"Point","coordinates":[79.337,30.744]}},{"type":"Feature","properties":{"Subbasin":"Upper Ganga","LakeType":"M(l)","Area":9.1},"geometry":{"type":"Point","coordinates":[79.357,30.744]}},{"type":"Feature","properties":{"Subbasin":"Upper Ganga","LakeType":"E(o)","Area":16.5},"geometry":{"type":"Point","coordinates":[79.298,30.655]}},{"type":"Feature","properties":{"Subbasin":"Upper Ganga","LakeType":"E(o)","Area":4.9},"geometry":{"type":"Point","coordinates":[79.455,30.61]}},{"type":"Feature","properties":{"Subbasin":"Upper Ganga","LakeType":"E(o)","Area":13.8},"geometry":{"type":"Point","coordinates":[79.458,30.607]}},{"type":"Feature","properties":{"Subbasin":"Upper Ganga","LakeType":"E(o)","Area":2.6},"geometry":{"type":"Point","coordinates":[79.448,30.607]}},{"type":"Feature","properties":{"Subbasin":"Upper Ganga","LakeType":"E(c)","Area":65.6},"geometry":{"type":"Point","coordinates":[79.325,30.604]}},{"type":"Feature","properties":{"Subbasin":"Upper Ganga","LakeType":"M(o)","Area":2.9},"geometry":{"type":"Point","coordinates":[79.747,30.97]}},{"type":"Feature","properties":{"Subbasin":"Upper Ganga","LakeType":"I(s)","Area":3.1},"geometry":{"type":"Point","coordinates":[79.709,30.945]}},{"type":"Feature","properties":{"Subbasin":"Upper Ganga","LakeType":"M(o)","Area":3},"geometry":{"type":"Point","coordinates":[79.69,30.937]}},{"type":"Feature","properties":{"Subbasin":"Upper Ganga","LakeType":"M(o)","Area":6.2},"geometry":{"type":"Point","coordinates":[79.689,30.937]}},{"type":"Feature","properties":{"Subbasin":"Upper Ganga","LakeType":"I(s)","Area":2.8},"geometry":{"type":"Point","coordinates":[79.504,30.935]}},{"type":"Feature","properties":{"Subbasin":"Upper Ganga","LakeType":"I(s)","Area":4.7},"geometry":{"type":"Point","coordinates":[79.684,30.933]}},{"type":"Feature","properties":{"Subbasin":"Upper Ganga","LakeType":"I(s)","Area":2.8},"geometry":{"type":"Point","coordinates":[79.723,30.929]}},{"type":"Feature","properties":{"Subbasin":"Upper Ganga","LakeType":"I(s)","Area":3.7},"geometry":{"type":"Point","coordinates":[79.713,30.928]}},{"type":"Feature","properties":{"Subbasin":"Upper Ganga","LakeType":"I(s)","Area":4.9},"geometry":{"type":"Point","coordinates":[79.739,30.923]}},{"type":"Feature","properties":{"Subbasin":"Upper Ganga","LakeType":"I(s)","Area":5.5},"geometry":{"type":"Point","coordinates":[79.74,30.918]}},{"type":"Feature","properties":{"Subbasin":"Upper Ganga","LakeType":"M(o)","Area":27.1},"geometry":{"type":"Point","coordinates":[79.541,30.916]}},{"type":"Feature","properties":{"Subbasin":"Upper Ganga","LakeType":"I(s)","Area":60.8},"geometry":{"type":"Point","coordinates":[79.746,30.91]}},{"type":"Feature","properties":{"Subbasin":"Upper Ganga","LakeType":"M(o)","Area":51.1},"geometry":{"type":"Point","coordinates":[79.539,30.909]}},{"type":"Feature","properties":{"Subbasin":"Upper Ganga","LakeType":"I(s)","Area":17.2},"geometry":{"type":"Point","coordinates":[79.736,30.905]}},{"type":"Feature","properties":{"Subbasin":"Upper Ganga","LakeType":"I(s)","Area":110.5},"geometry":{"type":"Point","coordinates":[79.747,30.904]}},{"type":"Feature","properties":{"Subbasin":"Upper Ganga","LakeType":"I(s)","Area":4.1},"geometry":{"type":"Point","coordinates":[79.732,30.903]}},{"type":"Feature","properties":{"Subbasin":"Upper Ganga","LakeType":"M(o)","Area":11.4},"geometry":{"type":"Point","coordinates":[79.674,30.903]}},{"type":"Feature","properties":{"Subbasin":"Upper Ganga","LakeType":"I(s)","Area":114.1},"geometry":{"type":"Point","coordinates":[79.746,30.901]}},{"type":"Feature","properties":{"Subbasin":"Upper Ganga","LakeType":"M(o)","Area":9.8},"geometry":{"type":"Point","coordinates":[79.748,30.898]}},{"type":"Feature","properties":{"Subbasin":"Upper Ganga","LakeType":"I(s)","Area":3.3},"geometry":{"type":"Point","coordinates":[79.718,30.895]}},{"type":"Feature","properties":{"Subbasin":"Upper Ganga","LakeType":"M(o)","Area":20.5},"geometry":{"type":"Point","coordinates":[79.528,30.891]}},{"type":"Feature","properties":{"Subbasin":"Upper Ganga","LakeType":"I(s)","Area":8.6},"geometry":{"type":"Point","coordinates":[79.704,30.891]}},{"type":"Feature","properties":{"Subbasin":"Upper Ganga","LakeType":"I(s)","Area":7.7},"geometry":{"type":"Point","coordinates":[79.713,30.89]}},{"type":"Feature","properties":{"Subbasin":"Upper Ganga","LakeType":"M(o)","Area":2.6},"geometry":{"type":"Point","coordinates":[79.737,30.888]}},{"type":"Feature","properties":{"Subbasin":"Upper Ganga","LakeType":"E(c)","Area":10.6},"geometry":{"type":"Point","coordinates":[79.525,30.886]}},{"type":"Feature","properties":{"Subbasin":"Upper Ganga","LakeType":"I(s)","Area":6},"geometry":{"type":"Point","coordinates":[79.669,30.884]}},{"type":"Feature","properties":{"Subbasin":"Upper Ganga","LakeType":"I(s)","Area":3},"geometry":{"type":"Point","coordinates":[79.532,30.881]}},{"type":"Feature","properties":{"Subbasin":"Upper Ganga","LakeType":"M(o)","Area":2.5},"geometry":{"type":"Point","coordinates":[79.547,30.875]}},{"type":"Feature","properties":{"Subbasin":"Upper Ganga","LakeType":"E(o)","Area":3.7},"geometry":{"type":"Point","coordinates":[79.55,30.875]}},{"type":"Feature","properties":{"Subbasin":"Upper Ganga","LakeType":"I(s)","Area":6.7},"geometry":{"type":"Point","coordinates":[79.933,30.347]}},{"type":"Feature","properties":{"Subbasin":"Upper Ganga","LakeType":"I(s)","Area":4.2},"geometry":{"type":"Point","coordinates":[79.915,30.318]}},{"type":"Feature","properties":{"Subbasin":"Upper Ganga","LakeType":"E(o)","Area":5.8},"geometry":{"type":"Point","coordinates":[79.928,30.312]}},{"type":"Feature","properties":{"Subbasin":"Upper Ganga","LakeType":"I(s)","Area":2.6},"geometry":{"type":"Point","coordinates":[79.836,30.266]}},{"type":"Feature","properties":{"Subbasin":"Upper Ganga","LakeType":"I(s)","Area":6.4},"geometry":{"type":"Point","coordinates":[79.838,30.266]}},{"type":"Feature","properties":{"Subbasin":"Upper Ganga","LakeType":"I(s)","Area":3.2},"geometry":{"type":"Point","coordinates":[79.837,30.263]}},{"type":"Feature","properties":{"Subbasin":"Upper Ganga","LakeType":"I(s)","Area":7.7},"geometry":{"type":"Point","coordinates":[79.854,30.262]}},{"type":"Feature","properties":{"Subbasin":"Upper Ganga","LakeType":"O","Area":4.1},"geometry":{"type":"Point","coordinates":[79.999,30.238]}},{"type":"Feature","properties":{"Subbasin":"Upper Ganga","LakeType":"E(o)","Area":7.6},"geometry":{"type":"Point","coordinates":[79.888,30.201]}},{"type":"Feature","properties":{"Subbasin":"Upper Ganga","LakeType":"E(c)","Area":46.7},"geometry":{"type":"Point","coordinates":[79.876,30.184]}},{"type":"Feature","properties":{"Subbasin":"Upper Ganga","LakeType":"M(o)","Area":32.9},"geometry":{"type":"Point","coordinates":[80.165,30.584]}},{"type":"Feature","properties":{"Subbasin":"Sarda","LakeType":"M(e)","Area":178.1},"geometry":{"type":"Point","coordinates":[80.179,30.565]}},{"type":"Feature","properties":{"Subbasin":"Sarda","LakeType":"M(o)","Area":5.4},"geometry":{"type":"Point","coordinates":[80.156,30.484]}},{"type":"Feature","properties":{"Subbasin":"Sarda","LakeType":"M(o)","Area":2.5},"geometry":{"type":"Point","coordinates":[80.239,30.381]}},{"type":"Feature","properties":{"Subbasin":"Sarda","LakeType":"M(o)","Area":3.9},"geometry":{"type":"Point","coordinates":[80.237,30.38]}},{"type":"Feature","properties":{"Subbasin":"Upper Ganga","LakeType":"E(o)","Area":13.5},"geometry":{"type":"Point","coordinates":[80.07,30.219]}},{"type":"Feature","properties":{"Subbasin":"Sarda","LakeType":"E(c)","Area":96.6},"geometry":{"type":"Point","coordinates":[80.136,30.21]}},{"type":"Feature","properties":{"Subbasin":"Sarda","LakeType":"E(o)","Area":5.2},"geometry":{"type":"Point","coordinates":[80.158,30.181]}},{"type":"Feature","properties":{"Subbasin":"Sarda","LakeType":"E(o)","Area":3.5},"geometry":{"type":"Point","coordinates":[80.256,30.545]}},{"type":"Feature","properties":{"Subbasin":"Sarda","LakeType":"E(o)","Area":7.2},"geometry":{"type":"Point","coordinates":[80.283,30.541]}},{"type":"Feature","properties":{"Subbasin":"Sarda","LakeType":"M(o)","Area":3.9},"geometry":{"type":"Point","coordinates":[80.283,30.529]}},{"type":"Feature","properties":{"Subbasin":"Sarda","LakeType":"M(o)","Area":5.7},"geometry":{"type":"Point","coordinates":[80.411,30.509]}},{"type":"Feature","properties":{"Subbasin":"Sarda","LakeType":"E(c)","Area":52.8},"geometry":{"type":"Point","coordinates":[80.375,30.491]}},{"type":"Feature","properties":{"Subbasin":"Sarda","LakeType":"I(s)","Area":2.8},"geometry":{"type":"Point","coordinates":[80.333,30.475]}},{"type":"Feature","properties":{"Subbasin":"Sarda","LakeType":"I(s)","Area":2.6},"geometry":{"type":"Point","coordinates":[80.327,30.474]}},{"type":"Feature","properties":{"Subbasin":"Sarda","LakeType":"I(s)","Area":4.6},"geometry":{"type":"Point","coordinates":[80.315,30.469]}},{"type":"Feature","properties":{"Subbasin":"Sarda","LakeType":"I(s)","Area":9.1},"geometry":{"type":"Point","coordinates":[80.309,30.466]}},{"type":"Feature","properties":{"Subbasin":"Sarda","LakeType":"M(o)","Area":5.4},"geometry":{"type":"Point","coordinates":[80.369,30.458]}},{"type":"Feature","properties":{"Subbasin":"Sarda","LakeType":"M(o)","Area":4.5},"geometry":{"type":"Point","coordinates":[80.427,30.448]}},{"type":"Feature","properties":{"Subbasin":"Sarda","LakeType":"M(e)","Area":100},"geometry":{"type":"Point","coordinates":[80.387,30.446]}},{"type":"Feature","properties":{"Subbasin":"Sarda","LakeType":"O","Area":2.8},"geometry":{"type":"Point","coordinates":[80.436,30.4]}},{"type":"Feature","properties":{"Subbasin":"Sarda","LakeType":"M(o)","Area":7.4},"geometry":{"type":"Point","coordinates":[80.452,30.276]}},{"type":"Feature","properties":{"Subbasin":"Sarda","LakeType":"M(o)","Area":30.5},"geometry":{"type":"Point","coordinates":[80.516,30.456]}},{"type":"Feature","properties":{"Subbasin":"Sarda","LakeType":"E(c)","Area":21.1},"geometry":{"type":"Point","coordinates":[80.682,30.417]}},{"type":"Feature","properties":{"Subbasin":"Sarda","LakeType":"M(o)","Area":7},"geometry":{"type":"Point","coordinates":[80.51,30.409]}},{"type":"Feature","properties":{"Subbasin":"Sarda","LakeType":"M(o)","Area":21.8},"geometry":{"type":"Point","coordinates":[80.511,30.408]}},{"type":"Feature","properties":{"Subbasin":"Sarda","LakeType":"M(e)","Area":112.1},"geometry":{"type":"Point","coordinates":[80.532,30.392]}},{"type":"Feature","properties":{"Subbasin":"Sarda","LakeType":"M(o)","Area":11.6},"geometry":{"type":"Point","coordinates":[80.525,30.388]}},{"type":"Feature","properties":{"Subbasin":"Sarda","LakeType":"E(o)","Area":26.1},"geometry":{"type":"Point","coordinates":[80.576,30.382]}},{"type":"Feature","properties":{"Subbasin":"Sarda","LakeType":"M(o)","Area":4.9},"geometry":{"type":"Point","coordinates":[80.592,30.381]}},{"type":"Feature","properties":{"Subbasin":"Sarda","LakeType":"M(o)","Area":11.9},"geometry":{"type":"Point","coordinates":[80.603,30.373]}},{"type":"Feature","properties":{"Subbasin":"Sarda","LakeType":"M(o)","Area":6.6},"geometry":{"type":"Point","coordinates":[80.628,30.357]}},{"type":"Feature","properties":{"Subbasin":"Sarda","LakeType":"M(o)","Area":54.8},"geometry":{"type":"Point","coordinates":[80.655,30.354]}},{"type":"Feature","properties":{"Subbasin":"Sarda","LakeType":"M(o)","Area":21.9},"geometry":{"type":"Point","coordinates":[80.644,30.336]}},{"type":"Feature","properties":{"Subbasin":"Sarda","LakeType":"M(e)","Area":11.3},"geometry":{"type":"Point","coordinates":[80.59,30.324]}},{"type":"Feature","properties":{"Subbasin":"Sarda","LakeType":"M(o)","Area":17.7},"geometry":{"type":"Point","coordinates":[80.591,30.267]}},{"type":"Feature","properties":{"Subbasin":"Sarda","LakeType":"M(e)","Area":22.7},"geometry":{"type":"Point","coordinates":[80.713,30.264]}},{"type":"Feature","properties":{"Subbasin":"Sarda","LakeType":"E(o)","Area":10.7},"geometry":{"type":"Point","coordinates":[80.511,30.108]}},{"type":"Feature","properties":{"Subbasin":"Sarda","LakeType":"E(o)","Area":3},"geometry":{"type":"Point","coordinates":[80.76,30.335]}},{"type":"Feature","properties":{"Subbasin":"Sarda","LakeType":"E(o)","Area":10.8},"geometry":{"type":"Point","coordinates":[80.904,30.301]}},{"type":"Feature","properties":{"Subbasin":"Sarda","LakeType":"E(c)","Area":33.3},"geometry":{"type":"Point","coordinates":[80.899,30.298]}},{"type":"Feature","properties":{"Subbasin":"Sarda","LakeType":"E(o)","Area":2.9},"geometry":{"type":"Point","coordinates":[80.852,30.283]}},{"type":"Feature","properties":{"Subbasin":"Sarda","LakeType":"E(o)","Area":10.7},"geometry":{"type":"Point","coordinates":[80.854,30.28]}}]}