{"type":"FeatureCollection","features":[{"type":"Feature","properties":{"name":"Kedarnath","description":"Kedarnath is a prominent pilgrimage center and is part of twelve auspicious and holy jyothirlingas (a manifestation of Lord Shiva).","image":"uk_kedarnath.jpg"},"geometry":{"coordinates":[79.06685810137793,30.735231937261958],"type":"Point"}},{"type":"Feature","properties":{"name":"Madhyamaheshwar","description":"The middle (madhya) or belly part or navel (nabhi) of the bull, considered a divine form of Shiva, is worshipped at Madhyamaheshwar temple.","image":"uk_madhyamaheshwar.jpg"},"geometry":{"coordinates":[79.22157353487813,30.635170141219064],"type":"Point"}},{"type":"Feature","properties":{"name":"Tungnath","description":"Tungnath is the highest temple of Lord Shiva in the world attracting both trekkers and pilgrims alike, with the former being more common.","image":"uk_tungnath.jpg"},"geometry":{"coordinates":[79.21689929169662,30.48837471925752],"type":"Point"}},{"type":"Feature","properties":{"name":"Rudranath","description":"The face (mukha) of Lord Shiva is worshipped as “Nilkanth Mahadeva” here. Out of all the Panch Kedar, Rudranath is considered to be most difficult.","image":"uk_rudranath.jpg"},"geometry":{"coordinates":[79.31840009523364,30.518956436897582],"type":"Point"}},{"type":"Feature","properties":{"name":"Kalpeshwar","description":"In this temple, the matted tress (jata) of Lord Shiva is worship and hence the name Jatadhar or Jateshwar.","image":"uk_kalpeshwar.jpg"},"geometry":{"coordinates":[79.44976490007275,30.55042237081507],"type":"Point"}}]}