{"type":"FeatureCollection","features":[{"type":"Feature","properties":{"name":"Dev Prayag","description":"Dev Prayag is the confluence of the two holy rivers, the Bhagirathi - the chief stream of the Ganges and the Alaknanda.","image":"uk_devprayag.jpg"},"geometry":{"coordinates":[78.59778633908422,30.145534941532688],"type":"Point"},"id":0},{"type":"Feature","properties":{"name":"Rudra Prayag","description":"At Rudra Prayag, the Alaknanda meets the Mandakini River. There is a temple situated above confluence named after god Shiva.","image":"uk_rprayag.jpg"},"geometry":{"coordinates":[78.97908200922188,30.28801387373433],"type":"Point"}},{"type":"Feature","properties":{"name":"Karn Prayag","description":"Karn Prayag is the location where Alaknanda river is joined by the Pindar river that originates from the Pindar glacier.","image":"uk_karnprayag.jpg"},"geometry":{"coordinates":[79.21625761239017,30.26277772398275],"type":"Point"}},{"type":"Feature","properties":{"name":"Nand Prayag","description":"Nand Prayag is the second prayag in the cascade sequence of the confluences where the Nandakini river joins the main Alaknanda River.","image":"uk_nandprayag.jpg"},"geometry":{"coordinates":[79.31640617247234,30.332009679770636],"type":"Point"}},{"type":"Feature","properties":{"name":"Vishnu Prayag","description":"The Alaknanda River, which originates from Satopanth glacier is joined by the Dhauliganga river.","image":"uk_vishnuprayag.jpg"},"geometry":{"coordinates":[79.57599958361874,30.562533695759384],"type":"Point"}}]}