{"type":"FeatureCollection","features":[{"type":"Feature","properties":{"Sheet_No":"53E16","OSM_No":"H43F/16"},"geometry":{"type":"MultiPolygon","coordinates":[[[[77.998637,30.999836],[77.748672,30.999834],[77.748669,31.249809],[77.998633,31.249812],[77.998637,30.999836]]]]}},{"type":"Feature","properties":{"Sheet_No":"53F10","OSM_No":"H43L/10"},"geometry":{"type":"MultiPolygon","coordinates":[[[[77.748679,30.499883],[77.498715,30.49988],[77.498711,30.749856],[77.748676,30.749858],[77.748679,30.499883]]]]}},{"type":"Feature","properties":{"Sheet_No":"53F11","OSM_No":"H43L/11"},"geometry":{"type":"MultiPolygon","coordinates":[[[[77.748682,30.249907],[77.498718,30.249905],[77.498715,30.49988],[77.748679,30.499883],[77.748682,30.249907]]]]}},{"type":"Feature","properties":{"Sheet_No":"53F13","OSM_No":"H43L/13"},"geometry":{"type":"MultiPolygon","coordinates":[[[[77.99864,30.749861],[77.748676,30.749858],[77.748672,30.999834],[77.998637,30.999836],[77.99864,30.749861]]]]}},{"type":"Feature","properties":{"Sheet_No":"53F14","OSM_No":"H43L/14"},"geometry":{"type":"MultiPolygon","coordinates":[[[[77.998644,30.499885],[77.748679,30.499883],[77.748676,30.749858],[77.99864,30.749861],[77.998644,30.499885]]]]}},{"type":"Feature","properties":{"Sheet_No":"53F15","OSM_No":"H43L/15"},"geometry":{"type":"MultiPolygon","coordinates":[[[[77.998647,30.24991],[77.748682,30.249907],[77.748679,30.499883],[77.998644,30.499885],[77.998647,30.24991]]]]}},{"type":"Feature","properties":{"Sheet_No":"53F16","OSM_No":"H43L/16"},"geometry":{"type":"MultiPolygon","coordinates":[[[[77.998651,29.999934],[77.748686,29.999931],[77.748682,30.249907],[77.998647,30.24991],[77.998651,29.999934]]]]}},{"type":"Feature","properties":{"Sheet_No":"53F9","OSM_No":"H43L/9"},"geometry":{"type":"MultiPolygon","coordinates":[[[[77.748676,30.749858],[77.498711,30.749856],[77.498708,30.999831],[77.748672,30.999834],[77.748676,30.749858]]]]}},{"type":"Feature","properties":{"Sheet_No":"53G13","OSM_No":"H43R/13"},"geometry":{"type":"MultiPolygon","coordinates":[[[[77.998654,29.749958],[77.748689,29.749956],[77.748686,29.999931],[77.998651,29.999934],[77.998654,29.749958]]]]}},{"type":"Feature","properties":{"Sheet_No":"53G14","OSM_No":"H43R/14"},"geometry":{"type":"MultiPolygon","coordinates":[[[[77.998657,29.499982],[77.748692,29.49998],[77.748689,29.749956],[77.998654,29.749958],[77.998657,29.499982]]]]}},{"type":"Feature","properties":{"Sheet_No":"53G9","OSM_No":"H43R/9"},"geometry":{"type":"MultiPolygon","coordinates":[[[[77.748689,29.749956],[77.498724,29.749953],[77.498721,29.999929],[77.748686,29.999931],[77.748689,29.749956]]]]}},{"type":"Feature","properties":{"Sheet_No":"53I12","OSM_No":"H44A/12"},"geometry":{"type":"MultiPolygon","coordinates":[[[[78.74853,30.999845],[78.498565,30.999842],[78.498562,31.249817],[78.748526,31.24982],[78.74853,30.999845]]]]}},{"type":"Feature","properties":{"Sheet_No":"53I15","OSM_No":"H44A/15"},"geometry":{"type":"MultiPolygon","coordinates":[[[[78.998491,31.249823],[78.748526,31.24982],[78.748522,31.499795],[78.998486,31.499798],[78.998491,31.249823]]]]},"id":12},{"type":"Feature","properties":{"Sheet_No":"53I16","OSM_No":"H44A/16"},"geometry":{"type":"MultiPolygon","coordinates":[[[[78.998494,30.999847],[78.74853,30.999845],[78.748526,31.24982],[78.998491,31.249823],[78.998494,30.999847]]]]},"id":13},{"type":"Feature","properties":{"Sheet_No":"53I4","OSM_No":"H44A/4"},"geometry":{"type":"MultiPolygon","coordinates":[[[[78.248601,30.999839],[77.998637,30.999836],[77.998633,31.249812],[78.248597,31.249814],[78.248601,30.999839]]]]}},{"type":"Feature","properties":{"Sheet_No":"53I8","OSM_No":"H44A/8"},"geometry":{"type":"MultiPolygon","coordinates":[[[[78.498565,30.999842],[78.248601,30.999839],[78.248597,31.249814],[78.498562,31.249817],[78.498565,30.999842]]]]}},{"type":"Feature","properties":{"Sheet_No":"53J1","OSM_No":"H44G/1"},"geometry":{"type":"MultiPolygon","coordinates":[[[[78.248605,30.749864],[77.99864,30.749861],[77.998637,30.999836],[78.248601,30.999839],[78.248605,30.749864]]]]}},{"type":"Feature","properties":{"Sheet_No":"53J10","OSM_No":"H44G/10"},"geometry":{"type":"MultiPolygon","coordinates":[[[[78.748538,30.499893],[78.498573,30.499891],[78.498569,30.749866],[78.748534,30.749869],[78.748538,30.499893]]]]}},{"type":"Feature","properties":{"Sheet_No":"53J11","OSM_No":"H44G/11"},"geometry":{"type":"MultiPolygon","coordinates":[[[[78.748541,30.249918],[78.498577,30.249915],[78.498573,30.499891],[78.748538,30.499893],[78.748541,30.249918]]]]}},{"type":"Feature","properties":{"Sheet_No":"53J12","OSM_No":"H44G/12"},"geometry":{"type":"MultiPolygon","coordinates":[[[[78.748545,29.999942],[78.49858,29.999939],[78.498577,30.249915],[78.748541,30.249918],[78.748545,29.999942]]]]}},{"type":"Feature","properties":{"Sheet_No":"53J13","OSM_No":"H44G/13"},"geometry":{"type":"MultiPolygon","coordinates":[[[[78.998498,30.749872],[78.748534,30.749869],[78.74853,30.999845],[78.998494,30.999847],[78.998498,30.749872]]]]},"id":20},{"type":"Feature","properties":{"Sheet_No":"53J14","OSM_No":"H44G/14"},"geometry":{"type":"MultiPolygon","coordinates":[[[[78.998502,30.499896],[78.748538,30.499893],[78.748534,30.749869],[78.998498,30.749872],[78.998502,30.499896]]]]}},{"type":"Feature","properties":{"Sheet_No":"53J15","OSM_No":"H44G/15"},"geometry":{"type":"MultiPolygon","coordinates":[[[[78.998506,30.249921],[78.748541,30.249918],[78.748538,30.499893],[78.998502,30.499896],[78.998506,30.249921]]]]}},{"type":"Feature","properties":{"Sheet_No":"53J16","OSM_No":"H44G/16"},"geometry":{"type":"MultiPolygon","coordinates":[[[[78.99851,29.999945],[78.748545,29.999942],[78.748541,30.249918],[78.998506,30.249921],[78.99851,29.999945]]]]}},{"type":"Feature","properties":{"Sheet_No":"53J2","OSM_No":"H44G/2"},"geometry":{"type":"MultiPolygon","coordinates":[[[[78.248608,30.499888],[77.998644,30.499885],[77.99864,30.749861],[78.248605,30.749864],[78.248608,30.499888]]]]}},{"type":"Feature","properties":{"Sheet_No":"53J3","OSM_No":"H44G/3"},"geometry":{"type":"MultiPolygon","coordinates":[[[[78.248612,30.249912],[77.998647,30.24991],[77.998644,30.499885],[78.248608,30.499888],[78.248612,30.249912]]]]}},{"type":"Feature","properties":{"Sheet_No":"53J4","OSM_No":"H44G/4"},"geometry":{"type":"MultiPolygon","coordinates":[[[[78.248615,29.999937],[77.998651,29.999934],[77.998647,30.24991],[78.248612,30.249912],[78.248615,29.999937]]]]}},{"type":"Feature","properties":{"Sheet_No":"53J5","OSM_No":"H44G/5"},"geometry":{"type":"MultiPolygon","coordinates":[[[[78.498569,30.749866],[78.248605,30.749864],[78.248601,30.999839],[78.498565,30.999842],[78.498569,30.749866]]]]}},{"type":"Feature","properties":{"Sheet_No":"53J6","OSM_No":"H44G/6"},"geometry":{"type":"MultiPolygon","coordinates":[[[[78.498573,30.499891],[78.248608,30.499888],[78.248605,30.749864],[78.498569,30.749866],[78.498573,30.499891]]]]}},{"type":"Feature","properties":{"Sheet_No":"53J7","OSM_No":"H44G/7"},"geometry":{"type":"MultiPolygon","coordinates":[[[[78.498577,30.249915],[78.248612,30.249912],[78.248608,30.499888],[78.498573,30.499891],[78.498577,30.249915]]]]}},{"type":"Feature","properties":{"Sheet_No":"53J8","OSM_No":"H44G/8"},"geometry":{"type":"MultiPolygon","coordinates":[[[[78.49858,29.999939],[78.248615,29.999937],[78.248612,30.249912],[78.498577,30.249915],[78.49858,29.999939]]]]}},{"type":"Feature","properties":{"Sheet_No":"53J9","OSM_No":"H44G/9"},"geometry":{"type":"MultiPolygon","coordinates":[[[[78.748534,30.749869],[78.498569,30.749866],[78.498565,30.999842],[78.74853,30.999845],[78.748534,30.749869]]]]}},{"type":"Feature","properties":{"Sheet_No":"53K1","OSM_No":"H44M/1"},"geometry":{"type":"MultiPolygon","coordinates":[[[[78.248619,29.749961],[77.998654,29.749958],[77.998651,29.999934],[78.248615,29.999937],[78.248619,29.749961]]]]}},{"type":"Feature","properties":{"Sheet_No":"53K10","OSM_No":"H44M/10"},"geometry":{"type":"MultiPolygon","coordinates":[[[[78.748552,29.49999],[78.498587,29.499988],[78.498584,29.749963],[78.748549,29.749966],[78.748552,29.49999]]]]}},{"type":"Feature","properties":{"Sheet_No":"53K11","OSM_No":"H44M/11"},"geometry":{"type":"MultiPolygon","coordinates":[[[[78.748556,29.250014],[78.498591,29.250012],[78.498587,29.499988],[78.748552,29.49999],[78.748556,29.250014]]]]},"id":34},{"type":"Feature","properties":{"Sheet_No":"53K13","OSM_No":"H44M/13"},"geometry":{"type":"MultiPolygon","coordinates":[[[[78.998514,29.749969],[78.748549,29.749966],[78.748545,29.999942],[78.99851,29.999945],[78.998514,29.749969]]]]}},{"type":"Feature","properties":{"Sheet_No":"53K14","OSM_No":"H44M/14"},"geometry":{"type":"MultiPolygon","coordinates":[[[[78.998517,29.499993],[78.748552,29.49999],[78.748549,29.749966],[78.998514,29.749969],[78.998517,29.499993]]]]}},{"type":"Feature","properties":{"Sheet_No":"53K15","OSM_No":"H44M/15"},"geometry":{"type":"MultiPolygon","coordinates":[[[[78.998521,29.250017],[78.748556,29.250014],[78.748552,29.49999],[78.998517,29.499993],[78.998521,29.250017]]]]}},{"type":"Feature","properties":{"Sheet_No":"53K16","OSM_No":"H44M/16"},"geometry":{"type":"MultiPolygon","coordinates":[[[[78.998525,29.000041],[78.748559,29.000038],[78.748556,29.250014],[78.998521,29.250017],[78.998525,29.000041]]]]},"id":38},{"type":"Feature","properties":{"Sheet_No":"53K2","OSM_No":"H44M/2"},"geometry":{"type":"MultiPolygon","coordinates":[[[[78.248622,29.499985],[77.998657,29.499982],[77.998654,29.749958],[78.248619,29.749961],[78.248622,29.499985]]]]}},{"type":"Feature","properties":{"Sheet_No":"53K5","OSM_No":"H44M/5"},"geometry":{"type":"MultiPolygon","coordinates":[[[[78.498584,29.749963],[78.248619,29.749961],[78.248615,29.999937],[78.49858,29.999939],[78.498584,29.749963]]]]}},{"type":"Feature","properties":{"Sheet_No":"53K6","OSM_No":"H44M/6"},"geometry":{"type":"MultiPolygon","coordinates":[[[[78.498587,29.499988],[78.248622,29.499985],[78.248619,29.749961],[78.498584,29.749963],[78.498587,29.499988]]]]}},{"type":"Feature","properties":{"Sheet_No":"53K9","OSM_No":"H44M/9"},"geometry":{"type":"MultiPolygon","coordinates":[[[[78.748549,29.749966],[78.498584,29.749963],[78.49858,29.999939],[78.748545,29.999942],[78.748549,29.749966]]]]}},{"type":"Feature","properties":{"Sheet_No":"53M3","OSM_No":"H44B/3"},"geometry":{"type":"MultiPolygon","coordinates":[[[[79.248455,31.249826],[78.998491,31.249823],[78.998486,31.499798],[79.248451,31.499801],[79.248455,31.249826]]]]},"id":43},{"type":"Feature","properties":{"Sheet_No":"53M12","OSM_No":"H44B/12"},"geometry":{"type":"MultiPolygon","coordinates":[[[[79.748388,30.999856],[79.498424,30.999853],[79.498419,31.249829],[79.748384,31.249832],[79.748388,30.999856]]]]},"id":44},{"type":"Feature","properties":{"Sheet_No":"53M16","OSM_No":"H44B/16"},"geometry":{"type":"MultiPolygon","coordinates":[[[[79.998353,30.99986],[79.748388,30.999856],[79.748384,31.249832],[79.998348,31.249835],[79.998353,30.99986]]]]},"id":45},{"type":"Feature","properties":{"Sheet_No":"53M4","OSM_No":"H44B/4"},"geometry":{"type":"MultiPolygon","coordinates":[[[[79.248459,30.99985],[78.998494,30.999847],[78.998491,31.249823],[79.248455,31.249826],[79.248459,30.99985]]]]},"id":46},{"type":"Feature","properties":{"Sheet_No":"53M8","OSM_No":"H44B/8"},"geometry":{"type":"MultiPolygon","coordinates":[[[[79.498424,30.999853],[79.248459,30.99985],[79.248455,31.249826],[79.498419,31.249829],[79.498424,30.999853]]]]},"id":47},{"type":"Feature","properties":{"Sheet_No":"53N1","OSM_No":"H44H/1"},"geometry":{"type":"MultiPolygon","coordinates":[[[[79.248463,30.749875],[78.998498,30.749872],[78.998494,30.999847],[79.248459,30.99985],[79.248463,30.749875]]]]},"id":48},{"type":"Feature","properties":{"Sheet_No":"53N10","OSM_No":"H44H/10"},"geometry":{"type":"MultiPolygon","coordinates":[[[[79.748397,30.499905],[79.498432,30.499902],[79.498428,30.749878],[79.748392,30.749881],[79.748397,30.499905]]]]}},{"type":"Feature","properties":{"Sheet_No":"53N11","OSM_No":"H44H/11"},"geometry":{"type":"MultiPolygon","coordinates":[[[[79.748401,30.249929],[79.498436,30.249926],[79.498432,30.499902],[79.748397,30.499905],[79.748401,30.249929]]]]}},{"type":"Feature","properties":{"Sheet_No":"53N12","OSM_No":"H44H/12"},"geometry":{"type":"MultiPolygon","coordinates":[[[[79.748405,29.999953],[79.49844,29.999951],[79.498436,30.249926],[79.748401,30.249929],[79.748405,29.999953]]]]}},{"type":"Feature","properties":{"Sheet_No":"53N13","OSM_No":"H44H/13"},"geometry":{"type":"MultiPolygon","coordinates":[[[[79.998357,30.749884],[79.748392,30.749881],[79.748388,30.999856],[79.998353,30.99986],[79.998357,30.749884]]]]}},{"type":"Feature","properties":{"Sheet_No":"53N14","OSM_No":"H44H/14"},"geometry":{"type":"MultiPolygon","coordinates":[[[[79.998361,30.499908],[79.748397,30.499905],[79.748392,30.749881],[79.998357,30.749884],[79.998361,30.499908]]]]}},{"type":"Feature","properties":{"Sheet_No":"53N15","OSM_No":"H44H/15"},"geometry":{"type":"MultiPolygon","coordinates":[[[[79.998366,30.249932],[79.748401,30.249929],[79.748397,30.499905],[79.998361,30.499908],[79.998366,30.249932]]]]}},{"type":"Feature","properties":{"Sheet_No":"53N16","OSM_No":"H44H/16"},"geometry":{"type":"MultiPolygon","coordinates":[[[[79.99837,29.999957],[79.748405,29.999953],[79.748401,30.249929],[79.998366,30.249932],[79.99837,29.999957]]]]}},{"type":"Feature","properties":{"Sheet_No":"53N2","OSM_No":"H44H/2"},"geometry":{"type":"MultiPolygon","coordinates":[[[[79.248467,30.499899],[78.998502,30.499896],[78.998498,30.749872],[79.248463,30.749875],[79.248467,30.499899]]]]}},{"type":"Feature","properties":{"Sheet_No":"53N3","OSM_No":"H44H/3"},"geometry":{"type":"MultiPolygon","coordinates":[[[[79.248471,30.249923],[78.998506,30.249921],[78.998502,30.499896],[79.248467,30.499899],[79.248471,30.249923]]]]}},{"type":"Feature","properties":{"Sheet_No":"53N4","OSM_No":"H44H/4"},"geometry":{"type":"MultiPolygon","coordinates":[[[[79.248475,29.999948],[78.99851,29.999945],[78.998506,30.249921],[79.248471,30.249923],[79.248475,29.999948]]]]}},{"type":"Feature","properties":{"Sheet_No":"53N5","OSM_No":"H44H/5"},"geometry":{"type":"MultiPolygon","coordinates":[[[[79.498428,30.749878],[79.248463,30.749875],[79.248459,30.99985],[79.498424,30.999853],[79.498428,30.749878]]]]}},{"type":"Feature","properties":{"Sheet_No":"53N6","OSM_No":"H44H/6"},"geometry":{"type":"MultiPolygon","coordinates":[[[[79.498432,30.499902],[79.248467,30.499899],[79.248463,30.749875],[79.498428,30.749878],[79.498432,30.499902]]]]}},{"type":"Feature","properties":{"Sheet_No":"53N7","OSM_No":"H44H/7"},"geometry":{"type":"MultiPolygon","coordinates":[[[[79.498436,30.249926],[79.248471,30.249923],[79.248467,30.499899],[79.498432,30.499902],[79.498436,30.249926]]]]}},{"type":"Feature","properties":{"Sheet_No":"53N8","OSM_No":"H44H/8"},"geometry":{"type":"MultiPolygon","coordinates":[[[[79.49844,29.999951],[79.248475,29.999948],[79.248471,30.249923],[79.498436,30.249926],[79.49844,29.999951]]]]}},{"type":"Feature","properties":{"Sheet_No":"53N9","OSM_No":"H44H/9"},"geometry":{"type":"MultiPolygon","coordinates":[[[[79.748392,30.749881],[79.498428,30.749878],[79.498424,30.999853],[79.748388,30.999856],[79.748392,30.749881]]]]},"id":63},{"type":"Feature","properties":{"Sheet_No":"53O1","OSM_No":"H44N/1"},"geometry":{"type":"MultiPolygon","coordinates":[[[[79.248479,29.749972],[78.998514,29.749969],[78.99851,29.999945],[79.248475,29.999948],[79.248479,29.749972]]]]}},{"type":"Feature","properties":{"Sheet_No":"53O10","OSM_No":"H44N/10"},"geometry":{"type":"MultiPolygon","coordinates":[[[[79.748413,29.500002],[79.498447,29.499999],[79.498444,29.749975],[79.748409,29.749978],[79.748413,29.500002]]]]}},{"type":"Feature","properties":{"Sheet_No":"53O11","OSM_No":"H44N/11"},"geometry":{"type":"MultiPolygon","coordinates":[[[[79.748417,29.250025],[79.498451,29.250023],[79.498447,29.499999],[79.748413,29.500002],[79.748417,29.250025]]]]}},{"type":"Feature","properties":{"Sheet_No":"53O12","OSM_No":"H44N/12"},"geometry":{"type":"MultiPolygon","coordinates":[[[[79.74842,29.000049],[79.498455,29.000046],[79.498451,29.250023],[79.748417,29.250025],[79.74842,29.000049]]]]}},{"type":"Feature","properties":{"Sheet_No":"53O13","OSM_No":"H44N/13"},"geometry":{"type":"MultiPolygon","coordinates":[[[[79.998374,29.749981],[79.748409,29.749978],[79.748405,29.999953],[79.99837,29.999957],[79.998374,29.749981]]]]}},{"type":"Feature","properties":{"Sheet_No":"53O14","OSM_No":"H44N/14"},"geometry":{"type":"MultiPolygon","coordinates":[[[[79.998378,29.500005],[79.748413,29.500002],[79.748409,29.749978],[79.998374,29.749981],[79.998378,29.500005]]]]}},{"type":"Feature","properties":{"Sheet_No":"53O15","OSM_No":"H44N/15"},"geometry":{"type":"MultiPolygon","coordinates":[[[[79.998382,29.250028],[79.748417,29.250025],[79.748413,29.500002],[79.998378,29.500005],[79.998382,29.250028]]]]}},{"type":"Feature","properties":{"Sheet_No":"53O16","OSM_No":"H44N/16"},"geometry":{"type":"MultiPolygon","coordinates":[[[[79.998386,29.000052],[79.74842,29.000049],[79.748417,29.250025],[79.998382,29.250028],[79.998386,29.000052]]]]}},{"type":"Feature","properties":{"Sheet_No":"53O2","OSM_No":"H44N/2"},"geometry":{"type":"MultiPolygon","coordinates":[[[[79.248482,29.499996],[78.998517,29.499993],[78.998514,29.749969],[79.248479,29.749972],[79.248482,29.499996]]]]}},{"type":"Feature","properties":{"Sheet_No":"53O3","OSM_No":"H44N/3"},"geometry":{"type":"MultiPolygon","coordinates":[[[[79.248486,29.25002],[78.998521,29.250017],[78.998517,29.499993],[79.248482,29.499996],[79.248486,29.25002]]]]}},{"type":"Feature","properties":{"Sheet_No":"53O4","OSM_No":"H44N/4"},"geometry":{"type":"MultiPolygon","coordinates":[[[[79.24849,29.000044],[78.998525,29.000041],[78.998521,29.250017],[79.248486,29.25002],[79.24849,29.000044]]]]},"id":74},{"type":"Feature","properties":{"Sheet_No":"53O5","OSM_No":"H44N/5"},"geometry":{"type":"MultiPolygon","coordinates":[[[[79.498444,29.749975],[79.248479,29.749972],[79.248475,29.999948],[79.49844,29.999951],[79.498444,29.749975]]]]}},{"type":"Feature","properties":{"Sheet_No":"53O6","OSM_No":"H44N/6"},"geometry":{"type":"MultiPolygon","coordinates":[[[[79.498447,29.499999],[79.248482,29.499996],[79.248479,29.749972],[79.498444,29.749975],[79.498447,29.499999]]]]}},{"type":"Feature","properties":{"Sheet_No":"53O7","OSM_No":"H44N/7"},"geometry":{"type":"MultiPolygon","coordinates":[[[[79.498451,29.250023],[79.248486,29.25002],[79.248482,29.499996],[79.498447,29.499999],[79.498451,29.250023]]]]}},{"type":"Feature","properties":{"Sheet_No":"53O8","OSM_No":"H44N/8"},"geometry":{"type":"MultiPolygon","coordinates":[[[[79.498455,29.000046],[79.24849,29.000044],[79.248486,29.25002],[79.498451,29.250023],[79.498455,29.000046]]]]}},{"type":"Feature","properties":{"Sheet_No":"53O9","OSM_No":"H44N/9"},"geometry":{"type":"MultiPolygon","coordinates":[[[[79.748409,29.749978],[79.498444,29.749975],[79.49844,29.999951],[79.748405,29.999953],[79.748409,29.749978]]]]}},{"type":"Feature","properties":{"Sheet_No":"53P13","OSM_No":"H44T/13"},"geometry":{"type":"MultiPolygon","coordinates":[[[[79.99839,28.750076],[79.748424,28.750073],[79.74842,29.000049],[79.998386,29.000052],[79.99839,28.750076]]]]}},{"type":"Feature","properties":{"Sheet_No":"53P14","OSM_No":"H44T/14"},"geometry":{"type":"MultiPolygon","coordinates":[[[[79.998393,28.5001],[79.748428,28.500097],[79.748424,28.750073],[79.99839,28.750076],[79.998393,28.5001]]]]},"id":81},{"type":"Feature","properties":{"Sheet_No":"53P5","OSM_No":"H44T/5"},"geometry":{"type":"MultiPolygon","coordinates":[[[[79.498459,28.75007],[79.248493,28.750067],[79.24849,29.000044],[79.498455,29.000046],[79.498459,28.75007]]]]},"id":82},{"type":"Feature","properties":{"Sheet_No":"53P9","OSM_No":"H44T/9"},"geometry":{"type":"MultiPolygon","coordinates":[[[[79.748424,28.750073],[79.498459,28.75007],[79.498455,29.000046],[79.74842,29.000049],[79.748424,28.750073]]]]},"id":83},{"type":"Feature","properties":{"Sheet_No":"62B1","OSM_No":"H44I/1"},"geometry":{"type":"MultiPolygon","coordinates":[[[[80.248322,30.749887],[79.998357,30.749884],[79.998353,30.99986],[80.248317,30.999863],[80.248322,30.749887]]]]},"id":84},{"type":"Feature","properties":{"Sheet_No":"62B11","OSM_No":"H44I/11"},"geometry":{"type":"MultiPolygon","coordinates":[[[[80.74826,30.249942],[80.498295,30.249939],[80.498291,30.499915],[80.748256,30.499918],[80.74826,30.249942]]]]},"id":85},{"type":"Feature","properties":{"Sheet_No":"62B12","OSM_No":"H44I/12"},"geometry":{"type":"MultiPolygon","coordinates":[[[[80.748265,29.999966],[80.4983,29.999963],[80.498295,30.249939],[80.74826,30.249942],[80.748265,29.999966]]]]},"id":86},{"type":"Feature","properties":{"Sheet_No":"62B15","OSM_No":"H44I/15"},"geometry":{"type":"MultiPolygon","coordinates":[[[[80.998225,30.249945],[80.74826,30.249942],[80.748256,30.499918],[80.998221,30.499921],[80.998225,30.249945]]]]},"id":248},{"type":"Feature","properties":{"Sheet_No":"62B16","OSM_No":"H44I/16"},"geometry":{"type":"MultiPolygon","coordinates":[[[[80.99823,29.999969],[80.748265,29.999966],[80.74826,30.249942],[80.998225,30.249945],[80.99823,29.999969]]]]},"id":249},{"type":"Feature","properties":{"Sheet_No":"62B2","OSM_No":"H44I/2"},"geometry":{"type":"MultiPolygon","coordinates":[[[[80.248326,30.499911],[79.998361,30.499908],[79.998357,30.749884],[80.248322,30.749887],[80.248326,30.499911]]]]}},{"type":"Feature","properties":{"Sheet_No":"62B3","OSM_No":"H44I/3"},"geometry":{"type":"MultiPolygon","coordinates":[[[[80.24833,30.249936],[79.998366,30.249932],[79.998361,30.499908],[80.248326,30.499911],[80.24833,30.249936]]]]}},{"type":"Feature","properties":{"Sheet_No":"62B4","OSM_No":"H44I/4"},"geometry":{"type":"MultiPolygon","coordinates":[[[[80.248335,29.99996],[79.99837,29.999957],[79.998366,30.249932],[80.24833,30.249936],[80.248335,29.99996]]]]}},{"type":"Feature","properties":{"Sheet_No":"62B6","OSM_No":"H44I/6"},"geometry":{"type":"MultiPolygon","coordinates":[[[[80.498291,30.499915],[80.248326,30.499911],[80.248322,30.749887],[80.498287,30.74989],[80.498291,30.499915]]]]},"id":93},{"type":"Feature","properties":{"Sheet_No":"62B7","OSM_No":"H44I/7"},"geometry":{"type":"MultiPolygon","coordinates":[[[[80.498295,30.249939],[80.24833,30.249936],[80.248326,30.499911],[80.498291,30.499915],[80.498295,30.249939]]]]}},{"type":"Feature","properties":{"Sheet_No":"62B8","OSM_No":"H44I/8"},"geometry":{"type":"MultiPolygon","coordinates":[[[[80.4983,29.999963],[80.248335,29.99996],[80.24833,30.249936],[80.498295,30.249939],[80.4983,29.999963]]]]}},{"type":"Feature","properties":{"Sheet_No":"62C1","OSM_No":"H44O/1"},"geometry":{"type":"MultiPolygon","coordinates":[[[[80.248339,29.749984],[79.998374,29.749981],[79.99837,29.999957],[80.248335,29.99996],[80.248339,29.749984]]]]}},{"type":"Feature","properties":{"Sheet_No":"62C2","OSM_No":"H44O/2"},"geometry":{"type":"MultiPolygon","coordinates":[[[[80.248343,29.500008],[79.998378,29.500005],[79.998374,29.749981],[80.248339,29.749984],[80.248343,29.500008]]]]}},{"type":"Feature","properties":{"Sheet_No":"62C3","OSM_No":"H44O/3"},"geometry":{"type":"MultiPolygon","coordinates":[[[[80.248347,29.250031],[79.998382,29.250028],[79.998378,29.500005],[80.248343,29.500008],[80.248347,29.250031]]]]}},{"type":"Feature","properties":{"Sheet_No":"62C4","OSM_No":"H44O/4"},"geometry":{"type":"MultiPolygon","coordinates":[[[[80.248351,29.000055],[79.998386,29.000052],[79.998382,29.250028],[80.248347,29.250031],[80.248351,29.000055]]]]}},{"type":"Feature","properties":{"Sheet_No":"62C5","OSM_No":"H44O/5"},"geometry":{"type":"MultiPolygon","coordinates":[[[[80.498304,29.749987],[80.248339,29.749984],[80.248335,29.99996],[80.4983,29.999963],[80.498304,29.749987]]]]}},{"type":"Feature","properties":{"Sheet_No":"62C6","OSM_No":"H44O/6"},"geometry":{"type":"MultiPolygon","coordinates":[[[[80.498308,29.500011],[80.248343,29.500008],[80.248339,29.749984],[80.498304,29.749987],[80.498308,29.500011]]]]}},{"type":"Feature","properties":{"Sheet_No":"62C7","OSM_No":"H44O/7"},"geometry":{"type":"MultiPolygon","coordinates":[[[[80.498312,29.250035],[80.248347,29.250031],[80.248343,29.500008],[80.498308,29.500011],[80.498312,29.250035]]]]}},{"type":"Feature","properties":{"Sheet_No":"62C8","OSM_No":"H44O/8"},"geometry":{"type":"MultiPolygon","coordinates":[[[[80.498316,29.000058],[80.248351,29.000055],[80.248347,29.250031],[80.498312,29.250035],[80.498316,29.000058]]]]},"id":103},{"type":"Feature","properties":{"Sheet_No":"62C9","OSM_No":"H44O/9"},"geometry":{"type":"MultiPolygon","coordinates":[[[[80.748269,29.74999],[80.498304,29.749987],[80.4983,29.999963],[80.748265,29.999966],[80.748269,29.74999]]]]},"id":103},{"type":"Feature","properties":{"Sheet_No":"62D1","OSM_No":"H44U/1"},"geometry":{"type":"MultiPolygon","coordinates":[[[[80.248355,28.750079],[79.99839,28.750076],[79.998386,29.000052],[80.248351,29.000055],[80.248355,28.750079]]]]}},{"type":"Feature","properties":{"Sheet_No":"62D2","OSM_No":"H44U/2"},"geometry":{"type":"MultiPolygon","coordinates":[[[[80.248359,28.500103],[79.998393,28.5001],[79.99839,28.750076],[80.248355,28.750079],[80.248359,28.500103]]]]},"id":106},{"type":"Feature","properties":{"Sheet_No":"62F3","OSM_No":"H44J/3"},"geometry":{"type":"MultiPolygon","coordinates":[[[[81.248191,30.249949],[80.998225,30.249945],[80.998221,30.499921],[81.248186,30.499925],[81.248191,30.249949]]]]},"id":106},{"type":"Feature","properties":{"Sheet_No":"62F4","OSM_No":"H44J/4"},"geometry":{"type":"MultiPolygon","coordinates":[[[[81.248195,29.999973],[80.99823,29.999969],[80.998225,30.249945],[81.248191,30.249949],[81.248195,29.999973]]]]},"id":107},{"type":"Feature","properties":{"Sheet_No":"53I7","OSM_No":"H44A/7"},"geometry":{"type":"MultiPolygon","coordinates":[[[[78.498562,31.249817],[78.248597,31.249814],[78.248594,31.49979],[78.498558,31.499793],[78.498562,31.249817]]]]}}]}