{"type":"FeatureCollection","features":[{"type":"Feature","properties":{"name":"Dev Prayag","description":"","image":""},"geometry":{"coordinates":[78.59778633908422,30.145534941532688],"type":"Point"},"id":0},{"type":"Feature","properties":{"name":"Rudra Prayag","description":"","image":""},"geometry":{"coordinates":[78.97908200922188,30.28801387373433],"type":"Point"}},{"type":"Feature","properties":{"name":"Karn Prayag","description":"","image":""},"geometry":{"coordinates":[79.21625761239017,30.26277772398275],"type":"Point"}},{"type":"Feature","properties":{"name":"Nand Prayag","description":"","image":""},"geometry":{"coordinates":[79.31640617247234,30.332009679770636],"type":"Point"}},{"type":"Feature","properties":{"name":"Vishnu Prayag","description":"","image":""},"geometry":{"coordinates":[79.57599958361874,30.562533695759384],"type":"Point"}}]}