{
    "type": "FeatureCollection",
    "features": [
      {
        "type": "Feature",
        "properties": {
          "name": "Khoohdi, Jaisalmer",
          "description": "Located in the outskirts of Jaisalmer, it is a less touristy village. The sand dunes here are enough to keep you awestruck.",
          "image": "khoohdi.jpg",
          "state": "Rajasthan",
          "visited": 2013
        },
        "geometry": {
          "coordinates": [
            70.7321622, 26.6081939
          ],
          "type": "Point"
        }
      },
      {
        "type": "Feature",
        "properties": {
          "name": "Mahabar, Barmer",
          "description": "A lesser known and small sand dune but the tranquillity, golden sunset along with desert safari and camel ride makes the stay satisfying.",
          "image": "mahabar.jpg",
          "state": "Rajasthan",
          "visited": 2016
        },
        "geometry": {
          "coordinates": [
            71.4030155, 25.7033948
          ],
          "type": "Point"
        }
      },
      {
        "type": "Feature",
        "properties": {
          "name": "Osian, Jodhpur",
          "description": "An oasis in the Thar desert with cluster of ruined Hindua and Jain temples from 12th century.",
          "image": "osian.jpg",
          "state": "Rajasthan",
          "visited": 2016
        },
        "geometry": {
          "coordinates": [
            72.8996266, 26.7219964
          ],
          "type": "Point"
        }
      }
    ]
  }