{"type":"FeatureCollection","features":[{"type":"Feature","properties":{"name":"Excavated site and remains, Purola","description":"Purola"},"geometry":{"coordinates":[78.09269069842435,30.88458972065864],"type":"Point"},"id":0},{"type":"Feature","properties":{"name":"Excavated site at Dronsagar, Kashipur","description":"Panchayan temple, Kashipur"},"geometry":{"coordinates":[78.97679710330397,29.2060881028914],"type":"Point"},"id":1},{"type":"Feature","properties":{"name":"Gangolihat Group of Temples","description":"Remains of a few old temples and an inscribed masonry well ,Gangolihat"},"geometry":{"coordinates":[80.04232386734435,29.65624842256777],"type":"Point"},"id":2},{"type":"Feature","properties":{"name":"Patal Bhuvaneshwar Caves","description":"Didihat, Pithoragarh"},"geometry":{"coordinates":[80.09405664508762,29.68741019855304],"type":"Point"},"id":3},{"type":"Feature","properties":{"name":"Sitavani Temple","description":"Jim Corbett National Park, Ramnagar"},"geometry":{"coordinates":[79.22260680518588,29.407931299343772],"type":"Point"},"id":4},{"type":"Feature","properties":{"name":"Old Cemetery, Roorkee","description":"Roorkee"},"geometry":{"coordinates":[77.88142546123998,29.859592838260852],"type":"Point"},"id":5},{"type":"Feature","properties":{"name":"Lakhamandal Group of Temples","description":"Lakhamandal"},"geometry":{"coordinates":[78.06754819670982,30.731334284935087],"type":"Point"},"id":6},{"type":"Feature","properties":{"name":"Khalanga War Memorial","description":"Karanpur, Dehradun"},"geometry":{"coordinates":[78.09842697170365,30.342595977519693],"type":"Point"},"id":7},{"type":"Feature","properties":{"name":"Ashoka Edicts, Kalsi","description":"The inscribed rock edicts of Ashoka, Kalsi"},"geometry":{"coordinates":[77.84819100904559,30.517960357302655],"type":"Point"},"id":8},{"type":"Feature","properties":{"name":"Ashwamegha Yagna Site, Jagatgram","description":"Ancient site at Jagatram"},"geometry":{"coordinates":[77.82692548545867,30.49702350939458],"type":"Point"},"id":9},{"type":"Feature","properties":{"name":"Mahasu Devta Temple, Hanol","description":"Hanol"},"geometry":{"coordinates":[77.9276638974078,30.971163054812564],"type":"Point"},"id":10},{"type":"Feature","properties":{"name":"Baleshwar Group of Temples, Champawat","description":"Champawat"},"geometry":{"coordinates":[80.09044986016931,29.336493175415796],"type":"Point"},"id":11},{"type":"Feature","properties":{"name":"Kotwali Chabutra, Champawat","description":"Champawat"},"geometry":{"coordinates":[80.0845472741197,29.33389482008576],"type":"Point"},"id":12},{"type":"Feature","properties":{"name":"Naula near Baleshwar Group of Temples","description":"Naula or covered spring attached to the Baleshwar Group of Temples, Champawat"},"geometry":{"coordinates":[80.09041392124198,29.33626742828197],"type":"Point"},"id":13},{"type":"Feature","properties":{"name":"Rock Inscription, Mandal","description":"Rock inscription, Mandal"},"geometry":{"coordinates":[79.28610843999479,30.473979595190272],"type":"Point"},"id":14},{"type":"Feature","properties":{"name":"Rudranath Temple","description":"Om Namah Shivay"},"geometry":{"coordinates":[79.31818212376612,30.51858713179638],"type":"Point"},"id":15},{"type":"Feature","properties":{"name":"Twin Temples, Pandukeshwar","description":"Pandukeshwar"},"geometry":{"coordinates":[79.54951710210418,30.632913455076988],"type":"Point"},"id":16},{"type":"Feature","properties":{"name":"Trident of iron, Gopeshwar","description":"Trident of iron with a shaft with one ancient and three modern inscriptions, Gopeshwar"},"geometry":{"coordinates":[79.31583677389426,30.41377660372875],"type":"Point"},"id":17},{"type":"Feature","properties":{"name":"Chandpur Garhi Ruins","description":"A Fort with walls and ruins of dwelling house inside with flights of steps"},"geometry":{"coordinates":[79.21377421781284,30.175528085808196],"type":"Point"},"id":18},{"type":"Feature","properties":{"name":"Adi Badri","description":"Remains of the sixteen Adi Badri Group of Temples"},"geometry":{"coordinates":[79.22656992713951,30.156083526978463],"type":"Point"},"id":19},{"type":"Feature","properties":{"name":"Baijnath Group of Temples","description":"Ancient temples consisting of main shrine of Shiva and seventeen subsidiary shrines"},"geometry":{"coordinates":[79.6152753799833,29.90712503794863],"type":"Point"},"id":20},{"type":"Feature","properties":{"name":"Katarmal Sun Temple, Almora","description":"Almora"},"geometry":{"coordinates":[79.61474761511096,29.63252363580625],"type":"Point"},"id":21},{"type":"Feature","properties":{"name":"Dandeshwar Temple, Jageshwar","description":"Jageshwar"},"geometry":{"coordinates":[79.84154765618257,29.629211967663153],"type":"Point"},"id":22},{"type":"Feature","properties":{"name":"Jageshwar group of Temples","description":"Pyramidal Shrine, Kuber Temple, Mrityunjaya Temple, Nanda Devi or Nau Durga Temple, Navgrah Shrine, Surya Shrine"},"geometry":{"coordinates":[79.85437739988049,29.637360405934814],"type":"Point"},"id":23},{"type":"Feature","properties":{"name":"Badrinath Group of Temples, Dwarhat","description":"Dwarhat"},"geometry":{"coordinates":[79.4270560144754,29.774845250108925],"type":"Point"},"id":24},{"type":"Feature","properties":{"name":"Mrityunjaya Group of Temples, Dwarhat","description":"Dwarhat"},"geometry":{"coordinates":[79.42813721008127,29.774838722220792],"type":"Point"},"id":25},{"type":"Feature","properties":{"name":"Maniyan Group of Temples, Dwarhat","description":"Dwarhat"},"geometry":{"coordinates":[79.42706127958508,29.777704496725832],"type":"Point"},"id":26},{"type":"Feature","properties":{"name":"Kutchery Group of Temples, Dwarhat","description":"Dwarhat"},"geometry":{"coordinates":[79.42805413222504,29.778344147997544],"type":"Point"},"id":27},{"type":"Feature","properties":{"name":"Gujardeo Temple, Dwarhat","description":"Dwarhat"},"geometry":{"coordinates":[79.43086642424294,29.776400768947767],"type":"Point"},"id":28},{"type":"Feature","properties":{"name":"Ratandeo Shrines, Dwarhat","description":"Dwarhat"},"geometry":{"coordinates":[79.42912995869636,29.775811861203834],"type":"Point"},"id":29},{"type":"Feature","properties":{"name":"Bandeo or Vandev Temple, Dwarhat","description":"Dwarhat"},"geometry":{"coordinates":[79.42723380770678,29.77358133944962],"type":"Point"},"id":30},{"type":"Feature","properties":{"name":"Three temples of the Indo-Aryan Shikhara, Baijnath","description":"Three temples of the Indo-Aryan shikhara type known as Lakshmi Narayan Temple, Rakshas Deval Temple and Satya Narayan Temple"},"geometry":{"coordinates":[79.61086650973863,29.906618337569398],"type":"Point"},"id":31},{"type":"Feature","properties":{"name":"Excavated site Veerbhadra Temple","description":"Excavated site Veerbhadra Temple, Rishikesh"},"geometry":{"coordinates":[78.27998287850352,30.06627824257785],"type":"Point"},"id":32},{"type":"Feature","properties":{"name":"Tungnath Temple","description":"ASI Takes over"},"geometry":{"coordinates":[79.21675965381252,30.48825698041938],"type":"Point"},"id":33},{"type":"Feature","properties":{"name":"Ancient Naula, Syunrakot","description":"village Syunrakot, District Almora"},"geometry":{"coordinates":[79.66642013165142,29.688525683640364],"type":"Point"},"id":34},{"type":"Feature","properties":{"name":"Kutumbari Temple, Dwarhat(missing)","description":"Dwarhat. Encroached and collapsed, marked missing by ASI"},"geometry":{"coordinates":[79.42535684299634,29.77652413346435],"type":"Point"},"id":35},{"type":"Feature","properties":{"name":"Vairatapattana, Dhikuli (missing)","description":"Remains of ancient buildings locallly identified with Vairatapattana, marked missing by ASI"},"geometry":{"coordinates":[79.14997009736629,29.476972859966295],"type":"Point"},"id":36},{"type":"Feature","properties":{"name":"Vishnu Temple, Kotli","description":"Bankot, Pithoragarh"},"geometry":{"coordinates":[79.87018616388008,29.754117899618066],"type":"Point"},"id":37}]}