{"type":"FeatureCollection","features":[{"type":"Feature","properties":{"name":"31 May, 1 Jun - Munshyari","description":"Program at schools in villages around Munshyari. On 1 Jun, yatra moves towards Harkot, Pataalthauda, Kalamuni, Birthi, Bhurting, Kethi, Bala.","breakpoint":"yes","trail":"Easy, road-drive or road-walk. Easy trek to Kethi|Bala","closed":"yes"},"geometry":{"coordinates":[80.24006340203522,30.067083525437],"type":"Point"}},{"type":"Feature","properties":{"description":"Lamtara Kharak, Bhainsia Kharak, Lahur","breakpoint":"no","name":"3 Jun - Keemu","trail":"Moderate trek to Mandhari Kharak (3100 m)","closed":"yes"},"geometry":{"coordinates":[80.07369306171421,30.096445562867487],"type":"Point"},"id":1},{"type":"Feature","properties":{"name":"27 May - Baluwakot","description":"Khatti Bagad, Gaagra, Dhungatoli, Kimkhola, Jauljibi, Tham, Narayan Nagar","breakpoint":"no","trail":"Easy, road-drive or road-walk","closed":"yes"},"geometry":{"coordinates":[80.42966496288034,29.802181611314438],"type":"Point"}},{"type":"Feature","properties":{"name":"28 May - Narayan Nagar","description":"Function at Inter College 10:00 Hrs. Thereafter, yatra moves to Askot, Garjia and  Balmara","breakpoint":"yes","trail":"Easy, road-drive or road-walk","closed":"yes"},"geometry":{"coordinates":[80.2934236796803,29.77204390299488],"type":"Point"}},{"type":"Feature","properties":{"name":"29 May - Balmara","description":"Toli, Ghattbagad, Baram, Chami, Lumti, Chhoribagad","breakpoint":"no","trail":"Easy, road-drive or road-walk","closed":"yes"},"geometry":{"coordinates":[80.35809197365745,29.797771313187283],"type":"Point"}},{"type":"Feature","properties":{"name":"30 May - Chhoribagad","description":"Bangapani, Shilang, Khartoli, Sera, Tanga, Madkot, Munsiyari","breakpoint":"no","trail":"Easy, road-drive or road-walk","closed":"yes"},"geometry":{"coordinates":[80.30292727122725,29.945986617685875],"type":"Point"}},{"type":"Feature","properties":{"name":"2 Jun - Kethi, Bala","description":"Rugair, Dharpani, Gailgari , Namik, Keemu","breakpoint":"no","trail":"Moderate trek to Sur-Sungri Pass (3200 m)","closed":"yes"},"geometry":{"coordinates":[80.14658136648006,30.047914903935776],"type":"Point"},"id":6},{"type":"Feature","properties":{"name":"26 May - Tapovan","description":"Dharchula, Kaalika, Baluwakot","breakpoint":"no","trail":"Easy, road-drive or road-walk","closed":"yes"},"geometry":{"coordinates":[80.55951872337272,29.866321360785108],"type":"Point"}},{"type":"Feature","properties":{"name":"25 May - Pangu","description":"Yatra starts at 11:00 Hrs from Pangu and covers Thanidhar, Tawaghat, Palpala, Syankuri, Tapovan.","breakpoint":"yes","trail":"Easy, road-drive or road-walk","closed":"yes"},"geometry":{"coordinates":[80.61587586187068,29.98325153638274],"type":"Point"},"id":8},{"type":"Feature","properties":{"name":"4 Jun - Lahur","description":"Supi, Tatai, Gaasi, Ghurkot, Chaurathal, Kaithi, Karmi","breakpoint":"no","trail":"Easy, road-drive or road-walk","closed":"yes"},"geometry":{"coordinates":[79.99754089305605,30.067640423558885],"type":"Point"},"id":9},{"type":"Feature","properties":{"name":"5 Jun - Karmi","description":"Environment day celebrations. Yatra moves to Suraag, Teekh, Daula, Badiyakot","breakpoint":"yes","trail":"Easy, road-drive or road-walk","closed":"yes"},"geometry":{"coordinates":[79.8969494672836,30.047577357845967],"type":"Point"},"id":10},{"type":"Feature","properties":{"name":"6 Jun - Badiyakot","description":"Baura shark, Bor Balda, Samdhar, Bharadkandey","breakpoint":"no","trail":"Moderate trek with pass crossing at 2750m","closed":"yes"},"geometry":{"coordinates":[79.84424353907986,30.111708942367883],"type":"Point"},"id":11},{"type":"Feature","properties":{"name":"7 Jun - Bharadkandey","description":"Rajkharak, Manatoli Bughyal, Dulam, Himni, Ghes","breakpoint":"no","trail":"Moderate trek with pass crossing at 3250m","closed":"yes"},"geometry":{"coordinates":[79.7988592120173,30.128447643964535],"type":"Point"},"id":12},{"type":"Feature","properties":{"name":"8 Jun - Ghes","description":"Balan, Mohini kharak, Ali bughyal","breakpoint":"no","trail":"Moderate trek reaching altitude of 3500m","closed":"yes"},"geometry":{"coordinates":[79.70366597115117,30.129415986014635],"type":"Point"},"id":13},{"type":"Feature","properties":{"name":"9 Jun - Ali Bugyal","description":"Bedni bugyal, Wan, Kanol, Sutol","breakpoint":"no","trail":"Moderate trek with pass crossing at 3100m","closed":"yes"},"geometry":{"coordinates":[79.66619018964826,30.18940100157873],"type":"Point"},"id":14},{"type":"Feature","properties":{"name":"10 Jun - Sutol","description":"Pairi, Geri, Aala","breakpoint":"yes","trail":"Easy, road-drive or road-walk","closed":"yes"},"geometry":{"coordinates":[79.61916897182715,30.272252940735257],"type":"Point"},"id":15},{"type":"Feature","properties":{"name":"11 Jun - Aala","description":"Padher, Ramni, Jhinjhi ","breakpoint":"no","trail":"Moderate trek with pass crossing at 3200m","closed":"yes"},"geometry":{"coordinates":[79.54934916197527,30.28893802774769],"type":"Point"},"id":16},{"type":"Feature","properties":{"name":"12 Jun - Jhinjhi","description":"Pana, Iradi, Kunwari Khal, Danu kharak, Karchi ","breakpoint":"no","trail":"Moderate trek with pass crossing at 3700m","closed":"yes"},"geometry":{"coordinates":[79.57586582090113,30.35819462878284],"type":"Point"},"id":17},{"type":"Feature","properties":{"name":"13 Jun - Karchi","description":"Dhak Tapovan, Raini and back to Tapovan","breakpoint":"no","trail":"Easy, road-drive or road-walk","closed":"yes"},"geometry":{"coordinates":[79.60815724713149,30.483025211849608],"type":"Point"},"id":18},{"type":"Feature","properties":{"name":"14 Jun - Tapovan","description":"Bada ganv, Joshimath, Helang","breakpoint":"no","trail":"Easy, road-drive or road-walk","closed":"yes"},"geometry":{"coordinates":[79.62431253661521,30.48982195121721],"type":"Point"},"id":19},{"type":"Feature","properties":{"name":"15 Jun - Helang","description":"Dungri, Barosi, Peepalkoti, Chhinka, Gopeshwar","breakpoint":"no","trail":"Easy, road-drive or road-walk","closed":"yes"},"geometry":{"coordinates":[79.50116213886764,30.524362661400417],"type":"Point"},"id":20},{"type":"Feature","properties":{"name":"16-17 Jun - Gopeshwar","description":"Visit nearby villages and the yatra moves to Khalla, Mandal, Bairagana","breakpoint":"yes","trail":"Easy, road-drive or road-walk","closed":"yes"},"geometry":{"coordinates":[79.31685241394439,30.406819590962925],"type":"Point"},"id":21},{"type":"Feature","properties":{"name":"18 Jun - Mandal","description":"Bhains kharak, Kanchula kharak, Chopta ","breakpoint":"no","trail":"Easy, road-drive or road-walk","closed":"yes"},"geometry":{"coordinates":[79.27468503599994,30.460726942511002],"type":"Point"},"id":22},{"type":"Feature","properties":{"name":"19 Jun - Chopta","description":"Tala, Sari, Usada, Mastura, Sirtola, Kimana, Makku, Ukhimath","breakpoint":"no","trail":"Easy, road-drive or road-walk","closed":"yes"},"geometry":{"coordinates":[79.20042421491621,30.484961840740382],"type":"Point"},"id":23},{"type":"Feature","properties":{"name":"20 Jun - Ukhimath","description":"Guptkashi, Hyuna, Narayankoti, Jyurani, Mekhanda, Phata","breakpoint":"no","trail":"Easy, road-drive or road-walk","closed":"yes"},"geometry":{"coordinates":[79.09450214618403,30.512931797239844],"type":"Point"},"id":24},{"type":"Feature","properties":{"name":"21 Jun - Phata","description":"Badasu, Shersi, Rampur, Sitapur, Triyuginarayan ","breakpoint":"no","trail":"Easy, road-drive or road-walk","closed":"yes"},"geometry":{"coordinates":[79.03887056200966,30.577094367286733],"type":"Point"},"id":25},{"type":"Feature","properties":{"name":"22 Jun - Triyuginarayan","description":"Maggu chatti, Kinkhola, Rajkharak, Panwali kharak","breakpoint":"no","trail":"Moderate trek with pass crossing at 3500m","closed":"yes"},"geometry":{"coordinates":[78.97717863192389,30.640408130895224],"type":"Point"},"id":26},{"type":"Feature","properties":{"name":"23 Jun - Panwali","description":"Dophand, Pobami, Pyao, Rishidhar, Ghuttu","breakpoint":"no","trail":"Moderate trek","closed":"yes"},"geometry":{"coordinates":[78.86755629414671,30.569650505037856],"type":"Point"},"id":27},{"type":"Feature","properties":{"name":"24 Jun - Ghuttu","description":"Sankari, Hitkuda, Bhatgaon, Bhairon chatti, Kaldi chatti, Bajinga, Heti, Khvada","breakpoint":"no","trail":"Easy, road-drive or road-walk","closed":"yes"},"geometry":{"coordinates":[78.79101166761001,30.528455498255752],"type":"Point"},"id":28},{"type":"Feature","properties":{"name":"25 Jun - Khawara","description":"Binayakkhal, Kundiyala, Dalgaon, Budha Kedar","breakpoint":"no","trail":"Easy, road-drive or road-walk","closed":"yes"},"geometry":{"coordinates":[78.66384191614299,30.553968758251358],"type":"Point"},"id":29},{"type":"Feature","properties":{"name":"26 Jun - Budha Kedar","description":"Aagar, Newal gaon, Medh,  Kamad","breakpoint":"no","trail":"Easy, road-drive or road-walk","closed":"yes"},"geometry":{"coordinates":[78.64823352374174,30.578473977519593],"type":"Point"},"id":30},{"type":"Feature","properties":{"name":"27 Jun - Kamad","description":"Kumarkot, Bharkot, Bhetiyara, Saur, Chaurangikhal, Ladari, Joshiyara","breakpoint":"no","trail":"Easy, road-drive or road-walk","closed":"yes"},"geometry":{"coordinates":[78.56371527220506,30.636335552036186],"type":"Point"},"id":31},{"type":"Feature","properties":{"name":"28-30 Jun, 1 Jul - Uttarkashi","description":"28 Jun - Visit to Uttarkashi, 29 Jun - Uttarkashi city and Varunavat landslide area, 30 Jun - visit to earthquake affected villages, 1 Jul - the year moves to Badethi, Malti, Nakuru, Barsali, Falancha kharak","breakpoint":"yes","trail":"Easy, road-drive or road-walk","closed":"yes"},"geometry":{"coordinates":[78.43369300049142,30.725918985969955],"type":"Point"},"id":32},{"type":"Feature","properties":{"name":"2 Jul - Falancha kharak","description":"Rajtar, Barkot, Koti Banal, Krishna gaon, Naugaon","breakpoint":"no","trail":"Easy trek with pass crossing at 2400m","closed":"yes"},"geometry":{"coordinates":[78.28936900166013,30.767614633868334],"type":"Point"},"id":33},{"type":"Feature","properties":{"name":"3 Jul - Naugaon","description":"Chhudoli, Vini gadera, Chandela, Purola","breakpoint":"no","trail":"Easy, road-drive or road-walk","closed":"yes"},"geometry":{"coordinates":[78.13802306589156,30.788290534854184],"type":"Point"},"id":34},{"type":"Feature","properties":{"name":"4-5 Jul, Purola","description":"Visit to villages nearby Purola. On 5 Jul, Yatra moves to Agoda, Moltadi, Peera, Jarmola Dhar, Mori","breakpoint":"no","trail":"Easy, road-drive or road-walk","closed":"no"},"geometry":{"coordinates":[78.0862157197131,30.87959979692465],"type":"Point"},"id":35},{"type":"Feature","properties":{"name":"6 Jul - Mori","description":"One team visits Sandra, Khooni gad, Badiyar, Hanoi, Badotara. The other team visits Chatrigad, Koti, Kuna, Mahendrarath","breakpoint":"no","trail":"Easy, road-drive or road-walk","closed":"no"},"geometry":{"coordinates":[78.04497386172636,31.019942014926826],"type":"Point"},"id":36},{"type":"Feature","properties":{"name":"7 Jul - Mahendrarath","description":"Sainj, Tyuni, Pegatu, Bhargarhi, Kadhang, Jiraad, Pandranu ","breakpoint":"no","trail":"Easy, road-drive or road-walk","closed":"no"},"geometry":{"coordinates":[77.87915151515233,30.94337213863703],"type":"Point"},"id":37},{"type":"Feature","properties":{"name":"8 Jul - Pandranu, Arakot","description":"Welcome peers from Himachal Pradesh. Conversation at Inter college Arakot and closure ceremony at 10:00 Hrs","breakpoint":"yes","trail":"Easy, road-drive or road-walk","closed":"no"},"geometry":{"coordinates":[77.83305706521946,31.009146477449207],"type":"Point"},"id":38}]}