{"type":"FeatureCollection","features":[{"type":"Feature","properties":{"name":"Shalshal La"},"geometry":{"coordinates":[80.07,30.8225],"type":"Point"}},{"type":"Feature","properties":{"name":"Tunjun La"},"geometry":{"coordinates":[79.9809712,30.8777875],"type":"Point"}},{"type":"Feature","properties":{"name":"Bali Pass"},"geometry":{"coordinates":[78.4380337,31.0329887],"type":"Point"}},{"type":"Feature","properties":{"name":"Yamunotri Pass"},"geometry":{"coordinates":[78.4943265,31.0087963],"type":"Point"}},{"type":"Feature","properties":{"name":"Not Available"},"geometry":{"coordinates":[80.0150467,30.8564223],"type":"Point"}},{"type":"Feature","properties":{"name":"Silikank La"},"geometry":{"coordinates":[79.9256833,30.8721877],"type":"Point"}},{"type":"Feature","properties":{"name":"Dhakuri Khal"},"geometry":{"coordinates":[79.92005,30.07233],"type":"Point"},"id":6},{"type":"Feature","properties":{"name":"Saterakhal"},"geometry":{"coordinates":[79.00269,30.32227],"type":"Point"}},{"type":"Feature","properties":{"name":"Niti Pass"},"geometry":{"coordinates":[79.8753132,30.9665872],"type":"Point"}},{"type":"Feature","properties":{"name":"Chitichun"},"geometry":{"coordinates":[80.19694,30.68028],"type":"Point"}},{"type":"Feature","properties":{"name":"Mangsha Dhura"},"geometry":{"coordinates":[80.6876001,30.4174841],"type":"Point"}},{"type":"Feature","properties":{"name":"Limpiyadhura Pass"},"geometry":{"coordinates":[80.59056,30.46833],"type":"Point"}},{"type":"Feature","properties":{"name":"Unta Dhura"},"geometry":{"coordinates":[80.1725125,30.5762999],"type":"Point"}},{"type":"Feature","properties":{"name":"Kungri Bingri Pass"},"geometry":{"coordinates":[80.2126735,30.624893],"type":"Point"}},{"type":"Feature","properties":{"name":"Darma Pass"},"geometry":{"coordinates":[80.5358907,30.4527324],"type":"Point"}},{"type":"Feature","properties":{"name":"Darwa Pass"},"geometry":{"coordinates":[78.511789,30.9141117],"type":"Point"}},{"type":"Feature","properties":{"name":"Not Available"},"geometry":{"coordinates":[81.044362,30.205812],"type":"Point"}},{"type":"Feature","properties":{"name":"Not Available"},"geometry":{"coordinates":[81.0413267,30.2139027],"type":"Point"}},{"type":"Feature","properties":{"name":"Lipulekh Pass"},"geometry":{"coordinates":[81.0285145,30.2329056],"type":"Point"}},{"type":"Feature","properties":{"name":"Balcha Dhura"},"geometry":{"coordinates":[80.1924282,30.7866858],"type":"Point"}},{"type":"Feature","properties":{"name":"Sin La"},"geometry":{"coordinates":[80.6254792,30.331153],"type":"Point"}},{"type":"Feature","properties":{"name":"Not Available"},"geometry":{"coordinates":[81.0035309,30.1906329],"type":"Point"}},{"type":"Feature","properties":{"name":"Birje Ganga Pass"},"geometry":{"coordinates":[80.2522997,30.3010664],"type":"Point"}},{"type":"Feature","properties":{"name":"Kinknola Khal"},"geometry":{"coordinates":[78.9159823,30.6262407],"type":"Point"},"id":23},{"type":"Feature","properties":{"name":"Mandhari Kharak"},"geometry":{"coordinates":[80.027623,30.082444],"type":"Point"}},{"type":"Feature","properties":{"name":"Naola pass"},"geometry":{"coordinates":[79.3256869,30.4949844],"type":"Point"}},{"type":"Feature","properties":{"name":"Kalaipir Pass"},"geometry":{"coordinates":[78.6723672,30.7101258],"type":"Point"},"id":26},{"type":"Feature","properties":{"name":"Sur Sungri Khal"},"geometry":{"coordinates":[80.1233194,30.0789342],"type":"Point"}},{"type":"Feature","properties":{"name":"Mujurka Khal"},"geometry":{"coordinates":[80.3449349,30.0647172],"type":"Point"}},{"type":"Feature","properties":{"name":"Rur Khan pass"},"geometry":{"coordinates":[80.172373,30.08254],"type":"Point"}},{"type":"Feature","properties":{"name":"Pitradhar"},"geometry":{"coordinates":[79.3325892,30.4882588],"type":"Point"}},{"type":"Feature","properties":{"name":"Dhartai Kharak"},"geometry":{"coordinates":[80.4458584,30.0544349],"type":"Point"}},{"type":"Feature","properties":{"name":"Bothi pass"},"geometry":{"coordinates":[80.2971702,30.081466],"type":"Point"}},{"type":"Feature","properties":{"name":"Khati Khal"},"geometry":{"coordinates":[79.9536788,30.0971354],"type":"Point"},"id":33},{"type":"Feature","properties":{"name":"Dharati Khal"},"geometry":{"coordinates":[80.4117063,30.056527],"type":"Point"}},{"type":"Feature","properties":{"name":"Balchhidhura Pass"},"geometry":{"coordinates":[80.4737214,30.0587859],"type":"Point"}},{"type":"Feature","properties":{"name":"Not Available"},"geometry":{"coordinates":[80.2614784,30.4933554],"type":"Point"}},{"type":"Feature","properties":{"name":"Not Available"},"geometry":{"coordinates":[80.2986753,30.4254926],"type":"Point"}},{"type":"Feature","properties":{"name":"Not Available"},"geometry":{"coordinates":[80.3207873,30.2669626],"type":"Point"}},{"type":"Feature","properties":{"name":"Not Available"},"geometry":{"coordinates":[80.2408361,30.491266],"type":"Point"}},{"type":"Feature","properties":{"name":"Not Available"},"geometry":{"coordinates":[80.2463507,30.485127],"type":"Point"}},{"type":"Feature","properties":{"name":"Not Available"},"geometry":{"coordinates":[80.2502614,30.4797829],"type":"Point"}},{"type":"Feature","properties":{"name":"Not Available"},"geometry":{"coordinates":[80.3071832,30.3493613],"type":"Point"}},{"type":"Feature","properties":{"name":"Limpiya Pass"},"geometry":{"coordinates":[80.6259476,30.4593869],"type":"Point"}},{"type":"Feature","properties":{"name":"Jandi Dhura"},"geometry":{"coordinates":[80.2162815,30.5823066],"type":"Point"}},{"type":"Feature","properties":{"name":"Mahipanth Col"},"geometry":{"coordinates":[79.0988,30.75264],"type":"Point"}},{"type":"Feature","properties":{"name":"Bishali Col"},"geometry":{"coordinates":[79.126918,30.7450895],"type":"Point"}},{"type":"Feature","properties":{"name":"Panpatia Col"},"geometry":{"coordinates":[79.31394,30.67142],"type":"Point"},"id":47},{"type":"Feature","properties":{"name":"Mainwa Khal"},"geometry":{"coordinates":[79.3896203,30.5566486],"type":"Point"}},{"type":"Feature","properties":{"name":"Audens Col"},"geometry":{"coordinates":[78.8923,30.87311],"type":"Point"}},{"type":"Feature","properties":{"name":"Sujal Sarovar Pass"},"geometry":{"coordinates":[79.27495,30.66109],"type":"Point"},"id":50},{"type":"Feature","properties":{"name":"Kanakata Pass"},"geometry":{"coordinates":[79.8786414,30.1798248],"type":"Point"}},{"type":"Feature","properties":{"name":"Unta Dhura Pass"},"geometry":{"coordinates":[80.1523717,30.5734514],"type":"Point"}},{"type":"Feature","properties":{"name":"Nama Pass"},"geometry":{"coordinates":[80.6715455,30.233802],"type":"Point"}},{"type":"Feature","properties":{"name":"Dhanya Dunkar Khal (Ghiya Vinayak)"},"geometry":{"coordinates":[79.3389727,30.5996232],"type":"Point"}},{"type":"Feature","properties":{"name":"Ralam Pass"},"geometry":{"coordinates":[80.3885937,30.3014087],"type":"Point"}},{"type":"Feature","properties":{"name":"Yangchar Dhura"},"geometry":{"coordinates":[80.3462952,30.3262955],"type":"Point"}},{"type":"Feature","properties":{"name":"Dayara Pass"},"geometry":{"coordinates":[78.55721,30.87542],"type":"Point"}},{"type":"Feature","properties":{"name":"Sudhamkhan"},"geometry":{"coordinates":[80.1447838,30.1309267],"type":"Point"}},{"type":"Feature","properties":{"name":"Kagudi Bhel"},"geometry":{"coordinates":[80.1539121,30.1746164],"type":"Point"}},{"type":"Feature","properties":{"name":"Bamsaru khal"},"geometry":{"coordinates":[78.5763438,30.9514392],"type":"Point"}},{"type":"Feature","properties":{"name":"Kashni Khal"},"geometry":{"coordinates":[79.2518413,30.6499118],"type":"Point"},"id":61},{"type":"Feature","properties":{"name":"Manjhikanda Pass"},"geometry":{"coordinates":[78.3625186,31.0261057],"type":"Point"}},{"type":"Feature","properties":{"name":"Pachikandi Pass"},"geometry":{"coordinates":[78.3173973,31.0003676],"type":"Point"}},{"type":"Feature","properties":{"name":"Aincha Pass"},"geometry":{"coordinates":[78.4284675,30.883268],"type":"Point"}},{"type":"Feature","properties":{"name":"Dhayakarsu Pass"},"geometry":{"coordinates":[78.3482051,30.8307241],"type":"Point"}},{"type":"Feature","properties":{"name":"Dagdanaiya Khal"},"geometry":{"coordinates":[79.255135,30.5692911],"type":"Point"}},{"type":"Feature","properties":{"name":"Saldawani Khal"},"geometry":{"coordinates":[79.4028282,30.5423225],"type":"Point"}},{"type":"Feature","properties":{"name":"Lokhandi Lani"},"geometry":{"coordinates":[77.8084228,30.7573163],"type":"Point"}},{"type":"Feature","properties":{"name":"Bajamara Lani"},"geometry":{"coordinates":[77.9013853,30.7616217],"type":"Point"}},{"type":"Feature","properties":{"name":"Pandawa Lani"},"geometry":{"coordinates":[77.9139062,30.7790996],"type":"Point"}},{"type":"Feature","properties":{"name":"Bamnai Lani"},"geometry":{"coordinates":[77.9688012,30.8239156],"type":"Point"}},{"type":"Feature","properties":{"name":"Karma Khal"},"geometry":{"coordinates":[79.8793133,30.069359],"type":"Point"},"id":72},{"type":"Feature","properties":{"name":"Palachu Pass"},"geometry":{"coordinates":[78.2899046,30.7675779],"type":"Point"}},{"type":"Feature","properties":{"name":"Mankha Khal"},"geometry":{"coordinates":[78.9823848,30.5510573],"type":"Point"},"id":74},{"type":"Feature","properties":{"name":"Kandara"},"geometry":{"coordinates":[78.6766718,30.9968512],"type":"Point"}},{"type":"Feature","properties":{"name":"Chup Kandi"},"geometry":{"coordinates":[78.6215783,30.9626433],"type":"Point"}},{"type":"Feature","properties":{"name":"Tingling"},"geometry":{"coordinates":[78.2759142,30.527574],"type":"Point"}},{"type":"Feature","properties":{"name":"Jarmola Dhar"},"geometry":{"coordinates":[78.0979764,30.949968],"type":"Point"}},{"type":"Feature","properties":{"name":"Roni Lani"},"geometry":{"coordinates":[77.9682606,30.7781375],"type":"Point"}},{"type":"Feature","properties":{"name":"Bagro Lani"},"geometry":{"coordinates":[77.9890994,30.75597],"type":"Point"}},{"type":"Feature","properties":{"name":"Pindari Kanda (Traills Pass)"},"geometry":{"coordinates":[80.024936,30.3132463],"type":"Point"}},{"type":"Feature","properties":{"name":"Kundara Khal"},"geometry":{"coordinates":[79.4281314,30.5169184],"type":"Point"}},{"type":"Feature","properties":{"name":"Dwara Khal"},"geometry":{"coordinates":[79.1406116,30.6541127],"type":"Point"}},{"type":"Feature","properties":{"name":"Kot Khal"},"geometry":{"coordinates":[79.0998898,30.356498],"type":"Point"}},{"type":"Feature","properties":{"name":"Kyarki Khal"},"geometry":{"coordinates":[78.7194251,30.7329411],"type":"Point"},"id":86},{"type":"Feature","properties":{"name":"Chaunda pass"},"geometry":{"coordinates":[78.2498557,31.0213706],"type":"Point"}},{"type":"Feature","properties":{"name":"Rari Pass"},"geometry":{"coordinates":[78.2617138,30.7744061],"type":"Point"}},{"type":"Feature","properties":{"name":"Jalikhal"},"geometry":{"coordinates":[78.2841579,30.4874591],"type":"Point"}},{"type":"Feature","properties":{"name":"Patthar Khol"},"geometry":{"coordinates":[78.1672314,30.6138373],"type":"Point"}},{"type":"Feature","properties":{"name":"Gaddukhal"},"geometry":{"coordinates":[78.2880588,30.4059956],"type":"Point"}},{"type":"Feature","properties":{"name":"Kaddukhal"},"geometry":{"coordinates":[78.2976513,30.4076007],"type":"Point"}},{"type":"Feature","properties":{"name":"Bharat Khai pass"},"geometry":{"coordinates":[77.9422407,30.5803418],"type":"Point"}},{"type":"Feature","properties":{"name":"Singhori Pass"},"geometry":{"coordinates":[77.9426692,30.5983817],"type":"Point"}},{"type":"Feature","properties":{"name":"Birmau Kandi pass"},"geometry":{"coordinates":[77.9041554,30.6470426],"type":"Point"}},{"type":"Feature","properties":{"name":"Phedu Lani"},"geometry":{"coordinates":[77.83035,30.6697532],"type":"Point"}},{"type":"Feature","properties":{"name":"Thuna Lani"},"geometry":{"coordinates":[77.8282589,30.7638182],"type":"Point"}},{"type":"Feature","properties":{"name":"Baferu Lani"},"geometry":{"coordinates":[77.9056809,30.7694573],"type":"Point"}},{"type":"Feature","properties":{"name":"Chhadai Lani"},"geometry":{"coordinates":[77.9274896,30.8761211],"type":"Point"}},{"type":"Feature","properties":{"name":"Lakni Lani"},"geometry":{"coordinates":[77.9439505,30.8845918],"type":"Point"}},{"type":"Feature","properties":{"name":"Khadu lani"},"geometry":{"coordinates":[77.94671,30.9284019],"type":"Point"}},{"type":"Feature","properties":{"name":"Kio Dhura"},"geometry":{"coordinates":[80.2286103,30.689942],"type":"Point"}},{"type":"Feature","properties":{"name":"Ghatmila Dhura"},"geometry":{"coordinates":[80.2414395,30.7135467],"type":"Point"}},{"type":"Feature","properties":{"name":"Chojan La"},"geometry":{"coordinates":[80.0984058,30.7915454],"type":"Point"}},{"type":"Feature","properties":{"name":"Porbe-khura pass"},"geometry":{"coordinates":[80.4493909,30.4964835],"type":"Point"}},{"type":"Feature","properties":{"name":"Mohan Khal"},"geometry":{"coordinates":[79.1490756,30.3783846],"type":"Point"}},{"type":"Feature","properties":{"name":"Dyari Chhina"},"geometry":{"coordinates":[80.0437688,29.7010634],"type":"Point"}},{"type":"Feature","properties":{"name":"Talla Chhina"},"geometry":{"coordinates":[80.2057743,29.7281602],"type":"Point"},"id":107},{"type":"Feature","properties":{"name":"Mountain pass"},"geometry":{"coordinates":[79.3820178,30.4667477],"type":"Point"}},{"type":"Feature","properties":{"name":"Not Available"},"geometry":{"coordinates":[79.415397,30.538728],"type":"Point"}},{"type":"Feature","properties":{"name":"Not Available"},"geometry":{"coordinates":[78.2249502,30.5489703],"type":"Point"}},{"type":"Feature","properties":{"name":"Not Available"},"geometry":{"coordinates":[79.1739926,30.4298861],"type":"Point"}},{"type":"Feature","properties":{"name":"Bagdwal Khal"},"geometry":{"coordinates":[79.0937353,30.3370772],"type":"Point"}},{"type":"Feature","properties":{"name":"Not Available"},"geometry":{"coordinates":[78.3246572,30.8114972],"type":"Point"}},{"type":"Feature","properties":{"name":"Not Available"},"geometry":{"coordinates":[78.1620307,30.6524118],"type":"Point"}},{"type":"Feature","properties":{"name":"Not Available"},"geometry":{"coordinates":[80.1045342,30.0144516],"type":"Point"}},{"type":"Feature","properties":{"name":"Not Available"},"geometry":{"coordinates":[80.2272655,30.0483411],"type":"Point"}},{"type":"Feature","properties":{"name":"Lahur Gwar"},"geometry":{"coordinates":[80.021507,30.0480197],"type":"Point"}},{"type":"Feature","properties":{"name":"Not Available"},"geometry":{"coordinates":[78.273578,30.5963138],"type":"Point"}},{"type":"Feature","properties":{"name":"Not Available"},"geometry":{"coordinates":[78.9485496,30.4966187],"type":"Point"},"id":120},{"type":"Feature","properties":{"name":"Hum Dhura"},"geometry":{"coordinates":[80.2707254,30.0063399],"type":"Point"}},{"type":"Feature","properties":{"name":"Not Available"},"geometry":{"coordinates":[80.1829963,29.9975522],"type":"Point"}},{"type":"Feature","properties":{"name":"Not Available"},"geometry":{"coordinates":[80.1555134,30.7945427],"type":"Point"}},{"type":"Feature","properties":{"name":"Not Available"},"geometry":{"coordinates":[80.2098449,30.5863084],"type":"Point"}},{"type":"Feature","properties":{"name":"Not Available"},"geometry":{"coordinates":[80.2060245,30.6511678],"type":"Point"}},{"type":"Feature","properties":{"name":"Khinger La"},"geometry":{"coordinates":[80.1588312,30.6508836],"type":"Point"}},{"type":"Feature","properties":{"name":"Jainti Dhura"},"geometry":{"coordinates":[80.1915414,30.5920524],"type":"Point"}},{"type":"Feature","properties":{"name":"Not Available"},"geometry":{"coordinates":[78.1889033,31.0237564],"type":"Point"}},{"type":"Feature","properties":{"name":"Not Available"},"geometry":{"coordinates":[78.3362854,30.821838],"type":"Point"}},{"type":"Feature","properties":{"name":"Sundardhunga Khal"},"geometry":{"coordinates":[79.9119973,30.2862346],"type":"Point"}},{"type":"Feature","properties":{"name":"Hathini Col"},"geometry":{"coordinates":[79.08806340142291,30.711056179693117],"type":"Point"}},{"type":"Feature","properties":{"name":"Kalamuni Pass"},"geometry":{"coordinates":[80.19982176470847,30.037713077444934],"type":"Point"}},{"type":"Feature","properties":{"name":"Not Available"},"geometry":{"coordinates":[80.02944,30.84278],"type":"Point"}},{"type":"Feature","properties":{"name":"Thaga La"},"geometry":{"coordinates":[79.10472,31.45056],"type":"Point"}},{"type":"Feature","properties":{"name":"Mana Pass"},"geometry":{"coordinates":[79.41627319146933,31.071351332122955],"type":"Point"}},{"type":"Feature","properties":{"name":"Tsang Chok La"},"geometry":{"coordinates":[79.2287314,31.3409991],"type":"Point"}},{"type":"Feature","properties":{"name":"Dhumdhar Kandi Pass"},"geometry":{"coordinates":[78.575356,31.0573181],"type":"Point"}},{"type":"Feature","properties":{"name":"Lamkhaga Pass"},"geometry":{"coordinates":[78.6530328,31.1980043],"type":"Point"}},{"type":"Feature","properties":{"name":"Khimloga Pass"},"geometry":{"coordinates":[78.37732,31.28416],"type":"Point"}},{"type":"Feature","properties":{"name":"Chhotkhaga pass"},"geometry":{"coordinates":[78.6715078,31.1951089],"type":"Point"}},{"type":"Feature","properties":{"name":"Devkir Ghati"},"geometry":{"coordinates":[78.4414251,31.2474744],"type":"Point"}},{"type":"Feature","properties":{"name":"Shinga Ghati"},"geometry":{"coordinates":[78.3161151,31.2810999],"type":"Point"}},{"type":"Feature","properties":{"name":"Kunigai pass"},"geometry":{"coordinates":[78.4038992,31.2463253],"type":"Point"}},{"type":"Feature","properties":{"name":"Chor-Khoti-Khura pass"},"geometry":{"coordinates":[79.9074466,30.8010589],"type":"Point"}},{"type":"Feature","properties":{"name":"Marchon La"},"geometry":{"coordinates":[79.9084713,30.8383977],"type":"Point"}},{"type":"Feature","properties":{"name":"Chor Hoti Pass"},"geometry":{"coordinates":[79.9151243,30.7993262],"type":"Point"}},{"type":"Feature","properties":{"name":"Rimkim Pass"},"geometry":{"coordinates":[79.9711488,30.8260673],"type":"Point"}},{"type":"Feature","properties":{"name":"Drongnyi La"},"geometry":{"coordinates":[79.4044112,31.1143404],"type":"Point"}},{"type":"Feature","properties":{"name":"Borasu Ghati"},"geometry":{"coordinates":[78.4591198,31.2363804],"type":"Point"}},{"type":"Feature","properties":{"name":"Mohand Pass"},"geometry":{"coordinates":[77.9606349,30.237345],"type":"Point"}},{"type":"Feature","properties":{"name":"Chaukhuliakhal"},"geometry":{"coordinates":[78.7798659,29.812763],"type":"Point"}},{"type":"Feature","properties":{"name":"Muling La"},"geometry":{"coordinates":[79.30058,31.21647],"type":"Point"}},{"type":"Feature","properties":{"name":"Diwali Khal"},"geometry":{"coordinates":[79.2833198,30.1000374],"type":"Point"},"id":152},{"type":"Feature","properties":{"name":"saddle"},"geometry":{"coordinates":[79.304923,31.198294],"type":"Point"}},{"type":"Feature","properties":{"name":"Not Available"},"geometry":{"coordinates":[79.826602,30.115501],"type":"Point"}},{"type":"Feature","properties":{"name":"Chechni Binayak"},"geometry":{"coordinates":[79.5427888,30.3285295],"type":"Point"}},{"type":"Feature","properties":{"name":"Not Available"},"geometry":{"coordinates":[79.772028,30.118364],"type":"Point"}},{"type":"Feature","properties":{"name":"Muneri Pass"},"geometry":{"coordinates":[78.7925775,30.610973],"type":"Point"},"id":158},{"type":"Feature","properties":{"name":"Kukin Khal"},"geometry":{"coordinates":[79.614873,30.227129],"type":"Point"}},{"type":"Feature","properties":{"name":"Kunwari Khal"},"geometry":{"coordinates":[79.5666281,30.4480504],"type":"Point"},"id":159},{"type":"Feature","properties":{"name":"Yembuk Col"},"geometry":{"coordinates":[79.13733,30.73487],"type":"Point"}},{"type":"Feature","properties":{"name":"Kankul Pass"},"geometry":{"coordinates":[79.67336,30.63315],"type":"Point"},"id":161},{"type":"Feature","properties":{"name":"Bamai Khal"},"geometry":{"coordinates":[79.65906,30.60958],"type":"Point"},"id":162},{"type":"Feature","properties":{"name":"Kunth Khal"},"geometry":{"coordinates":[79.55801,30.71181],"type":"Point"},"id":163},{"type":"Feature","properties":{"name":"Ali Khal"},"geometry":{"coordinates":[79.664695,30.1904065],"type":"Point"}},{"type":"Feature","properties":{"name":"Kalindi Pass"},"geometry":{"coordinates":[79.2821838,30.9177307],"type":"Point"}},{"type":"Feature","properties":{"name":"Buinder Khal"},"geometry":{"coordinates":[79.682765,30.7659185],"type":"Point"},"id":166},{"type":"Feature","properties":{"name":"Raunthi Saddle"},"geometry":{"coordinates":[79.7488298,30.3442448],"type":"Point"}},{"type":"Feature","properties":{"name":"Dhanransi Pass"},"geometry":{"coordinates":[79.7732575,30.4926296],"type":"Point"}},{"type":"Feature","properties":{"name":"Dasoli Khal"},"geometry":{"coordinates":[79.3461907,30.2530805],"type":"Point"}},{"type":"Feature","properties":{"name":"Kanari Khal"},"geometry":{"coordinates":[79.8632991,30.6170659],"type":"Point"},"id":170},{"type":"Feature","properties":{"name":"Tarak Khal"},"geometry":{"coordinates":[79.8193753,30.5303095],"type":"Point"},"id":171},{"type":"Feature","properties":{"name":"Nandi Kund Khal"},"geometry":{"coordinates":[79.8399441,30.5680748],"type":"Point"},"id":172},{"type":"Feature","properties":{"name":"Ajricha Pass"},"geometry":{"coordinates":[78.4284675,30.883268],"type":"Point"}},{"type":"Feature","properties":{"name":"Silpari Pass"},"geometry":{"coordinates":[78.4022999,30.8314104],"type":"Point"}},{"type":"Feature","properties":{"name":"Bamsaru Khal"},"geometry":{"coordinates":[79.4691539,30.6307669],"type":"Point"},"id":175},{"type":"Feature","properties":{"name":"Matpatta Khal"},"geometry":{"coordinates":[79.4430184,30.6277757],"type":"Point"},"id":176},{"type":"Feature","properties":{"name":"Kaldang Pass"},"geometry":{"coordinates":[79.4831314,30.6023002],"type":"Point"},"id":177},{"type":"Feature","properties":{"name":"Kamera Khal"},"geometry":{"coordinates":[78.865571,30.454371],"type":"Point"}},{"type":"Feature","properties":{"name":"Inora Khal"},"geometry":{"coordinates":[79.3178236,30.0817857],"type":"Point"},"id":179},{"type":"Feature","properties":{"name":"Dila Khal"},"geometry":{"coordinates":[79.4103008,30.0446158],"type":"Point"},"id":180},{"type":"Feature","properties":{"name":"Binol Lani"},"geometry":{"coordinates":[77.9754424,30.8439065],"type":"Point"}},{"type":"Feature","properties":{"name":"Jakha Lani"},"geometry":{"coordinates":[77.9850125,30.8649523],"type":"Point"}},{"type":"Feature","properties":{"name":"Karamba Lani"},"geometry":{"coordinates":[77.9444092,30.81314],"type":"Point"}},{"type":"Feature","properties":{"name":"Chauri Lani"},"geometry":{"coordinates":[77.9235657,30.7861302],"type":"Point"}},{"type":"Feature","properties":{"name":"Binayak Khal"},"geometry":{"coordinates":[79.4902168,30.1581284],"type":"Point"}},{"type":"Feature","properties":{"name":"Khaltol Khal"},"geometry":{"coordinates":[79.3529158,30.2047738],"type":"Point"}},{"type":"Feature","properties":{"name":"Anyar Khal"},"geometry":{"coordinates":[78.5831189,30.6181816],"type":"Point"},"id":188},{"type":"Feature","properties":{"name":"Kalla Khal"},"geometry":{"coordinates":[79.876722,30.6423388],"type":"Point"},"id":188},{"type":"Feature","properties":{"name":"Not Available"},"geometry":{"coordinates":[79.0563082,30.216281],"type":"Point"}},{"type":"Feature","properties":{"name":"Tikhani Khal"},"geometry":{"coordinates":[79.0955329,30.2027813],"type":"Point"}},{"type":"Feature","properties":{"name":"Ginon Khal"},"geometry":{"coordinates":[79.1401354,30.165629],"type":"Point"}},{"type":"Feature","properties":{"name":"Kaunkhala Khal"},"geometry":{"coordinates":[79.0956244,30.2136096],"type":"Point"}},{"type":"Feature","properties":{"name":"Molkha Khal"},"geometry":{"coordinates":[79.0291771,30.1940914],"type":"Point"}},{"type":"Feature","properties":{"name":"Chaurangi Khal"},"geometry":{"coordinates":[78.4881413,30.6446644],"type":"Point"},"id":194},{"type":"Feature","properties":{"name":"Gwari Khal"},"geometry":{"coordinates":[78.9739728,29.963924],"type":"Point"}},{"type":"Feature","properties":{"name":"Talkhani Khal"},"geometry":{"coordinates":[78.9541613,29.9181933],"type":"Point"}},{"type":"Feature","properties":{"name":"Diwa Khal"},"geometry":{"coordinates":[78.9859816,29.8996116],"type":"Point"}},{"type":"Feature","properties":{"name":"Gauria Khal"},"geometry":{"coordinates":[78.70287,30.37241],"type":"Point"}},{"type":"Feature","properties":{"name":"Murogi Khal"},"geometry":{"coordinates":[78.6792067,30.3377322],"type":"Point"}},{"type":"Feature","properties":{"name":"Ruddu Khal"},"geometry":{"coordinates":[78.6889088,30.3788406],"type":"Point"}},{"type":"Feature","properties":{"name":"Daint Khal"},"geometry":{"coordinates":[78.5340002,30.4639429],"type":"Point"}},{"type":"Feature","properties":{"name":"Ghari Khal"},"geometry":{"coordinates":[78.5357666,30.488326],"type":"Point"}},{"type":"Feature","properties":{"name":"Kermunda Khal"},"geometry":{"coordinates":[78.5522461,30.5219087],"type":"Point"}},{"type":"Feature","properties":{"name":"Konti Khal"},"geometry":{"coordinates":[78.5591125,30.4878082],"type":"Point"}},{"type":"Feature","properties":{"name":"Kushyar Khal"},"geometry":{"coordinates":[78.5283422,30.3481346],"type":"Point"}},{"type":"Feature","properties":{"name":"Nandakhil Pass"},"geometry":{"coordinates":[78.2935641,30.3451296],"type":"Point"}},{"type":"Feature","properties":{"name":"Balam Khal"},"geometry":{"coordinates":[79.2626023,30.1464261],"type":"Point"}},{"type":"Feature","properties":{"name":"Not Available"},"geometry":{"coordinates":[79.446517,30.7104922],"type":"Point"},"id":208},{"type":"Feature","properties":{"name":"Khajralaai Kharak"},"geometry":{"coordinates":[79.565401,30.3243853],"type":"Point"}},{"type":"Feature","properties":{"name":"Baigna Khal"},"geometry":{"coordinates":[79.5029222,30.3300249],"type":"Point"}},{"type":"Feature","properties":{"name":"Agichaura Khal"},"geometry":{"coordinates":[79.4373318,30.3352551],"type":"Point"}},{"type":"Feature","properties":{"name":"Chanchat Khal"},"geometry":{"coordinates":[79.5221512,30.4912776],"type":"Point"}},{"type":"Feature","properties":{"name":"Chain Khal"},"geometry":{"coordinates":[79.5579184,30.5823597],"type":"Point"}},{"type":"Feature","properties":{"name":"Surans Ka Dura"},"geometry":{"coordinates":[79.9252421,30.6872486],"type":"Point"},"id":214},{"type":"Feature","properties":{"name":"Diuli Binayak Khal"},"geometry":{"coordinates":[79.4818963,30.0283635],"type":"Point"},"id":215},{"type":"Feature","properties":{"name":"Ghandiyal Khal"},"geometry":{"coordinates":[79.2958066,30.098586],"type":"Point"},"id":216},{"type":"Feature","properties":{"name":"Kim Khal"},"geometry":{"coordinates":[79.3901009,30.2126125],"type":"Point"}},{"type":"Feature","properties":{"name":"Visal Khal"},"geometry":{"coordinates":[79.2174956,30.3419275],"type":"Point"}},{"type":"Feature","properties":{"name":"Chorka Khal"},"geometry":{"coordinates":[78.7933119,30.4777897],"type":"Point"}},{"type":"Feature","properties":{"name":"Tola Khal"},"geometry":{"coordinates":[78.7518291,30.3588684],"type":"Point"}},{"type":"Feature","properties":{"name":"Khatgar Khal"},"geometry":{"coordinates":[78.8420501,30.4668318],"type":"Point"}},{"type":"Feature","properties":{"name":"Pinad Khal"},"geometry":{"coordinates":[78.7977915,30.3444182],"type":"Point"},"id":222},{"type":"Feature","properties":{"name":"Rajbonga"},"geometry":{"coordinates":[78.8372473,30.3566687],"type":"Point"},"id":223},{"type":"Feature","properties":{"name":"Dalkuri"},"geometry":{"coordinates":[78.8551161,30.3473647],"type":"Point"}},{"type":"Feature","properties":{"name":"Pauri Khal"},"geometry":{"coordinates":[78.5545222,30.2726282],"type":"Point"}},{"type":"Feature","properties":{"name":"Kandi Khal"},"geometry":{"coordinates":[78.6275465,30.3454171],"type":"Point"}},{"type":"Feature","properties":{"name":"Raikhal"},"geometry":{"coordinates":[78.8255442,30.4137737],"type":"Point"}},{"type":"Feature","properties":{"name":"Gaddi Khal"},"geometry":{"coordinates":[78.7798874,30.3498474],"type":"Point"}},{"type":"Feature","properties":{"name":"Silkakhal"},"geometry":{"coordinates":[78.7848817,30.2766412],"type":"Point"}},{"type":"Feature","properties":{"name":"Saundakhal"},"geometry":{"coordinates":[78.9044251,30.337131],"type":"Point"}},{"type":"Feature","properties":{"name":"Dwarikhal"},"geometry":{"coordinates":[78.893894,30.3463545],"type":"Point"}},{"type":"Feature","properties":{"name":"Chirpatya Khal"},"geometry":{"coordinates":[78.8356956,30.3905355],"type":"Point"}},{"type":"Feature","properties":{"name":"Belakkhal"},"geometry":{"coordinates":[78.6064654,30.6873973],"type":"Point"},"id":234},{"type":"Feature","properties":{"name":"Manka Khal"},"geometry":{"coordinates":[78.5439304,30.5505308],"type":"Point"}},{"type":"Feature","properties":{"name":"Ai Khal"},"geometry":{"coordinates":[78.7140652,30.5456531],"type":"Point"}},{"type":"Feature","properties":{"name":"Kuparkhal"},"geometry":{"coordinates":[78.2740677,31.1185332],"type":"Point"}},{"type":"Feature","properties":{"name":"Gada Khal"},"geometry":{"coordinates":[78.449929,30.5308937],"type":"Point"}},{"type":"Feature","properties":{"name":"Juni Danda pass"},"geometry":{"coordinates":[78.3118419,30.7316417],"type":"Point"}},{"type":"Feature","properties":{"name":"Rikhnikhal"},"geometry":{"coordinates":[78.8736605,29.7727068],"type":"Point"}},{"type":"Feature","properties":{"name":"Deviyokhal"},"geometry":{"coordinates":[78.8477004,29.7823783],"type":"Point"}},{"type":"Feature","properties":{"name":"Kulankhal"},"geometry":{"coordinates":[78.8120825,29.8117434],"type":"Point"}},{"type":"Feature","properties":{"name":"Dhapkthal"},"geometry":{"coordinates":[78.817082,29.7996132],"type":"Point"}},{"type":"Feature","properties":{"name":"Not Available"},"geometry":{"coordinates":[78.8105757,29.8002944],"type":"Point"}},{"type":"Feature","properties":{"name":"Kandikhal"},"geometry":{"coordinates":[78.4085232,30.4345257],"type":"Point"}},{"type":"Feature","properties":{"name":"Diba Khal"},"geometry":{"coordinates":[79.0349561,29.7820801],"type":"Point"}},{"type":"Feature","properties":{"name":"Banelkhal"},"geometry":{"coordinates":[78.6831214,29.9992145],"type":"Point"}},{"type":"Feature","properties":{"name":"Kaljikhal"},"geometry":{"coordinates":[78.7327226,30.0502641],"type":"Point"}},{"type":"Feature","properties":{"name":"Parsundakhal"},"geometry":{"coordinates":[78.7750983,30.0796953],"type":"Point"}},{"type":"Feature","properties":{"name":"Buakhal"},"geometry":{"coordinates":[78.8019805,30.1169562],"type":"Point"}},{"type":"Feature","properties":{"name":"Khuratkhal"},"geometry":{"coordinates":[78.9639602,30.0706243],"type":"Point"}},{"type":"Feature","properties":{"name":"Chourikhal"},"geometry":{"coordinates":[78.997389,30.0196906],"type":"Point"}},{"type":"Feature","properties":{"name":"Panduwakhal"},"geometry":{"coordinates":[79.330585,29.9727131],"type":"Point"},"id":252},{"type":"Feature","properties":{"name":"Ganathkhal"},"geometry":{"coordinates":[79.1904635,29.9486947],"type":"Point"}},{"type":"Feature","properties":{"name":"Ufrainkhal"},"geometry":{"coordinates":[79.1207753,29.9261494],"type":"Point"}},{"type":"Feature","properties":{"name":"Chaukhal"},"geometry":{"coordinates":[79.0824302,29.9280034],"type":"Point"}},{"type":"Feature","properties":{"name":"Lam Khal"},"geometry":{"coordinates":[79.155098,29.7682087],"type":"Point"}},{"type":"Feature","properties":{"name":"Timli pass"},"geometry":{"coordinates":[77.709675,30.3442023],"type":"Point"}},{"type":"Feature","properties":{"name":"Khaironwala pass"},"geometry":{"coordinates":[77.7234556,30.3305159],"type":"Point"}},{"type":"Feature","properties":{"name":"Skhakumbhari pass"},"geometry":{"coordinates":[77.7658089,30.3153298],"type":"Point"}},{"type":"Feature","properties":{"name":"Kaluwala pass"},"geometry":{"coordinates":[77.8457634,30.2769957],"type":"Point"}},{"type":"Feature","properties":{"name":"Khajnaur Pass"},"geometry":{"coordinates":[77.8885922,30.2672259],"type":"Point"}},{"type":"Feature","properties":{"name":"Padma Lani"},"geometry":{"coordinates":[77.980009,30.8518156],"type":"Point"}},{"type":"Feature","properties":{"name":"Chakormara Lani"},"geometry":{"coordinates":[77.9819458,30.8578489],"type":"Point"}},{"type":"Feature","properties":{"name":"Sukar Khal"},"geometry":{"coordinates":[78.8839919,30.1690131],"type":"Point"}},{"type":"Feature","properties":{"name":"Ulka Garhi Khal"},"geometry":{"coordinates":[78.857279,30.167042],"type":"Point"}},{"type":"Feature","properties":{"name":"Datta Khal"},"geometry":{"coordinates":[78.8431898,30.2012794],"type":"Point"}},{"type":"Feature","properties":{"name":"Ghiri Khal"},"geometry":{"coordinates":[78.8387848,30.2020031],"type":"Point"}},{"type":"Feature","properties":{"name":"Chhanti Khal"},"geometry":{"coordinates":[78.8939546,30.2388591],"type":"Point"}},{"type":"Feature","properties":{"name":"Malai Kand"},"geometry":{"coordinates":[78.8074184,29.6778329],"type":"Point"}},{"type":"Feature","properties":{"name":"Jabalbazpur Ghati"},"geometry":{"coordinates":[78.8376792,29.6544427],"type":"Point"}},{"type":"Feature","properties":{"name":"Magnu Khal"},"geometry":{"coordinates":[78.8912949,29.6492187],"type":"Point"}},{"type":"Feature","properties":{"name":"Arni pass"},"geometry":{"coordinates":[78.9154096,29.6219412],"type":"Point"}},{"type":"Feature","properties":{"name":"Tairiya Khal"},"geometry":{"coordinates":[78.9301254,29.6302632],"type":"Point"}},{"type":"Feature","properties":{"name":"Damela pass"},"geometry":{"coordinates":[78.9413907,29.6731184],"type":"Point"}},{"type":"Feature","properties":{"name":"Tarak Gali"},"geometry":{"coordinates":[79.05727,29.78585],"type":"Point"}},{"type":"Feature","properties":{"name":"Gain Khal"},"geometry":{"coordinates":[79.0955439,29.8713877],"type":"Point"}},{"type":"Feature","properties":{"name":"Khalion"},"geometry":{"coordinates":[78.9405543,29.7642705],"type":"Point"}},{"type":"Feature","properties":{"name":"Kunj Khal"},"geometry":{"coordinates":[78.9063683,29.876684],"type":"Point"}},{"type":"Feature","properties":{"name":"Gunia Khal"},"geometry":{"coordinates":[78.9560833,29.8851684],"type":"Point"}},{"type":"Feature","properties":{"name":"Shaljai Khal"},"geometry":{"coordinates":[78.876913,29.9545773],"type":"Point"}},{"type":"Feature","properties":{"name":"Tuna Khal"},"geometry":{"coordinates":[78.8641951,30.0037695],"type":"Point"}},{"type":"Feature","properties":{"name":"Dande Khal"},"geometry":{"coordinates":[78.8992971,30.007379],"type":"Point"}},{"type":"Feature","properties":{"name":"Gangu Khal"},"geometry":{"coordinates":[78.9896093,30.0219894],"type":"Point"}},{"type":"Feature","properties":{"name":"Ghori Khal"},"geometry":{"coordinates":[78.7849134,30.0889473],"type":"Point"}},{"type":"Feature","properties":{"name":"Manda Khal"},"geometry":{"coordinates":[78.8233073,30.1213764],"type":"Point"}},{"type":"Feature","properties":{"name":"Gwar ki khal"},"geometry":{"coordinates":[78.8399846,30.1433843],"type":"Point"}},{"type":"Feature","properties":{"name":"Phari Khal"},"geometry":{"coordinates":[78.850243,30.1494305],"type":"Point"}},{"type":"Feature","properties":{"name":"Sungar Khal"},"geometry":{"coordinates":[79.732488,29.9533775],"type":"Point"},"id":288},{"type":"Feature","properties":{"name":"Kontria Chinna"},"geometry":{"coordinates":[79.6568486,29.8434579],"type":"Point"}},{"type":"Feature","properties":{"name":"Girechhina pass"},"geometry":{"coordinates":[79.7008302,29.8010361],"type":"Point"}},{"type":"Feature","properties":{"name":"Duni pass"},"geometry":{"coordinates":[79.6668756,29.3287058],"type":"Point"}},{"type":"Feature","properties":{"name":"Deoli Pass"},"geometry":{"coordinates":[79.6960481,29.3269403],"type":"Point"}},{"type":"Feature","properties":{"name":"Mura pass"},"geometry":{"coordinates":[79.7268489,29.3414751],"type":"Point"}},{"type":"Feature","properties":{"name":"Khutiya Khal"},"geometry":{"coordinates":[79.6829701,29.3724302],"type":"Point"}},{"type":"Feature","properties":{"name":"Chaunri Lekh pass"},"geometry":{"coordinates":[79.6926886,29.4092815],"type":"Point"}},{"type":"Feature","properties":{"name":"Paira Khan pass"},"geometry":{"coordinates":[79.6166893,29.4125381],"type":"Point"}},{"type":"Feature","properties":{"name":"Kutkutia Binaik Deota pass"},"geometry":{"coordinates":[79.5231899,29.4681749],"type":"Point"}},{"type":"Feature","properties":{"name":"Binayak Gali"},"geometry":{"coordinates":[79.4917207,29.4175601],"type":"Point"}},{"type":"Feature","properties":{"name":"Ghugua ki Gali"},"geometry":{"coordinates":[79.4179839,29.4417106],"type":"Point"}},{"type":"Feature","properties":{"name":"Dunia Khan"},"geometry":{"coordinates":[79.3851948,29.4397395],"type":"Point"}},{"type":"Feature","properties":{"name":"Kansrao"},"geometry":{"coordinates":[78.0668794,30.0768378],"type":"Point"}},{"type":"Feature","properties":{"name":"Deli Ghati"},"geometry":{"coordinates":[78.2738293,29.9238279],"type":"Point"}},{"type":"Feature","properties":{"name":"Khajri Khal"},"geometry":{"coordinates":[78.6175573,29.9069278],"type":"Point"}},{"type":"Feature","properties":{"name":"Chametha Khal"},"geometry":{"coordinates":[78.7249573,29.8159823],"type":"Point"}},{"type":"Feature","properties":{"name":"Basai Khand"},"geometry":{"coordinates":[78.6635906,29.755481],"type":"Point"}},{"type":"Feature","properties":{"name":"Laldarwaza pass"},"geometry":{"coordinates":[78.6078741,29.6732905],"type":"Point"}},{"type":"Feature","properties":{"name":"Kandikhal Sidh Pass"},"geometry":{"coordinates":[78.7095333,29.6374078],"type":"Point"}},{"type":"Feature","properties":{"name":"Hindolakhal"},"geometry":{"coordinates":[78.3113646,30.1830037],"type":"Point"}},{"type":"Feature","properties":{"name":"Agrakhal"},"geometry":{"coordinates":[78.3276445,30.2134561],"type":"Point"}},{"type":"Feature","properties":{"name":"Siralakhal"},"geometry":{"coordinates":[78.6161825,30.1227621],"type":"Point"}},{"type":"Feature","properties":{"name":"Jamnikhal"},"geometry":{"coordinates":[78.6101206,30.2716909],"type":"Point"}},{"type":"Feature","properties":{"name":"Hindolakhal"},"geometry":{"coordinates":[78.605402,30.231348],"type":"Point"}},{"type":"Feature","properties":{"name":"Ghinghari Khal"},"geometry":{"coordinates":[79.4651304,29.664215],"type":"Point"}},{"type":"Feature","properties":{"name":"Devkhal"},"geometry":{"coordinates":[79.2918195,30.3374424],"type":"Point"}},{"type":"Feature","properties":{"name":"Acharikhal"},"geometry":{"coordinates":[78.7150122,30.1680272],"type":"Point"}},{"type":"Feature","properties":{"name":"Lodhiyakhan Pass"},"geometry":{"coordinates":[79.4303545,29.5512559],"type":"Point"}},{"type":"Feature","properties":{"name":"Bhilang Pass"},"geometry":{"coordinates":[78.162576,30.3014431],"type":"Point"}},{"type":"Feature","properties":{"name":"Goli Khal"},"geometry":{"coordinates":[78.9780569,30.1815194],"type":"Point"}},{"type":"Feature","properties":{"name":"Saunp Khal"},"geometry":{"coordinates":[78.9576172,29.6693334],"type":"Point"}},{"type":"Feature","properties":{"name":"Timlikhal"},"geometry":{"coordinates":[78.9279139,29.8488818],"type":"Point"}},{"type":"Feature","properties":{"name":"Sattukhal"},"geometry":{"coordinates":[78.9941858,29.8581128],"type":"Point"}},{"type":"Feature","properties":{"name":"Bedikhal"},"geometry":{"coordinates":[79.0044446,29.8795302],"type":"Point"}},{"type":"Feature","properties":{"name":"Dingolikhal"},"geometry":{"coordinates":[79.0962768,29.7286966],"type":"Point"}},{"type":"Feature","properties":{"name":"Bunkhal"},"geometry":{"coordinates":[79.1556111,29.5815153],"type":"Point"}},{"type":"Feature","properties":{"name":"Adalikhal"},"geometry":{"coordinates":[79.0651654,29.7247653],"type":"Point"}},{"type":"Feature","properties":{"name":"Kinghorikhal"},"geometry":{"coordinates":[79.0900529,29.7498059],"type":"Point"}},{"type":"Feature","properties":{"name":"Chimtakhal"},"geometry":{"coordinates":[79.0827281,29.5852025],"type":"Point"}},{"type":"Feature","properties":{"name":"Haldukhal"},"geometry":{"coordinates":[78.9953385,29.6503392],"type":"Point"}},{"type":"Feature","properties":{"name":"Jaraskhal"},"geometry":{"coordinates":[78.8725083,29.9316457],"type":"Point"}},{"type":"Feature","properties":{"name":"Kharedikhal"},"geometry":{"coordinates":[79.0819321,29.6823034],"type":"Point"}},{"type":"Feature","properties":{"name":"Golikhal"},"geometry":{"coordinates":[79.1067988,29.6809322],"type":"Point"}},{"type":"Feature","properties":{"name":"Bironkhal"},"geometry":{"coordinates":[79.1027675,29.6542076],"type":"Point"}},{"type":"Feature","properties":{"name":"Simalkhal"},"geometry":{"coordinates":[78.8352062,29.963412],"type":"Point"}},{"type":"Feature","properties":{"name":"Rithakhal"},"geometry":{"coordinates":[78.8182925,29.9007416],"type":"Point"}},{"type":"Feature","properties":{"name":"Srikotkhal"},"geometry":{"coordinates":[78.7806001,29.9147497],"type":"Point"}},{"type":"Feature","properties":{"name":"Gaikhal"},"geometry":{"coordinates":[78.4269668,30.0286495],"type":"Point"}},{"type":"Feature","properties":{"name":"Tungkhal"},"geometry":{"coordinates":[78.4152247,30.0007817],"type":"Point"}},{"type":"Feature","properties":{"name":"Dwarikhal"},"geometry":{"coordinates":[78.6358682,29.929248],"type":"Point"}},{"type":"Feature","properties":{"name":"Kirthikhal"},"geometry":{"coordinates":[78.6618944,29.9155397],"type":"Point"}},{"type":"Feature","properties":{"name":"Paukhāl"},"geometry":{"coordinates":[78.6815011,29.871497],"type":"Point"}},{"type":"Feature","properties":{"name":"Gumkhal"},"geometry":{"coordinates":[78.6736805,29.8875545],"type":"Point"}},{"type":"Feature","properties":{"name":"Not Available"},"geometry":{"coordinates":[78.6796765,29.8598003],"type":"Point"}},{"type":"Feature","properties":{"name":"Parshulikhal"},"geometry":{"coordinates":[78.5931056,29.981696],"type":"Point"}},{"type":"Feature","properties":{"name":"Sediyakhal"},"geometry":{"coordinates":[78.9021716,29.9197375],"type":"Point"}},{"type":"Feature","properties":{"name":"Musthakhal"},"geometry":{"coordinates":[78.5959977,29.9612703],"type":"Point"}},{"type":"Feature","properties":{"name":"Kurikhal"},"geometry":{"coordinates":[78.5201469,29.8486562],"type":"Point"}},{"type":"Feature","properties":{"name":"Lithakhal"},"geometry":{"coordinates":[78.9053589,29.9297081],"type":"Point"}},{"type":"Feature","properties":{"name":"Not Available"},"geometry":{"coordinates":[78.6241303,29.8445983],"type":"Point"}},{"type":"Feature","properties":{"name":"Kandakhal"},"geometry":{"coordinates":[78.7283258,29.8755549],"type":"Point"}},{"type":"Feature","properties":{"name":"Oklakhal"},"geometry":{"coordinates":[78.4447655,30.4643882],"type":"Point"}},{"type":"Feature","properties":{"name":"Not Available"},"geometry":{"coordinates":[78.6981112,29.8373229],"type":"Point"}},{"type":"Feature","properties":{"name":"Nalkhakhal"},"geometry":{"coordinates":[78.390651,30.4207709],"type":"Point"}},{"type":"Feature","properties":{"name":"Suraikhal"},"geometry":{"coordinates":[79.3303908,29.7863624],"type":"Point"}},{"type":"Feature","properties":{"name":"Chaniya Khal"},"geometry":{"coordinates":[78.9955643,29.8960541],"type":"Point"}},{"type":"Feature","properties":{"name":"Dewalkhal"},"geometry":{"coordinates":[78.6440242,29.8633924],"type":"Point"}},{"type":"Feature","properties":{"name":"Brughakhal"},"geometry":{"coordinates":[78.4616886,29.9236785],"type":"Point"}},{"type":"Feature","properties":{"name":"Not Available"},"geometry":{"coordinates":[78.4169322,30.7899828],"type":"Point"}},{"type":"Feature","properties":{"name":"Not Available"},"geometry":{"coordinates":[79.3303097,30.2450273],"type":"Point"}},{"type":"Feature","properties":{"name":"Dani Khal"},"geometry":{"coordinates":[79.7061004,30.0855478],"type":"Point"},"id":359},{"type":"Feature","properties":{"name":"Not Available"},"geometry":{"coordinates":[79.2529709,30.3987633],"type":"Point"}},{"type":"Feature","properties":{"name":"Not Available"},"geometry":{"coordinates":[79.236658,30.4019377],"type":"Point"}},{"type":"Feature","properties":{"name":"Not Available"},"geometry":{"coordinates":[79.4337049,30.303011],"type":"Point"}},{"type":"Feature","properties":{"name":"Not Available"},"geometry":{"coordinates":[79.2325475,30.4517926],"type":"Point"}},{"type":"Feature","properties":{"name":"Kunjakot"},"geometry":{"coordinates":[79.3538993,30.2563548],"type":"Point"}},{"type":"Feature","properties":{"name":"Not Available"},"geometry":{"coordinates":[79.2661257,30.1423005],"type":"Point"}},{"type":"Feature","properties":{"name":"Not Available"},"geometry":{"coordinates":[79.3312882,30.1438064],"type":"Point"}},{"type":"Feature","properties":{"name":"Not Available"},"geometry":{"coordinates":[79.688301,30.5686168],"type":"Point"}},{"type":"Feature","properties":{"name":"Not Available"},"geometry":{"coordinates":[79.6694183,30.6028643],"type":"Point"},"id":368},{"type":"Feature","properties":{"name":"Not Available"},"geometry":{"coordinates":[79.6844816,30.6059301],"type":"Point"},"id":369},{"type":"Feature","properties":{"name":"Not Available"},"geometry":{"coordinates":[79.0635311,30.0576498],"type":"Point"}},{"type":"Feature","properties":{"name":"Not Available"},"geometry":{"coordinates":[79.0773249,30.1878222],"type":"Point"}},{"type":"Feature","properties":{"name":"Saunbhana"},"geometry":{"coordinates":[79.4081367,30.2132468],"type":"Point"}},{"type":"Feature","properties":{"name":"Not Available"},"geometry":{"coordinates":[78.5720944,29.8493449],"type":"Point"}},{"type":"Feature","properties":{"name":"Not Available"},"geometry":{"coordinates":[79.3102362,30.2414061],"type":"Point"}},{"type":"Feature","properties":{"name":"Not Available"},"geometry":{"coordinates":[79.0960429,30.2459437],"type":"Point"}},{"type":"Feature","properties":{"name":"Binot Binak"},"geometry":{"coordinates":[79.3993555,30.3650407],"type":"Point"}},{"type":"Feature","properties":{"name":"Not Available"},"geometry":{"coordinates":[79.1591888,30.2192928],"type":"Point"}},{"type":"Feature","properties":{"name":"Not Available"},"geometry":{"coordinates":[78.8726645,30.363914],"type":"Point"}},{"type":"Feature","properties":{"name":"Not Available"},"geometry":{"coordinates":[78.9494308,30.2928186],"type":"Point"}},{"type":"Feature","properties":{"name":"Not Available"},"geometry":{"coordinates":[78.9159519,30.3319416],"type":"Point"}},{"type":"Feature","properties":{"name":"Not Available"},"geometry":{"coordinates":[78.930703,30.313131],"type":"Point"}},{"type":"Feature","properties":{"name":"Not Available"},"geometry":{"coordinates":[78.8175213,30.3484927],"type":"Point"},"id":382},{"type":"Feature","properties":{"name":"Not Available"},"geometry":{"coordinates":[78.3811051,30.6299288],"type":"Point"}},{"type":"Feature","properties":{"name":"Not Available"},"geometry":{"coordinates":[78.1488596,30.4589448],"type":"Point"}},{"type":"Feature","properties":{"name":"Not Available"},"geometry":{"coordinates":[78.5531558,30.575657],"type":"Point"}},{"type":"Feature","properties":{"name":"Not Available"},"geometry":{"coordinates":[78.3706568,30.8042212],"type":"Point"}},{"type":"Feature","properties":{"name":"Not Available"},"geometry":{"coordinates":[78.7400716,30.4156266],"type":"Point"}},{"type":"Feature","properties":{"name":"Not Available"},"geometry":{"coordinates":[78.4115138,30.70427],"type":"Point"}},{"type":"Feature","properties":{"name":"Not Available"},"geometry":{"coordinates":[78.678342,30.4849734],"type":"Point"}},{"type":"Feature","properties":{"name":"Badri ki Chani"},"geometry":{"coordinates":[78.5696917,30.6773836],"type":"Point"},"id":390},{"type":"Feature","properties":{"name":"Not Available"},"geometry":{"coordinates":[78.424053,30.7748022],"type":"Point"}},{"type":"Feature","properties":{"name":"Not Available"},"geometry":{"coordinates":[79.5809854,30.1407151],"type":"Point"}},{"type":"Feature","properties":{"name":"Binaykl Khal"},"geometry":{"coordinates":[79.4455979,30.1819269],"type":"Point"}},{"type":"Feature","properties":{"name":"Not Available"},"geometry":{"coordinates":[79.5911696,30.1878217],"type":"Point"}},{"type":"Feature","properties":{"name":"Not Available"},"geometry":{"coordinates":[79.6189657,30.1284461],"type":"Point"}},{"type":"Feature","properties":{"name":"Not Available"},"geometry":{"coordinates":[79.7034996,30.1074154],"type":"Point"},"id":396},{"type":"Feature","properties":{"name":"Not Available"},"geometry":{"coordinates":[78.3157149,30.7053088],"type":"Point"}},{"type":"Feature","properties":{"name":"Not Available"},"geometry":{"coordinates":[78.150676,30.4537963],"type":"Point"}},{"type":"Feature","properties":{"name":"Not Available"},"geometry":{"coordinates":[79.3099343,30.2482634],"type":"Point"}},{"type":"Feature","properties":{"name":"Not Available"},"geometry":{"coordinates":[79.0565122,30.2689526],"type":"Point"}},{"type":"Feature","properties":{"name":"Not Available"},"geometry":{"coordinates":[79.1496887,30.1119749],"type":"Point"},"id":401},{"type":"Feature","properties":{"name":"Kaudyabagar"},"geometry":{"coordinates":[79.1995867,30.0619361],"type":"Point"},"id":402},{"type":"Feature","properties":{"name":"Not Available"},"geometry":{"coordinates":[78.6035637,30.6326533],"type":"Point"},"id":404},{"type":"Feature","properties":{"name":"Gimme Khal"},"geometry":{"coordinates":[79.3851685,30.6523485],"type":"Point"},"id":404},{"type":"Feature","properties":{"name":"Panjola Binayak"},"geometry":{"coordinates":[79.4531679,30.393126],"type":"Point"}},{"type":"Feature","properties":{"name":"Delasera Pass"},"geometry":{"coordinates":[79.6182847,30.4204227],"type":"Point"},"id":406},{"type":"Feature","properties":{"name":"Junra Gali"},"geometry":{"coordinates":[79.7319889,30.2632744],"type":"Point"}},{"type":"Feature","properties":{"name":"Not Available"},"geometry":{"coordinates":[79.2032987,30.2155857],"type":"Point"}},{"type":"Feature","properties":{"name":"Sukhatal Khata"},"geometry":{"coordinates":[79.4955682,29.8930806],"type":"Point"}},{"type":"Feature","properties":{"name":"Diuliyon Khal"},"geometry":{"coordinates":[78.8538337,29.7826114],"type":"Point"}},{"type":"Feature","properties":{"name":"Kathela Khal"},"geometry":{"coordinates":[78.9210177,30.2485577],"type":"Point"}},{"type":"Feature","properties":{"name":"Hulakikhal"},"geometry":{"coordinates":[78.8469451,30.1776011],"type":"Point"}},{"type":"Feature","properties":{"name":"Pithundikhal"},"geometry":{"coordinates":[78.9591833,30.1777442],"type":"Point"}},{"type":"Feature","properties":{"name":"Dabru Khal"},"geometry":{"coordinates":[78.9899067,30.1806641],"type":"Point"}},{"type":"Feature","properties":{"name":"Sankurana Khal"},"geometry":{"coordinates":[78.4520564,30.6813582],"type":"Point"}},{"type":"Feature","properties":{"name":"Not Available"},"geometry":{"coordinates":[78.3401055,30.1061161],"type":"Point"}},{"type":"Feature","properties":{"name":"Not Available"},"geometry":{"coordinates":[79.3764912,30.2409947],"type":"Point"}},{"type":"Feature","properties":{"name":"Not Available"},"geometry":{"coordinates":[78.516183,30.6535482],"type":"Point"},"id":418},{"type":"Feature","properties":{"name":"Mayali Pass"},"geometry":{"coordinates":[78.99744222127708,30.741563402298354],"type":"Point"},"id":420},{"type":"Feature","properties":{"name":"Gupt Khal"},"geometry":{"coordinates":[79.58904213328674,30.860106004850607],"type":"Point"},"id":420}]}