{"type":"FeatureCollection","features":[{"type":"Feature","properties":{"name":"Kedarnath WLS"},"geometry":{"coordinates":[[[78.9580672,30.7337935],[78.9556364,30.7330304],[78.9524567,30.7328719],[78.9522363,30.7322165],[78.951638,30.7306562],[78.9499321,30.728687],[78.9490592,30.7264657],[78.9481426,30.7239338],[78.9465076,30.7224461],[78.9436494,30.721153],[78.9340346,30.7210663],[78.9267239,30.7190997],[78.9175848,30.6953493],[78.9083302,30.6667186],[78.9085668,30.6335247],[78.9093089,30.6294677],[78.9092997,30.6287938],[78.9132903,30.6244631],[78.9424236,30.5928413],[78.9476745,30.6009211],[78.9555795,30.6055601],[78.9640832,30.6079311],[78.9705509,30.6145282],[78.9759406,30.6172082],[78.9869596,30.6188574],[78.9915109,30.6238047],[78.986241,30.6327712],[78.9789349,30.6424581],[78.9800129,30.6452403],[78.987186,30.6428442],[78.9870965,30.6423429],[78.9871968,30.641942],[78.9879548,30.6417337],[78.9884376,30.6413275],[78.9896393,30.6412721],[78.9900362,30.641189],[78.9899397,30.6408106],[78.9893877,30.6399993],[78.9892094,30.6390151],[78.9897319,30.638352],[78.990214,30.6383094],[78.9909112,30.6391087],[78.9924271,30.6402289],[78.9938685,30.641333],[78.9956075,30.641213],[78.9966583,30.6420131],[78.9979231,30.6416531],[78.9988073,30.641303],[78.999145,30.6410321],[78.9992512,30.6407441],[78.999079,30.6402175],[78.9985894,30.6399235],[78.9979756,30.6396106],[78.9977894,30.6392064],[78.9978932,30.6386783],[78.9984155,30.6379767],[78.9984146,30.637543],[78.9977013,30.6372666],[78.9974509,30.6371053],[78.9974509,30.6367532],[78.9976888,30.6360792],[78.9979863,30.6357519],[78.9991555,30.6355355],[79.0000893,30.6352639],[79.0003637,30.6351329],[79.0004714,30.6348282],[78.9999129,30.6339911],[79.0002877,30.6333178],[79.0002811,30.63295],[78.9999326,30.6324125],[78.9995315,30.631428],[78.9989185,30.6306829],[78.9989906,30.6300376],[78.9999129,30.6295324],[79.0009011,30.6295128],[79.0014977,30.6291137],[79.001768,30.6287346],[79.001787,30.6281801],[79.0010326,30.6272167],[79.0007809,30.6267146],[79.000919,30.6262166],[79.0014109,30.6259042],[79.0023393,30.6255489],[79.0037645,30.6254554],[79.0049676,30.6258176],[79.0051257,30.6265928],[79.0050354,30.6268787],[79.0049236,30.6271446],[79.0049021,30.6280527],[79.0051669,30.6282933],[79.0054957,30.628352],[79.0061138,30.6283216],[79.0066907,30.628064],[79.0074255,30.6271658],[79.0081011,30.6268405],[79.0087687,30.6264004],[79.0101363,30.6261219],[79.0106456,30.6258872],[79.0105573,30.6255403],[79.0100838,30.6249292],[79.0101306,30.6242623],[79.0113201,30.6236503],[79.0115586,30.6231151],[79.0115831,30.6218509],[79.0120189,30.6211602],[79.0142117,30.6197543],[79.0152804,30.6185011],[79.0165888,30.6174388],[79.0192659,30.6160487],[79.0195202,30.6155187],[79.020104,30.6143016],[79.0209453,30.6137737],[79.0209999,30.6120988],[79.021781,30.6108342],[79.0225622,30.6104501],[79.0244934,30.6075466],[79.0257581,30.6046972],[79.0269534,30.6029884],[79.0276924,30.6016876],[79.0293478,30.6009992],[79.0298802,30.6006491],[79.0294593,30.5995264],[79.0297,30.5988513],[79.0303521,30.5978935],[79.0303665,30.5971213],[79.0298871,30.5962125],[79.0301549,30.5954121],[79.0325096,30.5947396],[79.033189,30.5942017],[79.0331791,30.5936509],[79.0325332,30.5928028],[79.0324466,30.5917587],[79.0325352,30.5915359],[79.0326045,30.5913615],[79.0331503,30.5909484],[79.0338833,30.5909838],[79.0343703,30.5911014],[79.0346458,30.5911679],[79.0357081,30.5912415],[79.0361695,30.5909644],[79.0361541,30.5905216],[79.0355855,30.5897042],[79.0356814,30.5892742],[79.0381114,30.5882121],[79.0396564,30.587621],[79.040858,30.5851088],[79.0441196,30.5842222],[79.0446598,30.583409],[79.0439233,30.5821862],[79.0442912,30.5817099],[79.0452384,30.5814502],[79.0487544,30.5817099],[79.0499702,30.581891],[79.0512914,30.5813916],[79.0516069,30.5805941],[79.0518313,30.5802337],[79.0527508,30.5801217],[79.0544192,30.5805276],[79.0558847,30.5808823],[79.0567403,30.5817469],[79.0575091,30.5821532],[79.0592258,30.5820054],[79.0600137,30.5812586],[79.0599858,30.5802338],[79.0600841,30.5799364],[79.0608878,30.5794012],[79.0629151,30.579233],[79.0638106,30.5787485],[79.0638938,30.578335],[79.0628736,30.5778027],[79.0625846,30.5775215],[79.0624452,30.5769396],[79.0629509,30.5765424],[79.0649424,30.5762227],[79.0662317,30.5750686],[79.066278,30.5747347],[79.0659997,30.5744717],[79.0649424,30.5731001],[79.0647304,30.5725612],[79.06505,30.5720541],[79.0657887,30.571811],[79.066562,30.571272],[79.0672115,30.5705699],[79.0671337,30.5697437],[79.0673904,30.5692675],[79.0679276,30.5691063],[79.0685606,30.5697622],[79.069612,30.5695405],[79.0703515,30.5689626],[79.0703837,30.5685562],[79.0672938,30.5651566],[79.0670693,30.5643396],[79.0679812,30.5635174],[79.0693967,30.5632813],[79.0697837,30.5627136],[79.0695155,30.5621778],[79.0687966,30.5615773],[79.0687108,30.5611246],[79.0693538,30.5604266],[79.0694404,30.5597666],[79.0688074,30.5592215],[79.0675735,30.5587318],[79.0675514,30.5582832],[79.0700404,30.5570268],[79.0719294,30.5565145],[79.0741603,30.5567311],[79.0761452,30.5575534],[79.0764745,30.5610556],[79.0749175,30.5716779],[79.071442,30.5771445],[79.0624647,30.5928927],[79.0639892,30.5966836],[79.0716114,30.598579],[79.0773704,30.5912888],[79.0783867,30.5812276],[79.0800805,30.5682485],[79.08296,30.5628521],[79.1000677,30.5573097],[79.1085368,30.5573097],[79.1224262,30.5737903],[79.1295403,30.574957],[79.1376706,30.5679568],[79.1349605,30.5578931],[79.128524,30.5444732],[79.1197161,30.5382003],[79.1039635,30.5287171],[79.0976963,30.5186493],[79.0992208,30.5055159],[79.1065042,30.5023053],[79.1181916,30.5033269],[79.1219767,30.5056467],[79.1346217,30.5133962],[79.1483417,30.5164606],[79.160876,30.5141258],[79.1788306,30.5042025],[79.1800163,30.5001161],[79.1735797,30.4970512],[79.1707002,30.4931105],[79.1779837,30.4897535],[79.1839121,30.483185],[79.1925506,30.4865423],[79.1944138,30.4936943],[79.1976321,30.4960296],[79.202036,30.4931105],[79.204238,30.4856665],[79.207795,30.4839149],[79.2166029,30.4789518],[79.2225313,30.4731126],[79.2291372,30.4696089],[79.2420103,30.4643531],[79.2479387,30.4697549],[79.2552222,30.4699009],[79.2597955,30.4682949],[79.2674177,30.4653751],[79.2743624,30.4687329],[79.2807989,30.4738425],[79.29147,30.4719447],[79.2933332,30.4685869],[79.2870661,30.4582209],[79.285711,30.4557388],[79.2887599,30.443473],[79.2935026,30.4402603],[79.3072564,30.4411899],[79.3184626,30.4456906],[79.3316177,30.4524561],[79.3428382,30.4523577],[79.3533781,30.444717],[79.3628401,30.4444072],[79.3740986,30.4409996],[79.3889503,30.4297435],[79.3998495,30.429537],[79.4114673,30.4365593],[79.412665,30.4416192],[79.406916,30.4468853],[79.4045206,30.4592752],[79.4075149,30.4660889],[79.4142221,30.4753796],[79.4153,30.4848758],[79.4058381,30.4958159],[79.4015263,30.4998408],[79.3822431,30.4971576],[79.3737393,30.499944],[79.376494,30.5060325],[79.3799674,30.5080963],[79.3999693,30.5096442],[79.4154198,30.5072708],[79.4180548,30.5019047],[79.4272772,30.4900364],[79.4367391,30.4880754],[79.4378171,30.5072708],[79.4284749,30.5127398],[79.4267981,30.5283195],[79.4178152,30.5372947],[79.3911062,30.5470944],[79.3882316,30.5597808],[79.3900282,30.5747343],[79.3981727,30.5923661],[79.3929027,30.6023663],[79.3826024,30.614324],[79.3689563,30.6164783],[79.3497929,30.6113244],[79.3479683,30.6108673],[79.3463666,30.6121694],[79.3457979,30.6151842],[79.3464591,30.6173496],[79.3471792,30.6192716],[79.3462301,30.6220266],[79.3452178,30.6244456],[79.3491093,30.6242277],[79.3541226,30.6253637],[79.3539272,30.6268141],[79.3548707,30.6292266],[79.3552759,30.6304588],[79.3559822,30.6346328],[79.3546354,30.6386988],[79.356316,30.641717],[79.3563852,30.6472734],[79.3539192,30.6469639],[79.3510338,30.6475662],[79.3484924,30.6500051],[79.3458485,30.6534088],[79.3423326,30.6552258],[79.3379163,30.6562828],[79.334968,30.6562238],[79.3324623,30.6575353],[79.3294991,30.6597376],[79.3295741,30.6640924],[79.3288294,30.6677348],[79.328905,30.6720224],[79.3254722,30.6707569],[79.3230541,30.669676],[79.3209796,30.6691921],[79.3186711,30.6689146],[79.3171925,30.6693228],[79.316037,30.6708389],[79.3139227,30.6720903],[79.3124131,30.6721153],[79.3099988,30.6726601],[79.3084615,30.6737519],[79.3063926,30.6746541],[79.3058454,30.676972],[79.3046806,30.6788589],[79.3052857,30.6818363],[79.3050122,30.6855506],[79.3052806,30.6873724],[79.304693,30.6891622],[79.3032323,30.691431],[79.2999791,30.6947854],[79.3005029,30.6966485],[79.2997357,30.6992549],[79.3001167,30.7016177],[79.2998529,30.7036887],[79.3013733,30.7056745],[79.3035666,30.7078507],[79.3036806,30.7091626],[79.3019183,30.7110915],[79.2996812,30.7124998],[79.2976852,30.7144302],[79.2976681,30.7163996],[79.2964263,30.7189519],[79.2948213,30.7200768],[79.2928482,30.7203575],[79.2860789,30.7218789],[79.2743668,30.723856],[79.2704259,30.724144],[79.267936,30.7243506],[79.2649687,30.7231933],[79.2618995,30.7229516],[79.2583418,30.7229],[79.2563251,30.7229605],[79.2553377,30.7240511],[79.2538207,30.7263518],[79.2529466,30.7273288],[79.2524881,30.728471],[79.2507305,30.7295284],[79.2489586,30.7310177],[79.2470378,30.7321975],[79.2451805,30.7329432],[79.2437482,30.7329228],[79.2406992,30.7328463],[79.2363178,30.7335379],[79.2318535,30.7340455],[79.2279423,30.734899],[79.2245076,30.7357326],[79.2192399,30.7367004],[79.2154148,30.7369672],[79.2097322,30.7377605],[79.2081069,30.7378317],[79.2061225,30.7367899],[79.2036099,30.7344691],[79.2021175,30.7335796],[79.1996532,30.7329027],[79.1986744,30.7345481],[79.1979961,30.736463],[79.1970574,30.7392558],[79.1962491,30.7403494],[79.1942107,30.7412797],[79.1920869,30.7423026],[79.1904172,30.7441707],[79.1887274,30.7462714],[79.1864176,30.7478519],[79.1837715,30.7493005],[79.1813217,30.7510929],[79.1797938,30.7510965],[79.1768288,30.75126],[79.1749562,30.751509],[79.1737263,30.7521463],[79.1718171,30.7528929],[79.1704897,30.7546876],[79.1690517,30.7557529],[79.1674628,30.7556895],[79.1643671,30.7553988],[79.1617371,30.7554431],[79.160086,30.7548887],[79.1581899,30.7536595],[79.1564961,30.7529513],[79.154554,30.7523754],[79.1525945,30.7521396],[79.1504174,30.7516312],[79.1479455,30.7502621],[79.1460204,30.7488207],[79.1429667,30.747863],[79.1410677,30.7488125],[79.1389853,30.7506471],[79.1377653,30.751304],[79.1364742,30.7520043],[79.1352746,30.7537233],[79.1327368,30.7558239],[79.1314742,30.757244],[79.1311138,30.7588502],[79.1221143,30.7520637],[79.1150849,30.7514814],[79.1009415,30.7472599],[79.0997558,30.744494],[79.0962835,30.7321192],[79.0954365,30.7164664],[79.0894235,30.7082386],[79.0840879,30.7079473],[79.0701138,30.7102774],[79.0629998,30.7091852],[79.0557163,30.7123162],[79.050042,30.7186507],[79.0517358,30.7234559],[79.050042,30.7265136],[79.0425892,30.7291344],[79.0331037,30.7369965],[79.0207388,30.7419464],[79.0070188,30.7380156],[78.9990578,30.7319008],[78.9897418,30.7317552],[78.9788051,30.732459],[78.9580672,30.7337935]]],"type":"Polygon"},"id":0},{"type":"Feature","properties":{"name":"Rajaji National Park"},"geometry":{"coordinates":[[[[78.354578,30.1013076],[78.3559728,30.1079161],[78.3557797,30.1119998],[78.3576041,30.1148276],[78.3574748,30.1206678],[78.3569383,30.1222825],[78.3564145,30.1240016],[78.3509517,30.1256975],[78.3458266,30.1254776],[78.3406305,30.1251222],[78.3386564,30.1261429],[78.3387208,30.1316178],[78.3368325,30.1319147],[78.3328199,30.131228],[78.3328736,30.1264028],[78.3315551,30.1235474],[78.3285062,30.1199048],[78.3233249,30.118654],[78.3210448,30.1158505],[78.315407,30.1141437],[78.3142269,30.1080089],[78.3095705,30.1027277],[78.3048586,30.1003716],[78.2999164,30.0928318],[78.2957297,30.0873044],[78.29349,30.0822775],[78.2930657,30.0780113],[78.2914281,30.0745534],[78.2934022,30.0717123],[78.2931474,30.0695753],[78.2907843,30.0644328],[78.2906398,30.0595621],[78.2919431,30.0469933],[78.2918572,30.043557],[78.2898292,30.0398764],[78.2874262,30.0376129],[78.2820116,30.0346835],[78.2765893,30.0195037],[78.2637262,30.0200944],[78.259263,30.0136658],[78.2527498,30.0063712],[78.24862,29.9989863],[78.2466888,29.9943775],[78.2374482,29.9825699],[78.2278975,29.9742386],[78.2212829,29.9684682],[78.2041167,29.9619991],[78.1942072,29.9566063],[78.1904255,29.9539421],[78.1856772,29.9497798],[78.1812429,29.9445229],[78.1911563,29.9402092],[78.1982649,29.9357828],[78.2411751,29.9185199],[78.2621911,29.9271236],[78.2791328,29.9252212],[78.2707643,29.9088546],[78.2686559,29.8951846],[78.3062318,29.8742755],[78.3295154,29.8568729],[78.3375835,29.8613391],[78.352003,29.8610414],[78.3577537,29.8525554],[78.3618735,29.8506943],[78.3676242,29.8547142],[78.373804,29.8591805],[78.3809533,29.8635611],[78.3926561,29.874957],[78.37038,29.9067591],[78.362865,29.9350078],[78.3470248,29.954191],[78.3298525,29.9714425],[78.3141517,29.9846763],[78.3196448,29.9902519],[78.3174991,29.9990978],[78.324424,30.0082799],[78.3346651,30.0211309],[78.3387069,30.0313728],[78.3430767,30.0509681],[78.3380556,30.0609229],[78.3340644,30.0692426],[78.3348914,30.0795133],[78.337439,30.0981931],[78.3425616,30.1029598],[78.354578,30.1013076]]],[[[77.8673379,30.1521524],[77.9298492,30.1014532],[77.9335784,30.0750362],[77.9514385,30.0558978],[77.9619176,30.046337],[77.9700994,30.0536426],[77.9746914,30.050708],[77.9662101,30.0424204],[77.9924027,30.0185924],[77.9979944,30.0158211],[78.0023227,30.0039458],[78.0202628,30.0075568],[78.0312692,30.0052821],[78.0349691,30.0026132],[78.031168,30.0004729],[78.0335927,29.9967377],[78.0380773,29.9947492],[78.0431238,29.9967306],[78.046832,29.9937457],[78.0501365,29.9884305],[78.0597496,29.9830778],[78.0862885,29.9655873],[78.1132142,29.9502398],[78.1168443,29.9487639],[78.1362428,29.9408766],[78.1472256,29.9539234],[78.1480349,29.9539234],[78.1484682,29.9539234],[78.1550199,29.9539234],[78.1612199,29.9554582],[78.1645856,29.9637457],[78.1636999,29.9692704],[78.1684828,29.972186],[78.1788396,29.9848621],[78.1815862,29.9915899],[78.1846281,29.9943044],[78.1872725,30.0004264],[78.1876051,30.0050348],[78.1863313,30.0086302],[78.1901693,30.0120307],[78.1980872,30.0090763],[78.2037735,30.0149664],[78.2024216,30.021172],[78.2057174,30.0252702],[78.2037735,30.0287333],[78.2056403,30.0338977],[78.208869,30.0386642],[78.2098245,30.0405664],[78.2068954,30.044629],[78.2101468,30.0523808],[78.1995249,30.0586014],[78.1946271,30.063223],[78.1879592,30.0667541],[78.1795692,30.067367],[78.1740117,30.0708581],[78.1654072,30.0708395],[78.1539377,30.0772317],[78.1315469,30.0945315],[78.114662,30.1123357],[78.0642736,30.1660421],[78.0690309,30.1768848],[78.0466475,30.2081904],[78.0332386,30.220592],[78.0309319,30.2222421],[78.030889,30.2242168],[78.0236578,30.233635],[78.0198383,30.2425334],[78.0177354,30.2495773],[78.0121135,30.2518016],[78.0024456,30.2579859],[77.9982948,30.253062],[77.9923296,30.2590302],[77.9969215,30.2641455],[77.9923296,30.266666],[77.9853773,30.261106],[77.9816007,30.2598827],[77.980957,30.2694088],[77.9762363,30.271262],[77.9706573,30.273597],[77.9620965,30.2748551],[77.9331064,30.2475383],[77.9068517,30.213517],[77.9003646,30.1854834],[77.8673379,30.1521524]]]],"type":"MultiPolygon"}},{"type":"Feature","properties":{"name":"Govind Pashu Vihar National Park"},"geometry":{"coordinates":[[[78.4701919,31.2240321],[78.463497,31.2339403],[78.4487341,31.2402517],[78.4324263,31.2546524],[78.4265898,31.2452417],[78.4109686,31.2405452],[78.4025572,31.2480302],[78.4066771,31.2543406],[78.4027289,31.2613843],[78.3855627,31.2713619],[78.3749197,31.2905805],[78.3574103,31.2813385],[78.3399008,31.2825121],[78.333721,31.2789911],[78.3196448,31.2794313],[78.31295,31.2706283],[78.3098602,31.2635485],[78.3062552,31.260944],[78.2968138,31.2596234],[78.2825659,31.2656396],[78.2652281,31.2467094],[78.2448004,31.2298304],[78.2214544,31.2327661],[78.2144163,31.220876],[78.1977759,31.2166279],[78.1980228,31.2126547],[78.1969928,31.2068554],[78.1950187,31.2028177],[78.1890964,31.2009089],[78.1855773,31.1985596],[78.1850623,31.1964305],[78.1872081,31.1932734],[78.1856631,31.1876197],[78.1845473,31.1846826],[78.1733035,31.1805706],[78.1668662,31.1810846],[78.1596564,31.1747693],[78.1582831,31.1564086],[78.1419752,31.1345178],[78.1236075,31.1177658],[78.1031798,31.0932203],[78.0990599,31.0810186],[78.0957553,31.066371],[78.0962856,31.062056],[78.096765,31.0581551],[78.0968283,31.05764],[78.0997847,31.0569685],[78.1190323,31.0525963],[78.1194876,31.0524929],[78.1197692,31.0527572],[78.1268612,31.0594112],[78.137512,31.0694035],[78.1377104,31.0691224],[78.1716834,31.0209706],[78.1744838,31.0238851],[78.176651,31.0254481],[78.178153,31.0274707],[78.1804704,31.0315894],[78.1825304,31.0334832],[78.1910704,31.0385211],[78.194332,31.0529341],[78.1951903,31.0616103],[78.1965208,31.0649922],[78.197422,31.0677492],[78.2006834,31.0838119],[78.2197378,31.0943962],[78.2499502,31.099688],[78.2662581,31.1117403],[78.2731245,31.1176189],[78.3057402,31.1408358],[78.3309744,31.1493571],[78.3424757,31.1534705],[78.3574103,31.1615499],[78.3850477,31.177413],[78.4075354,31.189896],[78.42144,31.2073694],[78.4370611,31.2233716],[78.4444426,31.2308579],[78.4542273,31.2277754],[78.4701919,31.2240321]]],"type":"Polygon"}},{"type":"Feature","properties":{"name":"Corbett National Park"},"geometry":{"coordinates":[[[78.6708436,29.5374778],[78.6979313,29.5153364],[78.7627778,29.497477],[78.7770796,29.494541],[78.7861347,29.4906188],[78.797915,29.4798599],[78.829824,29.4648646],[78.8954913,29.4506845],[78.938999,29.4446804],[78.9441629,29.4441787],[78.9733317,29.4413449],[79.0081785,29.4422886],[79.0301512,29.4557419],[79.0775297,29.428983],[79.0878781,29.4379571],[79.0752124,29.4664285],[79.0688609,29.4923558],[79.0541435,29.5101361],[79.0481221,29.5403639],[79.0065454,29.5557892],[79.0061121,29.5559762],[78.9991664,29.5589742],[78.9975786,29.5620352],[79.0000248,29.5658426],[79.00496,29.5704338],[79.0074491,29.5729346],[79.0078353,29.5796155],[79.00702,29.5854376],[78.9981794,29.5922669],[78.9902226,29.594671],[78.985691,29.610924],[78.9732885,29.623702],[78.9591693,29.6330841],[78.9494355,29.6333568],[78.9351368,29.6361055],[78.9261245,29.6369261],[78.9141371,29.6448425],[78.8773726,29.6579245],[78.8424322,29.6672855],[78.7935757,29.6777839],[78.7673088,29.6882811],[78.7541753,29.6750453],[78.7447193,29.6526773],[78.7368392,29.6440027],[78.7378899,29.6298477],[78.7468206,29.6097534],[78.7594287,29.5983344],[78.756802,29.5887414],[78.7405165,29.584173],[78.7252817,29.5914823],[78.7016415,29.5800613],[78.6848307,29.5617848],[78.6708436,29.5374778]]],"type":"Polygon"}},{"type":"Feature","properties":{"name":"Askot Musk Deer WLS"},"geometry":{"coordinates":[[[[80.4002881,29.8463765],[80.4013395,29.8451667],[80.401876,29.8445153],[80.4034853,29.8435661],[80.4052233,29.8431566],[80.4062104,29.8436405],[80.4083347,29.8461159],[80.4105878,29.8474001],[80.41121,29.8480887],[80.4118752,29.849559],[80.4121113,29.8513084],[80.4135275,29.855291],[80.4139352,29.8592735],[80.4145789,29.861339],[80.4191065,29.8622323],[80.4206514,29.8611344],[80.4228186,29.8584174],[80.422883,29.8565006],[80.420587,29.8528903],[80.4202652,29.8521087],[80.4202008,29.8510665],[80.4208231,29.8497451],[80.4222822,29.8462462],[80.4221964,29.84405],[80.4240632,29.8416118],[80.4255223,29.8405322],[80.4280758,29.8404392],[80.4291916,29.8392107],[80.43123,29.8374983],[80.4336118,29.8360279],[80.4353928,29.8343713],[80.4365086,29.8375914],[80.4380321,29.8415373],[80.438075,29.8468604],[80.4393625,29.8482562],[80.4418087,29.8487401],[80.4433751,29.8496893],[80.447216,29.8522389],[80.4481602,29.8528717],[80.4518938,29.8537464],[80.4533744,29.8533928],[80.4535031,29.8506384],[80.4571509,29.8499684],[80.4599833,29.8487215],[80.4635238,29.8502662],[80.4642963,29.8506198],[80.4651546,29.8513828],[80.4676437,29.8564262],[80.4692316,29.8598131],[80.4703259,29.860483],[80.473566,29.8628463],[80.4764199,29.8666796],[80.477128,29.8690428],[80.476613,29.8724293],[80.4758405,29.8746249],[80.4739523,29.877639],[80.4747247,29.8816578],[80.4797458,29.8902902],[80.4807329,29.8943084],[80.4838657,29.8986985],[80.4901743,29.9043533],[80.4939508,29.9061018],[80.4979419,29.9077759],[80.4996585,29.9149181],[80.5091429,29.9259837],[80.5116105,29.9271553],[80.5137348,29.930391],[80.5130052,29.9315253],[80.5127048,29.934575],[80.5129623,29.9351328],[80.5134558,29.9356535],[80.5148506,29.9363601],[80.5168462,29.9365832],[80.5172968,29.9369737],[80.517683,29.9377175],[80.5194211,29.9391307],[80.5209231,29.9398931],[80.5251503,29.9408971],[80.5299353,29.9412318],[80.53442,29.9416781],[80.5425095,29.9429982],[80.552938,29.9440395],[80.5598259,29.9457686],[80.5631304,29.9460289],[80.5702543,29.945341],[80.5722713,29.9495058],[80.5700826,29.9549346],[80.5691814,29.9614413],[80.5663919,29.9639324],[80.561285,29.9654939],[80.5587959,29.9666464],[80.5542039,29.969063],[80.5534315,29.9695091],[80.5517578,29.9747881],[80.5509853,29.9778365],[80.5503845,29.9806245],[80.5516076,29.9838352],[80.5514144,29.9873526],[80.5493545,29.9899544],[80.5505132,29.9904005],[80.5516076,29.9913483],[80.5520582,29.9928536],[80.5505132,29.994935],[80.5505347,29.9974067],[80.5511999,29.9996366],[80.5540752,30.0027028],[80.5568862,30.0065307],[80.5613279,30.0103956],[80.5632591,30.012551],[80.5674219,30.0170474],[80.571413,30.0229555],[80.5742883,30.0252221],[80.5782365,30.0236244],[80.5770778,30.0193512],[80.5771207,30.0174933],[80.5774211,30.0153009],[80.5785369,30.013703],[80.5807685,30.0117706],[80.5814552,30.0094666],[80.5783224,30.0080915],[80.579009,30.007274],[80.5807685,30.006605],[80.5842876,30.0045982],[80.5873775,30.0027771],[80.5908107,30.0011047],[80.5950594,30.0001384],[80.6064319,29.9983544],[80.6143283,29.9986146],[80.6205725,29.9986285],[80.6196069,30.0026285],[80.6213235,30.0087233],[80.6245851,30.0115848],[80.6272459,30.0122537],[80.6305933,30.0134057],[80.633254,30.0151151],[80.6360864,30.0160441],[80.639348,30.0162299],[80.6410217,30.0159326],[80.6422233,30.0143347],[80.6418371,30.0109902],[80.6424808,30.0091693],[80.6432533,30.0036691],[80.6407642,30.0031116],[80.6389617,30.0025913],[80.6374597,30.0005844],[80.6377601,29.9990235],[80.6456565,29.9980571],[80.6614494,30.0067908],[80.6642389,30.0082774],[80.6663847,30.0106929],[80.6729507,30.0117706],[80.6758689,30.0113618],[80.677371,30.0060847],[80.6779718,30.0051185],[80.6805896,30.0056016],[80.6858682,30.0081659],[80.6907177,30.0060476],[80.6932497,30.0067165],[80.7003307,30.0075713],[80.7125401,30.0033903],[80.7132697,30.0048212],[80.7145357,30.0064378],[80.7153725,30.0083331],[80.7182264,30.0081844],[80.7196212,30.0066979],[80.7205653,30.0050627],[80.7209515,30.0027585],[80.7224536,30.0029072],[80.7282471,30.0032974],[80.7313585,30.0029258],[80.7355642,30.0021825],[80.7378816,30.0024426],[80.745542,30.0055644],[80.7475376,30.0080544],[80.7489645,30.0098474],[80.7502091,30.0120214],[80.7519257,30.0156446],[80.7531595,30.0186823],[80.7546615,30.02172],[80.7558739,30.0230763],[80.7571185,30.0239495],[80.7573652,30.0273864],[80.7565606,30.0284082],[80.7547903,30.030944],[80.7550049,30.0323558],[80.7553911,30.0339163],[80.7555306,30.0352909],[80.7554018,30.0365355],[80.7552838,30.0383188],[80.7551551,30.0392197],[80.7556593,30.0400649],[80.7570219,30.0412909],[80.758127,30.0423032],[80.7586312,30.0435106],[80.7578802,30.0447272],[80.7585668,30.0456281],[80.7591569,30.0467332],[80.7602513,30.0487671],[80.7608628,30.0497701],[80.7638132,30.0512931],[80.7662701,30.0523982],[80.7693386,30.0535404],[80.7721817,30.0543576],[80.7756042,30.0547755],[80.777235,30.0556763],[80.7794881,30.0573478],[80.7804751,30.0592143],[80.7822025,30.06109],[80.7836294,30.0628543],[80.7844019,30.0645164],[80.7861829,30.0671905],[80.7878244,30.0686297],[80.7885647,30.0702639],[80.7885003,30.071573],[80.7891333,30.07304],[80.7896805,30.0738013],[80.7912362,30.0736481],[80.792191,30.0746973],[80.7935482,30.0762246],[80.7942617,30.0775058],[80.7953131,30.078476],[80.796445,30.0795436],[80.7965523,30.0800311],[80.7969707,30.0804256],[80.7974803,30.0805742],[80.7981402,30.0806577],[80.7990092,30.0810801],[80.7992828,30.0818368],[80.8004683,30.0837399],[80.8008814,30.0848911],[80.8012837,30.0856059],[80.8020294,30.0863811],[80.8032417,30.0876111],[80.8045667,30.088869],[80.8048618,30.0894538],[80.8054948,30.0899876],[80.8061653,30.0901593],[80.8078819,30.0905492],[80.8086115,30.0907674],[80.809266,30.0911294],[80.810827,30.0923222],[80.8112186,30.0926425],[80.8121467,30.0928003],[80.8131391,30.0929372],[80.8135521,30.093044],[80.8137801,30.0933201],[80.8139116,30.0940117],[80.8137774,30.094875],[80.8143461,30.0958775],[80.8146334,30.0960277],[80.8154853,30.0964732],[80.8158106,30.0966433],[80.8167118,30.0971863],[80.8178115,30.0970842],[80.8182192,30.0969914],[80.8201932,30.1065982],[80.8190774,30.1100879],[80.8180904,30.1117585],[80.8171033,30.1164731],[80.8170175,30.1189232],[80.8183908,30.1246025],[80.8194637,30.1296877],[80.8226394,30.1350695],[80.8245277,30.1402655],[80.8260297,30.1454612],[80.8218241,30.1458138],[80.820601,30.1464075],[80.8189273,30.1472982],[80.8173823,30.1479105],[80.8156013,30.1480775],[80.8144212,30.1478177],[80.8121037,30.147558],[80.8055484,30.1489032],[80.7921695,30.1567053],[80.786848,30.1579298],[80.7776212,30.1603788],[80.7738876,30.1565568],[80.7688236,30.1535511],[80.7651329,30.1522152],[80.7612705,30.1522152],[80.7520008,30.1554065],[80.7460355,30.1558518],[80.7401561,30.1562971],[80.7369804,30.1557776],[80.7329893,30.1549612],[80.7294273,30.1540706],[80.7268524,30.1499145],[80.72402,30.1465374],[80.7215309,30.1426778],[80.7205438,30.1400057],[80.720458,30.1380387],[80.7207155,30.1360345],[80.7207155,30.1341417],[80.7172823,30.1309868],[80.7140636,30.1297619],[80.7109308,30.1285742],[80.7077121,30.1266441],[80.7053947,30.1246768],[80.7039356,30.1241942],[80.7014036,30.1239715],[80.689516,30.1209648],[80.6858682,30.1206678],[80.6779288,30.1177353],[80.6688308,30.1144686],[80.6523513,30.1066725],[80.6423521,30.0981703],[80.6353998,30.0909298],[80.6296491,30.0838746],[80.6284904,30.0811266],[80.6271171,30.0734764],[80.6244564,30.0695397],[80.6206369,30.0662713],[80.6164741,30.06304],[80.6137834,30.0618866],[80.6114959,30.0607743],[80.6091356,30.0605515],[80.606389,30.0611086],[80.6031274,30.0639314],[80.6007671,30.0648228],[80.5983638,30.0654542],[80.5918407,30.0648971],[80.5858326,30.0620372],[80.5826139,30.0631143],[80.5777216,30.0637829],[80.5740121,30.06382],[80.5694389,30.06382],[80.5676364,30.06512],[80.5642461,30.0671627],[80.5613065,30.0690011],[80.5618429,30.0708767],[80.5630016,30.0730307],[80.564096,30.0747948],[80.5648255,30.0765402],[80.5666709,30.0789541],[80.5672288,30.0807924],[80.5672717,30.0825191],[80.5676579,30.0840788],[80.5691385,30.0865853],[80.5707264,30.0892217],[80.5726576,30.0921923],[80.5739879,30.0941231],[80.5744815,30.096388],[80.5754685,30.098523],[80.5748462,30.1096425],[80.5707263,30.1154337],[80.5654906,30.1213732],[80.5599975,30.1261987],[80.5568217,30.1280546],[80.554161,30.1325828],[80.5524444,30.1336963],[80.5425738,30.1411934],[80.5388831,30.1453499],[80.5346774,30.1465375],[80.5304717,30.1452757],[80.5275535,30.1429748],[80.5254077,30.1409707],[80.5167818,30.1381129],[80.5106449,30.1364057],[80.5079412,30.1360716],[80.5044221,30.1358861],[80.5003881,30.1368139],[80.4962682,30.1383356],[80.4904747,30.1408964],[80.4812479,30.1458323],[80.4791879,30.1455354],[80.4760766,30.1418985],[80.4725575,30.1367954],[80.4704118,30.1335478],[80.4697466,30.1325642],[80.4703474,30.1316178],[80.4724073,30.1285371],[80.4745531,30.1264956],[80.4757976,30.1235632],[80.4764413,30.1218186],[80.4784154,30.1203709],[80.4799175,30.1202224],[80.4851532,30.1194429],[80.486226,30.1170671],[80.4868358,30.1145497],[80.4878976,30.1129614],[80.4898309,30.1089742],[80.4885864,30.1057814],[80.4874277,30.1016974],[80.4875564,30.0988757],[80.4867839,30.0954969],[80.4895305,30.0926007],[80.4898738,30.09041],[80.488286,30.0881078],[80.4861402,30.0852114],[80.4823207,30.0813123],[80.4816341,30.074702],[80.4755401,30.0693911],[80.4733085,30.0669399],[80.472579,30.0656028],[80.4724073,30.0632257],[80.4732656,30.0617029],[80.4736518,30.05992],[80.4742956,30.0583971],[80.4749393,30.0569114],[80.4772138,30.0518596],[80.4776001,30.0485907],[80.4783082,30.0460832],[80.4765057,30.0440771],[80.4761624,30.0425726],[80.4762482,30.0413095],[80.4779863,30.0388761],[80.4805183,30.0363684],[80.4809904,30.0327274],[80.4793596,30.0292349],[80.4779005,30.0277115],[80.4769992,30.0268941],[80.4741668,30.0252964],[80.472536,30.0240702],[80.4718923,30.0227697],[80.4716777,30.0214692],[80.472064,30.0201687],[80.472579,30.0181993],[80.4721498,30.0141489],[80.4729223,30.0108415],[80.4711628,30.0092807],[80.4730939,30.0060476],[80.4753685,30.0027771],[80.4761838,30.0002499],[80.4764413,29.9974624],[80.475111,29.9951952],[80.4733944,29.9937085],[80.4715919,29.9902147],[80.4708194,29.987873],[80.4703044,29.9860144],[80.4691886,29.9842302],[80.4675579,29.9836726],[80.465455,29.9830779],[80.4633951,29.9820742],[80.4609918,29.980736],[80.4591465,29.9789517],[80.4566145,29.9748997],[80.4536962,29.9730409],[80.4515075,29.9729665],[80.4470872,29.9725204],[80.4451561,29.971368],[80.4439973,29.9701039],[80.4402637,29.9673528],[80.4381179,29.9654567],[80.4370451,29.9642298],[80.4351139,29.9601028],[80.4331827,29.9587271],[80.4280757,29.9570168],[80.4256296,29.9581322],[80.4212093,29.9593592],[80.4183769,29.9602144],[80.4161453,29.9604003],[80.4138279,29.9592105],[80.4116392,29.9579092],[80.409193,29.9566078],[80.4070472,29.9542653],[80.4047727,29.9526292],[80.4029703,29.9513278],[80.4009103,29.9498776],[80.3975629,29.9476093],[80.3951597,29.9457872],[80.3930997,29.9446345],[80.3912973,29.9439651],[80.388422,29.9429982],[80.3844523,29.9409715],[80.3809869,29.9389075],[80.3736806,29.9419384],[80.371964,29.943054],[80.3692603,29.9462892],[80.367372,29.9481113],[80.366857,29.9490409],[80.3655481,29.9500449],[80.3639173,29.9512534],[80.3623724,29.9523875],[80.3602266,29.9529081],[80.3593254,29.9533171],[80.356493,29.9546185],[80.3540468,29.9557898],[80.3507209,29.9567565],[80.3489613,29.957779],[80.3481245,29.9583739],[80.3470087,29.9597682],[80.3463864,29.9640253],[80.3454852,29.9660701],[80.3418588,29.9698437],[80.3340053,29.9730781],[80.3284263,29.9727435],[80.3239631,29.9729294],[80.3180408,29.9717769],[80.3143072,29.9703642],[80.3137922,29.9674643],[80.3135776,29.9650106],[80.3115392,29.9637836],[80.3104019,29.9617945],[80.308299,29.959824],[80.3069901,29.958504],[80.3057456,29.9573328],[80.3056168,29.9563289],[80.3057027,29.9531312],[80.3058743,29.9511791],[80.3085136,29.9494314],[80.3136205,29.9500635],[80.3180408,29.9497661],[80.323019,29.9487621],[80.3256368,29.9473119],[80.3275251,29.9460847],[80.3332758,29.9434817],[80.3380394,29.9402464],[80.3438329,29.9379779],[80.3484249,29.9356721],[80.3507423,29.9332919],[80.351901,29.9319531],[80.3529739,29.929424],[80.353446,29.9258907],[80.353446,29.9231755],[80.3537464,29.9191585],[80.3507423,29.91927],[80.3480601,29.9181169],[80.3467726,29.9175776],[80.3454208,29.9171684],[80.3444123,29.9168894],[80.3434467,29.9167965],[80.3418803,29.9168708],[80.340389,29.9182099],[80.337975,29.920079],[80.3364193,29.9211949],[80.3349602,29.921976],[80.3338015,29.9230453],[80.3320312,29.9241705],[80.3293598,29.9248864],[80.3271711,29.9250352],[80.3252613,29.9250538],[80.3241348,29.9248771],[80.3217422,29.9252956],[80.3199291,29.9255187],[80.3200578,29.9293496],[80.3134489,29.9318601],[80.3055739,29.9291079],[80.3069043,29.9257233],[80.3094792,29.9225804],[80.3158092,29.9214924],[80.3209054,29.9205626],[80.3242206,29.9217063],[80.3268385,29.9210368],[80.3284049,29.9202371],[80.3284478,29.9189353],[80.3291988,29.9182657],[80.3299498,29.9180611],[80.3331041,29.9157177],[80.335443,29.9138393],[80.3374386,29.9119979],[80.3393698,29.910417],[80.3432107,29.9084082],[80.3468585,29.9062692],[80.3489613,29.9049857],[80.3550124,29.901805],[80.3566003,29.9006145],[80.3590679,29.8978242],[80.3591752,29.8937503],[80.3600764,29.8927644],[80.3607845,29.89189],[80.3611493,29.8911087],[80.3610205,29.8900855],[80.3609562,29.88936],[80.3614497,29.8888019],[80.3617072,29.8880763],[80.3609562,29.886495],[80.3587675,29.8859182],[80.3598833,29.884802],[80.360012,29.8828113],[80.361557,29.8814531],[80.362544,29.8807833],[80.3668785,29.87816],[80.3658271,29.8765599],[80.363574,29.8752761],[80.3623724,29.8746062],[80.3606772,29.8741969],[80.3617286,29.8715734],[80.3617286,29.8702709],[80.3615355,29.8697313],[80.3603768,29.8688939],[80.3590464,29.8688381],[80.3581881,29.8692661],[80.3564071,29.8702895],[80.3537035,29.8720944],[80.352695,29.8732294],[80.3525233,29.8736201],[80.3535104,29.8749039],[80.3549266,29.8755552],[80.355742,29.8763366],[80.3557849,29.8770995],[80.3554201,29.8778995],[80.354712,29.8788298],[80.354712,29.8808392],[80.3529954,29.8822531],[80.3514504,29.882309],[80.3488326,29.8812671],[80.3435219,29.8809787],[80.342642,29.8825415],[80.3439725,29.8856206],[80.3440475,29.8866996],[80.3427171,29.8878159],[80.3413439,29.8881507],[80.3380394,29.8882251],[80.3366661,29.8891181],[80.3360653,29.8918342],[80.3362798,29.8946804],[80.3355717,29.8967453],[80.333941,29.9004099],[80.3315162,29.902921],[80.3294134,29.9048555],[80.3279543,29.9070318],[80.3267741,29.9083896],[80.3251004,29.9090034],[80.3227186,29.9088732],[80.3212166,29.9086128],[80.3204226,29.908185],[80.3181696,29.9065296],[80.3175258,29.9052647],[80.3184271,29.9039813],[80.3184056,29.901991],[80.3184914,29.9008563],[80.3191781,29.89961],[80.3198862,29.8987915],[80.3209162,29.8959268],[80.3225255,29.8926899],[80.3234482,29.890904],[80.3244781,29.8900483],[80.3256798,29.8900483],[80.3281259,29.8880577],[80.3308296,29.8861973],[80.3340912,29.8846718],[80.3350782,29.8821043],[80.3350782,29.8799275],[80.3340697,29.8794252],[80.335443,29.8784205],[80.3352713,29.8773972],[80.3353143,29.8767273],[80.3356576,29.8755179],[80.3361511,29.874569],[80.3363228,29.8735271],[80.3371382,29.8728944],[80.3388119,29.8729875],[80.3418374,29.8726153],[80.342288,29.871257],[80.3428244,29.869601],[80.3448844,29.8700848],[80.3467083,29.8693963],[80.3472447,29.8686706],[80.346837,29.8674053],[80.3488111,29.8646886],[80.3505492,29.8615996],[80.3508711,29.8600923],[80.3511929,29.8593107],[80.3515148,29.8584733],[80.3523302,29.8575614],[80.3535104,29.8577847],[80.3551626,29.8581383],[80.3569865,29.8577103],[80.3602052,29.8568914],[80.3627372,29.8552352],[80.3631019,29.8532811],[80.3641104,29.8514201],[80.3649044,29.8503593],[80.3657198,29.8489634],[80.3668356,29.8484795],[80.3684664,29.8486843],[80.3695178,29.8483493],[80.369668,29.8475304],[80.3699469,29.8469906],[80.3704834,29.846544],[80.3713631,29.8461717],[80.371921,29.8458181],[80.3728652,29.8455948],[80.3745818,29.8455948],[80.3759551,29.8463206],[80.3771138,29.8470837],[80.3780365,29.8481259],[80.3787446,29.8489076],[80.3799462,29.8497823],[80.3812337,29.8504337],[80.3825855,29.851569],[80.3857398,29.851569],[80.3891086,29.8502476],[80.3904819,29.8499126],[80.3926062,29.8505268],[80.3942585,29.8505826],[80.3970694,29.8503593],[80.3988075,29.8507501],[80.4002881,29.8503779],[80.401833,29.8498195],[80.401833,29.8480887],[80.4004383,29.8474373],[80.4002881,29.8463765]]],[[[80.2989435,29.9326597],[80.2989435,29.9333849],[80.297699,29.9339613],[80.2960467,29.9330874],[80.2937293,29.9324365],[80.2925706,29.9319716],[80.2916693,29.9316183],[80.2906394,29.9299633],[80.2891373,29.9288103],[80.2882361,29.9281409],[80.2873778,29.9281409],[80.2863049,29.9281781],[80.2854037,29.9283082],[80.2846741,29.9287917],[80.284009,29.9294798],[80.2830648,29.9300749],[80.2821636,29.9301678],[80.281949,29.9296658],[80.2822709,29.9290335],[80.2831936,29.9285314],[80.283966,29.9278247],[80.2845883,29.9269879],[80.2853393,29.9261324],[80.286026,29.9256117],[80.2864551,29.9255187],[80.287292,29.9257977],[80.29006,29.9258535],[80.2907681,29.9247935],[80.290811,29.9241798],[80.2895236,29.9233429],[80.2877641,29.9206835],[80.2852535,29.9187121],[80.283494,29.9163873],[80.2825069,29.9152342],[80.2820992,29.91436],[80.2762842,29.9148808],[80.2749538,29.9165175],[80.2726364,29.9177078],[80.2691602,29.9204603],[80.2661132,29.9228408],[80.2640855,29.9241333],[80.2621651,29.9252863],[80.2616823,29.925807],[80.260942,29.9262068],[80.2598905,29.9262626],[80.2593326,29.9262161],[80.2582383,29.925714],[80.2574658,29.9251096],[80.2561033,29.924282],[80.2551162,29.9240496],[80.2543867,29.9241426],[80.2535713,29.9240403],[80.2530455,29.9238264],[80.2522945,29.9232499],[80.2519834,29.9227664],[80.251683,29.9217528],[80.2517581,29.92126],[80.251919,29.9205998],[80.2526379,29.920265],[80.2535176,29.920172],[80.2551591,29.9199302],[80.2559209,29.9194002],[80.2561676,29.9191212],[80.2569723,29.9171126],[80.2577448,29.9169731],[80.2584636,29.9171033],[80.2594614,29.9170196],[80.259794,29.9166012],[80.2599335,29.9158944],[80.2596974,29.9152342],[80.2598798,29.913737],[80.2600729,29.9118119],[80.2601051,29.9106681],[80.260309,29.9097567],[80.2604055,29.9089569],[80.2602875,29.9084733],[80.2599227,29.9077293],[80.2595204,29.9071852],[80.2589357,29.9073526],[80.258528,29.9077432],[80.2575195,29.9081106],[80.2566826,29.9085895],[80.2565271,29.9089848],[80.2560979,29.9091615],[80.2558029,29.9094963],[80.2554434,29.909766],[80.254907,29.9094637],[80.2544564,29.9093661],[80.2540326,29.9093428],[80.2534854,29.9093661],[80.2529865,29.9095567],[80.2526647,29.9097567],[80.2519727,29.9103705],[80.2516884,29.9102821],[80.2515274,29.9099427],[80.2513987,29.9096916],[80.2513236,29.9094126],[80.2513879,29.909115],[80.2512914,29.9087895],[80.2511734,29.908543],[80.2510607,29.908278],[80.2513236,29.9080408],[80.2517903,29.9077804],[80.2525681,29.9076409],[80.2532548,29.9074131],[80.2537161,29.9071899],[80.2538824,29.9067016],[80.2534908,29.9063808],[80.2531958,29.9061901],[80.2531046,29.9059344],[80.2533406,29.90566],[80.253582,29.905288],[80.2536839,29.9049764],[80.2540326,29.9040975],[80.2545208,29.9037348],[80.254966,29.903493],[80.2554971,29.9032791],[80.2557331,29.9031024],[80.2558511,29.9028745],[80.2559423,29.9024002],[80.2520799,29.9019352],[80.2467155,29.9043533],[80.2450418,29.9023816],[80.2459001,29.9010051],[80.2478313,29.8997402],[80.2501916,29.8988474],[80.2531528,29.8983265],[80.255084,29.8980661],[80.2580452,29.8978056],[80.2599763,29.8974336],[80.261693,29.8970988],[80.2627873,29.8943456],[80.2665853,29.8929318],[80.2694606,29.8905134],[80.2703619,29.8864206],[80.2749109,29.8844857],[80.2747392,29.8821415],[80.2742242,29.878867],[80.2745246,29.8747737],[80.27534,29.8729875],[80.2791595,29.8691545],[80.2811336,29.8649119],[80.2815628,29.8595526],[80.2815628,29.8546397],[80.2816057,29.8528903],[80.2813482,29.8512898],[80.2805328,29.8499871],[80.2802324,29.8485354],[80.2810049,29.8472698],[80.2817773,29.8467859],[80.2850389,29.8471582],[80.2861976,29.8447759],[80.2850389,29.8421329],[80.2830219,29.8415746],[80.2810049,29.8408301],[80.2797603,29.8396388],[80.2792882,29.8382987],[80.2782583,29.836698],[80.277872,29.8356556],[80.2780008,29.8338315],[80.2790308,29.8327146],[80.2807903,29.831635],[80.2847385,29.8319701],[80.288515,29.8312255],[80.2915191,29.8302948],[80.2927637,29.8295129],[80.2935361,29.8265718],[80.2918195,29.8240401],[80.2908325,29.8228114],[80.2914762,29.8222902],[80.2931928,29.822104],[80.2952957,29.8216572],[80.2959931,29.8212663],[80.2995014,29.8209498],[80.301218,29.818902],[80.3026771,29.816761],[80.3034925,29.8164445],[80.3043937,29.8151972],[80.3043508,29.814136],[80.304265,29.8131679],[80.3037286,29.8111385],[80.3030634,29.8097421],[80.3023767,29.8077127],[80.304265,29.8065769],[80.3056383,29.8065769],[80.3066468,29.8070983],[80.3079772,29.8076568],[80.3095007,29.8076382],[80.3112817,29.8075638],[80.314393,29.8052178],[80.3149509,29.8038772],[80.3145218,29.8029089],[80.3154015,29.8023876],[80.3173542,29.8037096],[80.3188133,29.804473],[80.3195214,29.8048267],[80.3201437,29.8049943],[80.3208732,29.8049571],[80.3213024,29.8055901],[80.3222573,29.8074241],[80.3229868,29.8087181],[80.3238022,29.8091277],[80.324682,29.8092953],[80.3255939,29.808895],[80.3264522,29.808504],[80.3364301,29.8060184],[80.3368163,29.8067073],[80.3365803,29.8080292],[80.336709,29.8086064],[80.3388548,29.8108034],[80.3426742,29.8082526],[80.3443265,29.8088112],[80.3475236,29.8052736],[80.3508281,29.8035234],[80.3528881,29.8014008],[80.3540039,29.8002463],[80.3562784,29.8021083],[80.3579521,29.8026669],[80.3604841,29.8037468],[80.3618574,29.8047895],[80.3633339,29.8053377],[80.3637886,29.8079548],[80.3626728,29.8091836],[80.3614497,29.8095932],[80.3607416,29.810431],[80.361278,29.8115667],[80.3614282,29.8121066],[80.3611064,29.8127583],[80.3604197,29.8141546],[80.3599691,29.815402],[80.3596043,29.8162584],[80.3595614,29.8170961],[80.3597116,29.8176546],[80.3611278,29.8199631],[80.361042,29.8203913],[80.3588319,29.8218247],[80.3564715,29.8238539],[80.3540683,29.8272791],[80.3538537,29.8297549],[80.3534674,29.8302203],[80.3519654,29.8309463],[80.350399,29.8311324],[80.349369,29.8315791],[80.348618,29.8323609],[80.3470945,29.8325471],[80.3456139,29.8322679],[80.3446269,29.8321376],[80.3432536,29.8321376],[80.3423309,29.8322679],[80.3417086,29.8326588],[80.3411507,29.8335522],[80.3413653,29.8339431],[80.3418159,29.8341851],[80.3419232,29.8358604],[80.3421378,29.8371819],[80.3412795,29.8392666],[80.3431892,29.8401786],[80.3457856,29.8405881],[80.3487682,29.8426541],[80.3497552,29.8464137],[80.3492832,29.8484795],[80.3491115,29.8496893],[80.3489399,29.8521831],[80.3487682,29.8541186],[80.3481245,29.8549002],[80.3472233,29.8549002],[80.3456998,29.8574125],[80.3436827,29.8585849],[80.340507,29.8608366],[80.3373313,29.862437],[80.3349066,29.863386],[80.3315592,29.8652654],[80.3299498,29.8663819],[80.3285765,29.8668657],[80.3286409,29.8677217],[80.3289413,29.8682427],[80.3281903,29.8699359],[80.3266239,29.8707174],[80.3235769,29.8725781],[80.3220749,29.8741411],[80.3212166,29.875611],[80.3210664,29.8766343],[80.3202081,29.8773785],[80.3192854,29.8783833],[80.318942,29.8810066],[80.3185773,29.8822159],[80.3180408,29.8845787],[80.3171825,29.8864392],[80.3160882,29.8881693],[80.314908,29.8891925],[80.3141141,29.8905134],[80.3134274,29.8912761],[80.3124189,29.8914621],[80.3123116,29.8920574],[80.311346,29.8937689],[80.3090715,29.8944572],[80.3090286,29.895499],[80.3094578,29.8975638],[80.3095221,29.8984939],[80.3087497,29.8994426],[80.3090715,29.9007075],[80.3096938,29.9014144],[80.3096509,29.902084],[80.3087497,29.9036279],[80.3075051,29.9052461],[80.3067755,29.9067342],[80.3068399,29.910603],[80.3078055,29.9168523],[80.3077411,29.9188981],[80.3073549,29.9204231],[80.3043294,29.9230825],[80.301454,29.925184],[80.2995229,29.9270995],[80.2991152,29.9282338],[80.2990508,29.9291637],[80.2990937,29.9314324],[80.2989435,29.9326597]]],[[[80.3148865,29.7849952],[80.3120971,29.7889619],[80.3099298,29.7905447],[80.3081702,29.7921276],[80.3056276,29.7934311],[80.3019797,29.7953957],[80.2982783,29.7971181],[80.2953386,29.7980677],[80.2892661,29.7975092],[80.28373,29.8010842],[80.2802753,29.804082],[80.2773141,29.8036724],[80.2749109,29.8028531],[80.2745032,29.8016614],[80.2749752,29.7998367],[80.2754044,29.7973415],[80.2761125,29.7947904],[80.2795887,29.7931238],[80.2820134,29.7917086],[80.2826893,29.7895298],[80.2855217,29.7877886],[80.2905106,29.7865595],[80.2960037,29.7836543],[80.2987718,29.7812333],[80.3102302,29.7792778],[80.3132987,29.7809911],[80.3148865,29.7849952]]],[[[80.3560853,29.7773222],[80.3569007,29.7764469],[80.3579736,29.7758881],[80.3587889,29.7754225],[80.3597545,29.7751245],[80.3612566,29.7752176],[80.3624797,29.775199],[80.3643679,29.7745844],[80.3654194,29.7744726],[80.3668356,29.7747148],[80.3685951,29.7741933],[80.3690028,29.7733365],[80.3704405,29.7712877],[80.373187,29.7684193],[80.3752255,29.7677115],[80.3763628,29.7667616],[80.3769207,29.7659234],[80.3775644,29.7648989],[80.3787017,29.7646195],[80.3809547,29.7652342],[80.3821349,29.7656999],[80.3830576,29.7662401],[80.3841734,29.7667243],[80.385375,29.7667802],[80.3881216,29.765495],[80.389409,29.7659979],[80.3896022,29.7676184],[80.388658,29.7681213],[80.3862977,29.7696114],[80.3860616,29.7703378],[80.3861904,29.7715299],[80.3855466,29.7729826],[80.3850317,29.7736159],[80.3852033,29.7745844],[80.3863191,29.7755902],[80.3874778,29.7768566],[80.3889799,29.7779741],[80.3897094,29.7796875],[80.3878212,29.7822203],[80.386362,29.7842317],[80.3870916,29.785796],[80.3913617,29.7866526],[80.3922844,29.7870251],[80.3932929,29.7876769],[80.3940654,29.7879376],[80.3953743,29.7882169],[80.3970265,29.7888501],[80.3975415,29.7895391],[80.3981852,29.7914199],[80.3984427,29.7919041],[80.3983998,29.7926676],[80.3973055,29.7938221],[80.3956103,29.7947718],[80.3933573,29.7958518],[80.3915977,29.798198],[80.3918767,29.7989801],[80.3918767,29.799818],[80.3914904,29.8006373],[80.390718,29.8012518],[80.3893661,29.801289],[80.3883147,29.8017359],[80.3880787,29.8026483],[80.3873491,29.8041751],[80.3855037,29.8058322],[80.3846454,29.8069679],[80.3832507,29.8077686],[80.3814482,29.8083644],[80.3801822,29.8096677],[80.3789162,29.8108592],[80.3778004,29.8113247],[80.3763842,29.8117157],[80.3756761,29.8122742],[80.3752041,29.8132423],[80.374453,29.8139126],[80.3741097,29.8145269],[80.3741526,29.8155695],[80.3741312,29.8164259],[80.3734445,29.817003],[80.3721356,29.8168727],[80.3709984,29.8156626],[80.3697324,29.8150482],[80.3702044,29.8125349],[80.3707409,29.8119391],[80.3718352,29.8108965],[80.3727793,29.8086995],[80.3728008,29.8075079],[80.3708052,29.8058694],[80.3696251,29.8051433],[80.3690457,29.8040634],[80.3702688,29.8030765],[80.371449,29.8019035],[80.3712988,29.8006559],[80.3705478,29.7984587],[80.3695178,29.7978815],[80.3664922,29.7977325],[80.3647542,29.7972298],[80.363574,29.7970063],[80.3617072,29.7966898],[80.3624367,29.7936918],[80.362823,29.7932262],[80.3636598,29.7920158],[80.3640675,29.7908054],[80.3618145,29.7888687],[80.3610205,29.7878259],[80.3571796,29.7842317],[80.3562784,29.7826859],[80.3561926,29.7801345],[80.3560209,29.7788308],[80.3560853,29.7773222]]]],"type":"MultiPolygon"}},{"type":"Feature","properties":{"name":"Govind Pashu Vihar WLS"},"geometry":{"coordinates":[[[[78.0957553,31.066371],[78.0990599,31.0810186],[78.1031798,31.0932203],[78.1236075,31.1177658],[78.1419752,31.1345178],[78.1582831,31.1564086],[78.1596564,31.1747693],[78.1668662,31.1810846],[78.1733035,31.1805706],[78.1845473,31.1846826],[78.1856631,31.1876197],[78.1872081,31.1932734],[78.1850623,31.1964305],[78.1855773,31.1985596],[78.1890964,31.2009089],[78.1950187,31.2028177],[78.1969928,31.2068554],[78.1980228,31.2126547],[78.1977759,31.2166279],[78.1963382,31.2183162],[78.191242,31.2245459],[78.1599139,31.2241055],[78.1478976,31.2108195],[78.1291865,31.2011292],[78.1033514,31.1843156],[78.084812,31.1868121],[78.0676475,31.1868121],[78.0669592,31.1868121],[78.0535696,31.1806441],[78.0415533,31.1782942],[78.0338286,31.17051],[78.0321119,31.1506793],[78.0259321,31.1502385],[78.018894,31.1547926],[78.0104826,31.1625782],[77.9981228,31.160228],[77.9843899,31.1555273],[77.9878231,31.1381913],[77.9826733,31.1240851],[77.9912564,31.1199704],[78.0128857,31.1190886],[78.0218121,31.1170312],[78.0269619,31.0993941],[78.0245587,31.0802837],[78.0338284,31.0726384],[78.0650708,31.0770492],[78.0746838,31.0694037],[78.0957553,31.066371]]],[[[78.4701919,31.2240321],[78.4542273,31.2277754],[78.4444426,31.2308579],[78.4370611,31.2233716],[78.42144,31.2073694],[78.4075354,31.189896],[78.3850477,31.177413],[78.3574103,31.1615499],[78.3424757,31.1534705],[78.3309744,31.1493571],[78.3057402,31.1408358],[78.2731245,31.1176189],[78.2662581,31.1117403],[78.2499502,31.099688],[78.2197378,31.0943962],[78.2006834,31.0838119],[78.197422,31.0677492],[78.1965208,31.0649922],[78.1951903,31.0616103],[78.194332,31.0529341],[78.1910704,31.0385211],[78.1825304,31.0334832],[78.1804704,31.0315894],[78.178153,31.0274707],[78.176651,31.0254481],[78.1744838,31.0238851],[78.1716834,31.0209706],[78.1733785,31.0208925],[78.1900402,31.0217523],[78.2061764,31.0170447],[78.2168194,31.0267539],[78.263168,31.0158677],[78.3040234,31.019987],[78.3273693,31.0055689],[78.3445355,31.0043919],[78.3538052,31.0070403],[78.3617016,31.0235176],[78.371658,31.0285191],[78.3908841,31.0429336],[78.4159466,31.0373446],[78.4465023,31.031461],[78.4839245,31.0276365],[78.4938809,31.0043919],[78.5034939,31.0017434],[78.5254666,31.0055689],[78.5508725,31.0017434],[78.5721585,31.0170447],[78.5821148,31.0411687],[78.566322,31.0694037],[78.5656353,31.0891044],[78.5457228,31.0980711],[78.5498427,31.1096827],[78.5625456,31.1230563],[78.5728453,31.1315791],[78.5701416,31.1527727],[78.5785101,31.1618437],[78.5797117,31.1706569],[78.6016844,31.189896],[78.6164473,31.2047265],[78.625717,31.220876],[78.616104,31.2280689],[78.6076925,31.2289497],[78.5968779,31.2257203],[78.5797117,31.2252799],[78.5680388,31.2182335],[78.5513876,31.199147],[78.5381697,31.1975318],[78.5077856,31.1967976],[78.485813,31.1997343],[78.473625,31.2188208],[78.4701919,31.2240321]]]],"type":"MultiPolygon"}},{"type":"Feature","properties":{"name":"Aasan Wetland Conservation Reserve"},"geometry":{"coordinates":[[[77.675609,30.4353864],[77.6756653,30.4356107],[77.6757458,30.4359206],[77.6758182,30.4360963],[77.6759094,30.4363415],[77.6761883,30.4371069],[77.6764405,30.4376249],[77.6770574,30.4383002],[77.677272,30.4385546],[77.6772854,30.4386494],[77.6772666,30.4387442],[77.6771432,30.4389338],[77.6770708,30.4390842],[77.677044,30.4392507],[77.6771808,30.4398542],[77.6773739,30.4409272],[77.6773176,30.4411978],[77.6772264,30.4413781],[77.6771741,30.4414336],[77.6770949,30.4414776],[77.6740774,30.4420788],[77.6739353,30.4420534],[77.6738575,30.4420048],[77.6736751,30.4418198],[77.6723984,30.4402635],[77.6722307,30.4400843],[77.6720752,30.4400242],[77.6718284,30.4399826],[77.6693863,30.4397918],[77.669161,30.4397455],[77.6690751,30.4396877],[77.6690429,30.439616],[77.6690054,30.4383719],[77.6688257,30.4380481],[77.6685655,30.4377822],[77.6682866,30.4375995],[77.6680344,30.437507],[77.6676428,30.4374446],[77.666983,30.4374735],[77.6667725,30.4374654],[77.6666987,30.4374573],[77.6666088,30.4374318],[77.6664908,30.437396],[77.6663889,30.4373544],[77.6662588,30.4373093],[77.6661636,30.4372781],[77.6661101,30.4372439],[77.6654939,30.4372381],[77.6655122,30.4352497],[77.6655013,30.4346672],[77.6659163,30.4346466],[77.6663708,30.4345096],[77.6668555,30.4343772],[77.6670144,30.4343785],[77.667305,30.4343101],[77.6675914,30.4342651],[77.6682651,30.4343087],[77.6688475,30.4342185],[77.6692656,30.4340821],[77.669625,30.4338624],[77.6698825,30.4336218],[77.6700515,30.4334114],[77.6701132,30.4331166],[77.6701735,30.4323973],[77.6701373,30.4316445],[77.6701547,30.4315312],[77.6702124,30.4314225],[77.6703894,30.4312837],[77.6705651,30.4311982],[77.6707971,30.4310987],[77.6711833,30.4310571],[77.6727605,30.4311218],[77.6729214,30.4311357],[77.6730327,30.4311288],[77.6730777,30.4311132],[77.6731125,30.4310923],[77.6732902,30.4309206],[77.6735316,30.4307183],[77.6736067,30.430657],[77.6736563,30.4305818],[77.6737288,30.430391],[77.6737757,30.4303078],[77.6738267,30.4302557],[77.6740399,30.4301262],[77.6743081,30.4300071],[77.6744275,30.4299794],[77.674583,30.4299585],[77.6748794,30.4299724],[77.675491,30.4300672],[77.6758879,30.4301297],[77.6760274,30.4301343],[77.6763841,30.4301436],[77.6765196,30.4301181],[77.6766175,30.43008],[77.6768321,30.429977],[77.6770627,30.4299007],[77.6774463,30.4298313],[77.6777923,30.4298267],[77.6781732,30.4298845],[77.6785004,30.430021],[77.6785782,30.4300441],[77.6786479,30.4300453],[77.6795197,30.4300302],[77.6797423,30.4299909],[77.6798536,30.4299111],[77.6799394,30.4298198],[77.6800668,30.4296764],[77.6804611,30.4292763],[77.6808178,30.4288554],[77.6810673,30.428601],[77.6813918,30.4284344],[77.681762,30.4283419],[77.6843003,30.4328442],[77.6844388,30.4330899],[77.6835912,30.4333489],[77.6821911,30.4337629],[77.6815554,30.4338832],[77.680901,30.4339618],[77.6794231,30.4340821],[77.6774919,30.4344937],[77.6757538,30.435095],[77.6756519,30.4352083],[77.675609,30.4352939],[77.675609,30.4353864]]],"type":"Polygon"}},{"type":"Feature","properties":{"name":"Nanda Devi National Park"},"geometry":{"coordinates":[[[79.679632,30.468391],[79.6752263,30.4284086],[79.6845242,30.4007146],[79.7153371,30.3652483],[79.7154232,30.3462136],[79.7524159,30.3302874],[79.7751399,30.308962],[79.7766999,30.3074979],[79.7997652,30.285847],[79.7999343,30.2856883],[79.8103952,30.2856416],[79.8149443,30.2864847],[79.8181736,30.2867349],[79.8235059,30.2896994],[79.8292133,30.2905613],[79.850156,30.2881433],[79.8719999,30.271985],[79.8956033,30.2772108],[79.8991871,30.2793786],[79.9020406,30.283474],[79.9213311,30.290867],[79.9364373,30.3015387],[79.95738,30.2944244],[79.976606,30.3036136],[79.9845808,30.3192992],[79.9951455,30.3391766],[79.9948021,30.3625819],[80.0137315,30.3817787],[80.0143715,30.3824276],[80.0298211,30.3960506],[80.0287911,30.4161855],[80.0308009,30.4285337],[80.0315377,30.4330602],[80.0317043,30.4380887],[80.031881,30.4434203],[80.0195214,30.4466761],[80.0136849,30.4605862],[80.0061318,30.4733106],[80.014715,30.486477],[80.0128267,30.4922461],[80.0092219,30.4955003],[80.0095652,30.5027479],[80.0059603,30.5054101],[80.0044153,30.5160583],[80.0008105,30.5278883],[79.9652765,30.5191638],[79.9522303,30.5194596],[79.9349225,30.5283494],[79.9094224,30.5324165],[79.892621,30.5289972],[79.865713,30.517685],[79.8272609,30.5153188],[79.7983357,30.5084052],[79.7754621,30.5107342],[79.7562572,30.5177037],[79.7410869,30.5155407],[79.7301005,30.5015645],[79.695768,30.4813735],[79.679632,30.468391]]],"type":"Polygon"}},{"type":"Feature","properties":{"name":"Valley of Flowers National Park"},"geometry":{"coordinates":[[[79.5505188,30.7255813],[79.550693,30.7222664],[79.5499205,30.719278],[79.5494931,30.7157213],[79.5480108,30.7133933],[79.5483327,30.7095561],[79.5502209,30.7068257],[79.5528173,30.7047409],[79.5561218,30.7036524],[79.5632457,30.7042797],[79.5670652,30.7026192],[79.5708203,30.70487],[79.5774053,30.7100172],[79.5812273,30.711567],[79.5862845,30.7132088],[79.5903682,30.7148876],[79.5942306,30.7137069],[79.5972776,30.7140574],[79.5995307,30.7157546],[79.6038069,30.7166658],[79.6079421,30.7161236],[79.612523,30.7146274],[79.6171106,30.7127919],[79.6218894,30.7115142],[79.622383,30.7077482],[79.624443,30.7034679],[79.6313094,30.7030989],[79.6428107,30.7041321],[79.6493339,30.7042797],[79.6582603,30.7048701],[79.6648692,30.7031727],[79.6708989,30.699907],[79.6749115,30.7009402],[79.6775722,30.7033018],[79.6856403,30.7070102],[79.6919916,30.7032097],[79.6969699,30.7011801],[79.6992873,30.7039107],[79.6983432,30.7104048],[79.6947383,30.7166033],[79.6956184,30.7247153],[79.69491,30.7267487],[79.6902322,30.7297737],[79.6829366,30.7339052],[79.6814346,30.7389218],[79.6782159,30.7419464],[79.6767139,30.7442701],[79.6792459,30.7461512],[79.6844816,30.7488067],[79.6920776,30.750909],[79.6967983,30.754007],[79.6978712,30.7576949],[79.6936655,30.759797],[79.6900177,30.7614934],[79.684782,30.7619728],[79.6795892,30.7647385],[79.679718,30.7679836],[79.682722,30.7709704],[79.6813027,30.773645],[79.6799326,30.7752476],[79.6763706,30.7752476],[79.6686887,30.7756163],[79.6630239,30.7779393],[79.6556483,30.7804892],[79.6530675,30.7836172],[79.6505444,30.7844349],[79.6442914,30.783525],[79.6414589,30.780299],[79.6365666,30.7732934],[79.6324897,30.7707307],[79.6309018,30.7692004],[79.6275907,30.768522],[79.6242285,30.7661029],[79.619658,30.7596679],[79.6192074,30.7545233],[79.6183705,30.7512041],[79.6114825,30.750743],[79.6088218,30.751204],[79.6036601,30.7520677],[79.6008611,30.7525502],[79.5996809,30.7527162],[79.5976423,30.752458],[79.586935,30.7513516],[79.5846391,30.7517757],[79.5772096,30.7493009],[79.5754337,30.7481429],[79.570198,30.7480322],[79.5679613,30.745859],[79.5593911,30.7442294],[79.5551562,30.7408214],[79.5523667,30.7381656],[79.5494699,30.7358971],[79.5477962,30.7336101],[79.5482254,30.7307143],[79.5505188,30.7255813]]],"type":"Polygon"}},{"type":"Feature","properties":{"name":"Nandhaur WLS"},"geometry":{"coordinates":[[[79.6754694,29.1844259],[79.6775722,29.1730726],[79.6895026,29.1592822],[79.7058749,29.1489099],[79.765892,29.1196617],[79.7885942,29.1007269],[79.7892594,29.0781882],[79.920988,29.0542565],[79.9387121,29.0592271],[79.952445,29.0584581],[79.9622726,29.0565636],[79.9680877,29.0528121],[79.9935579,29.0504299],[80.0153158,29.088727],[80.00463,29.1246479],[79.9793529,29.1179371],[79.936223,29.1470265],[79.933176,29.1619804],[79.9162673,29.1650534],[79.897685,29.178918],[79.8605632,29.1572584],[79.820137,29.1604064],[79.7964477,29.1727729],[79.7926711,29.1640041],[79.7877788,29.1541103],[79.7692393,29.1535856],[79.7551631,29.1576332],[79.7440909,29.1659528],[79.7414302,29.1772693],[79.73701,29.1760703],[79.7252512,29.1747213],[79.7097587,29.1765949],[79.6804475,29.1863367],[79.6754694,29.1844259]]],"type":"Polygon"}},{"type":"Feature","properties":{"name":"Mussoorie WLS"},"geometry":{"coordinates":[[[78.0196452,30.4996417],[78.0184221,30.4997341],[78.017199,30.4995123],[78.0167484,30.4986063],[78.016212,30.4977373],[78.0150103,30.49746],[78.0133366,30.4979962],[78.0119204,30.4987727],[78.0105686,30.4987173],[78.0100965,30.4979592],[78.0096888,30.4973121],[78.0084014,30.4965725],[78.0065989,30.495833],[78.0048609,30.4953337],[78.0045175,30.4941689],[78.0029082,30.4936512],[78.0004191,30.4933738],[77.9986381,30.4927082],[77.9975867,30.4916358],[77.997458,30.4902675],[77.9976082,30.4886218],[77.9972648,30.4835923],[77.9972648,30.4806336],[77.9998397,30.4740501],[78.0043029,30.471313],[78.0082511,30.4688718],[78.0200099,30.46828],[78.0269622,30.468354],[78.0302238,30.4726446],[78.0302238,30.4777487],[78.028593,30.4800418],[78.0269622,30.4859592],[78.0267905,30.4900272],[78.0249023,30.4935773],[78.0230998,30.4956481],[78.021469,30.4972752],[78.0196452,30.4996417]]],"type":"Polygon"}},{"type":"Feature","properties":{"name":"Pawalgarh Conservation Reserve"},"geometry":{"coordinates":[[[79.21788246983874,29.35810334194376],[79.23206970532271,29.3622623913368],[79.23974587042176,29.362441418929436],[79.24179738942894,29.35309477678075],[79.23739634178202,29.34123684338215],[79.22543633091391,29.332788565277696],[79.21752200835454,29.323524076960993],[79.21929389735715,29.31583884532951],[79.23433243796978,29.311398506776456],[79.25047246742201,29.308335138648147],[79.25796426549806,29.30494485031045],[79.2577432364348,29.297275019323976],[79.27097813371472,29.2973391298425],[79.28276474700948,29.30119402468206],[79.2888754262371,29.30936973717857],[79.29468203409874,29.31814230765137],[79.29298953091671,29.32577290860199],[79.29821609388699,29.335356286414978],[79.30604371765833,29.341887164953945],[79.30926514187996,29.353348145882336],[79.30791943384435,29.365014244037766],[79.31068657925368,29.377555651427897],[79.30375529242122,29.372034805685516],[79.29354763691106,29.36824727744967],[79.28310307516921,29.37529856025232],[79.27124564025286,29.373894866452318],[79.25568565569188,29.37182701383132],[79.24189024716566,29.367403154227745],[79.23631688905027,29.369136758863377],[79.2478665961167,29.376986254019457],[79.2549993783665,29.390430554821506],[79.24682130296623,29.399623048250405],[79.23483810196797,29.40436155834078],[79.2194564226927,29.409498713026707],[79.20869682013512,29.41385162350241],[79.19800803919873,29.418383127729186],[79.18384995836533,29.421656014843222],[79.1692852302096,29.422797310492072],[79.1516615059598,29.420387083011562],[79.14907266583612,29.412619845611772],[79.1387038334326,29.408431741381932],[79.13642272116164,29.39928461526621],[79.14224520618569,29.387959908803538],[79.14434926440236,29.373775433131442],[79.14799686958827,29.360359640874904],[79.15502707588888,29.35151763297452],[79.16965531269983,29.360858982196362],[79.20038816815014,29.363655903747954],[79.21788246983874,29.35810334194376]]],"type":"Polygon"}},{"type":"Feature","properties":{"name":"Gangotri National Park"},"geometry":{"coordinates":[[[78.919146,31.248802],[78.919208,31.248457],[78.919146,31.247767],[78.919208,31.247202],[78.919554,31.246857],[78.919679,31.246543],[78.919459,31.245947],[78.91924,31.245633],[78.919271,31.245508],[78.920181,31.2451],[78.920902,31.243751],[78.921687,31.242653],[78.921875,31.242245],[78.922032,31.239453],[78.921404,31.237351],[78.921875,31.235908],[78.921781,31.2355],[78.922126,31.235375],[78.922941,31.23459],[78.923475,31.232896],[78.923757,31.232614],[78.923789,31.232206],[78.923632,31.232049],[78.923726,31.230324],[78.923914,31.229163],[78.923852,31.228818],[78.923946,31.227845],[78.923789,31.226842],[78.923852,31.226434],[78.924542,31.225932],[78.926173,31.225304],[78.926455,31.225022],[78.92702,31.224896],[78.927333,31.2243],[78.927741,31.223987],[78.927804,31.223077],[78.927679,31.222606],[78.927836,31.222042],[78.927616,31.221446],[78.928087,31.220818],[78.928588,31.220379],[78.929091,31.21972],[78.930345,31.218779],[78.930753,31.218308],[78.93091,31.217775],[78.931694,31.217242],[78.932353,31.217305],[78.932792,31.217273],[78.933075,31.216959],[78.933922,31.21743],[78.935271,31.21743],[78.935616,31.217838],[78.936055,31.217838],[78.936902,31.217712],[78.938094,31.217461],[78.938188,31.217054],[78.942204,31.216646],[78.947819,31.217054],[78.948541,31.217242],[78.949106,31.217587],[78.94989,31.216959],[78.950078,31.21583],[78.950392,31.214983],[78.950361,31.213603],[78.950141,31.213289],[78.949482,31.213069],[78.949074,31.212662],[78.949043,31.211469],[78.948886,31.211062],[78.946627,31.210089],[78.946439,31.209054],[78.94578,31.207767],[78.947223,31.206168],[78.947317,31.20554],[78.94807,31.204975],[78.949106,31.202121],[78.949106,31.201744],[78.948949,31.201399],[78.948886,31.199893],[78.949545,31.199611],[78.949733,31.199454],[78.950172,31.199266],[78.950643,31.198983],[78.951051,31.198481],[78.95149,31.198042],[78.952086,31.197917],[78.952463,31.19776],[78.952682,31.197509],[78.95287,31.197132],[78.953153,31.196787],[78.953968,31.196254],[78.953905,31.196066],[78.954062,31.195878],[78.954188,31.195878],[78.954659,31.195313],[78.954878,31.195187],[78.9556,31.195093],[78.955788,31.194905],[78.956196,31.194686],[78.956541,31.194435],[78.957262,31.193462],[78.957827,31.193368],[78.958078,31.193211],[78.958141,31.192929],[78.958141,31.192521],[78.95836,31.192239],[78.959615,31.191737],[78.959521,31.191203],[78.95927,31.190607],[78.958297,31.189917],[78.958611,31.188631],[78.958705,31.18725],[78.962627,31.185682],[78.963819,31.185305],[78.965545,31.184835],[78.966454,31.184521],[78.967741,31.183956],[78.968588,31.183643],[78.968744,31.183266],[78.96934,31.183203],[78.970031,31.183015],[78.97025,31.182921],[78.97047,31.182733],[78.970658,31.182733],[78.970878,31.182607],[78.970972,31.182168],[78.971129,31.181886],[78.971693,31.181729],[78.971756,31.181635],[78.971756,31.181196],[78.973168,31.180976],[78.974673,31.180443],[78.976462,31.180411],[78.976619,31.180192],[78.976932,31.179941],[78.977372,31.179847],[78.977748,31.179972],[78.97803,31.179784],[78.978407,31.179407],[78.979348,31.179031],[78.979881,31.179062],[78.980446,31.179251],[78.981701,31.179376],[78.982046,31.177996],[78.98283,31.17696],[78.983332,31.176772],[78.98352,31.17649],[78.985246,31.1758],[78.985905,31.175172],[78.98763,31.1742],[78.987787,31.173949],[78.987881,31.173384],[78.988414,31.172663],[78.988477,31.172286],[78.989136,31.17147],[78.989136,31.17078],[78.988917,31.170027],[78.988948,31.169651],[78.989073,31.169557],[78.989199,31.169337],[78.989199,31.168898],[78.989607,31.168145],[78.990077,31.16802],[78.990171,31.167674],[78.99083,31.16689],[78.990736,31.166451],[78.99083,31.166169],[78.991803,31.165855],[78.992273,31.165039],[78.992555,31.163502],[78.99265,31.161996],[78.992524,31.1614],[78.992524,31.160396],[78.992022,31.159988],[78.991865,31.159549],[78.991928,31.158765],[78.991708,31.158608],[78.991677,31.1582],[78.991583,31.157824],[78.991081,31.157259],[78.990579,31.156412],[78.99014,31.155188],[78.99014,31.15431],[78.990799,31.152271],[78.991206,31.151455],[78.991614,31.151016],[78.991834,31.150702],[78.992179,31.149918],[78.992304,31.149322],[78.992116,31.148789],[78.991708,31.148318],[78.991395,31.147377],[78.99083,31.146875],[78.990422,31.146342],[78.990265,31.145714],[78.990108,31.1454],[78.989764,31.145055],[78.989607,31.144742],[78.99333,31.1401012],[78.9961623,31.1367952],[79.0028571,31.1327545],[79.0068053,31.1242318],[79.0123843,31.1114462],[79.0060329,31.1129159],[78.9921712,31.1086537],[78.9827084,31.1087456],[78.9761209,31.1085067],[78.9733958,31.1059714],[78.9681386,31.103087],[78.9633536,31.0995776],[78.9529895,31.0980526],[78.9473671,31.1012499],[78.9335378,31.1015743],[78.926382,31.1107481],[78.9196041,31.1113718],[78.913645,31.1080914],[78.9133787,31.101268],[78.9084401,31.0988297],[78.9041519,31.1000921],[78.8996458,31.0997981],[78.891921,31.0975565],[78.8850975,31.1007535],[78.8783396,31.1062727],[78.8728861,31.0971718],[78.8715182,31.0385901],[78.8726807,31.0316177],[78.8769896,31.0057686],[78.916657,30.9846631],[78.9303354,30.9799724],[78.9297195,30.9672975],[78.9289676,30.951823],[78.8783574,30.9612071],[78.8496327,30.9764541],[78.8400579,30.8908044],[78.8720282,30.8752997],[78.8746501,30.8757996],[78.8777505,30.8761323],[78.880871,30.8769761],[78.8829859,30.8766008],[78.8856787,30.8757636],[78.8878476,30.8751162],[78.8895157,30.8744705],[78.8918716,30.8731869],[78.8933363,30.8724735],[78.8945595,30.8715175],[78.8957282,30.8711897],[78.8971746,30.8711341],[78.8996394,30.8719828],[78.9022654,30.8728191],[78.9043799,30.872929],[78.9058405,30.8730007],[78.9081217,30.8724831],[78.9099929,30.8740942],[78.9128542,30.8759372],[78.9153595,30.8771539],[78.9196436,30.8786167],[78.9222419,30.8781559],[78.9249754,30.8777],[78.9254623,30.8754052],[78.9258555,30.874444],[78.9272997,30.8739744],[78.92908,30.873802],[78.9315316,30.8733655],[78.9342733,30.8727455],[78.9357606,30.871638],[78.9385069,30.8687988],[78.9396292,30.8673192],[78.9404091,30.8653197],[78.9421705,30.8629759],[78.9423883,30.8608134],[78.9431744,30.857822],[78.9442051,30.855581],[78.9458148,30.8541659],[78.951379,30.8552714],[78.9545724,30.854667],[78.9576081,30.8547634],[78.9619073,30.8536684],[78.9653234,30.853629],[78.9676391,30.8529737],[78.9698014,30.8523123],[78.9711469,30.852772],[78.9771315,30.8535088],[78.980457,30.8553786],[78.9831571,30.8561861],[78.9865749,30.8569557],[78.9887252,30.8577518],[78.9913435,30.8597276],[78.9946855,30.8605548],[78.9967731,30.8598169],[78.9987857,30.85899],[79.0005674,30.8583583],[79.002037,30.8580036],[79.0033018,30.8572692],[79.0044335,30.8558005],[79.005558,30.8537435],[79.0068911,30.8519895],[79.0081975,30.8507981],[79.0105812,30.848768],[79.0115947,30.8475566],[79.0128193,30.846486],[79.0146613,30.8452365],[79.0170482,30.8428978],[79.017772,30.8411771],[79.0181622,30.8387351],[79.0184635,30.8360197],[79.0197043,30.832703],[79.0197228,30.8288785],[79.0190378,30.8273017],[79.0185394,30.8227399],[79.0189419,30.8207956],[79.0219945,30.8181114],[79.0236399,30.8164874],[79.0240323,30.8149109],[79.0259396,30.8126392],[79.0285364,30.8101828],[79.0307998,30.8086814],[79.0321087,30.8072979],[79.0352726,30.8060733],[79.0376119,30.8075245],[79.0385381,30.808036],[79.0409973,30.8083483],[79.044127,30.8072304],[79.0465263,30.8063242],[79.0489596,30.8042697],[79.0507434,30.802372],[79.0560432,30.8004841],[79.0591413,30.7996402],[79.063438,30.7981949],[79.0662913,30.7978535],[79.0697813,30.7922555],[79.0734564,30.7889713],[79.0765951,30.7863957],[79.0799283,30.7845156],[79.0829182,30.7820457],[79.0851532,30.7801577],[79.0863543,30.7788376],[79.0872782,30.7779168],[79.088827,30.777586],[79.0916543,30.776608],[79.0936986,30.775966],[79.0969686,30.7751795],[79.099073,30.7748419],[79.1010898,30.7745595],[79.1034833,30.7722711],[79.1051721,30.7712791],[79.1066331,30.7712841],[79.1097824,30.7712009],[79.1124266,30.7712572],[79.1147167,30.7718961],[79.1165937,30.7720071],[79.1200411,30.7715779],[79.124193,30.7709297],[79.1271553,30.7693644],[79.1296578,30.7680123],[79.1304304,30.7651816],[79.1303877,30.7617628],[79.1311138,30.7588502],[79.1314742,30.757244],[79.1327368,30.7558239],[79.1352746,30.7537233],[79.1364742,30.7520043],[79.1377653,30.751304],[79.1389853,30.7506471],[79.1410677,30.7488125],[79.1429667,30.747863],[79.1460204,30.7488207],[79.1479455,30.7502621],[79.1504174,30.7516312],[79.1525945,30.7521396],[79.154554,30.7523754],[79.1564961,30.7529513],[79.1581899,30.7536595],[79.160086,30.7548887],[79.1617371,30.7554431],[79.1643671,30.7553988],[79.1674628,30.7556895],[79.1690517,30.7557529],[79.1704897,30.7546876],[79.1718171,30.7528929],[79.1737263,30.7521463],[79.1749562,30.751509],[79.1768288,30.75126],[79.1797938,30.7510965],[79.1813217,30.7510929],[79.1837715,30.7493005],[79.1864176,30.7478519],[79.1887274,30.7462714],[79.1904172,30.7441707],[79.1920869,30.7423026],[79.1942107,30.7412797],[79.1962491,30.7403494],[79.1970574,30.7392558],[79.1979961,30.736463],[79.1986744,30.7345481],[79.1996532,30.7329027],[79.2021175,30.7335796],[79.2036099,30.7344691],[79.2061225,30.7367899],[79.2081069,30.7378317],[79.2097322,30.7377605],[79.2154148,30.7369672],[79.2192399,30.7367004],[79.2245076,30.7357326],[79.2279423,30.734899],[79.2318535,30.7340455],[79.2363178,30.7335379],[79.2406992,30.7328463],[79.2437482,30.7329228],[79.2451805,30.7329432],[79.2470378,30.7321975],[79.2489586,30.7310177],[79.2507305,30.7295284],[79.2524881,30.728471],[79.2529466,30.7273288],[79.2538207,30.7263518],[79.2553377,30.7240511],[79.2563251,30.7229605],[79.2583418,30.7229],[79.2618995,30.7229516],[79.2649687,30.7231933],[79.267936,30.7243506],[79.2704259,30.724144],[79.2743668,30.723856],[79.2778462,30.7273071],[79.2792992,30.7298681],[79.2802096,30.7377553],[79.2823646,30.74123],[79.2857623,30.7454011],[79.2879175,30.7480376],[79.2884185,30.7491733],[79.2882892,30.7503172],[79.2867501,30.7522666],[79.2843119,30.7541218],[79.2811397,30.7557918],[79.2786304,30.7565322],[79.2758768,30.7567913],[79.2738925,30.7571707],[79.2718803,30.7592137],[79.269387,30.7615335],[79.2665726,30.7636393],[79.2651187,30.7640626],[79.2623732,30.7666589],[79.2614416,30.7681684],[79.2615875,30.7696779],[79.2629045,30.7726827],[79.26212,30.7763745],[79.2607904,30.7777364],[79.2588918,30.7790724],[79.2558139,30.7805731],[79.2533621,30.7807731],[79.2514281,30.7811274],[79.2495393,30.7824662],[79.2473657,30.7838036],[79.2454923,30.784855],[79.2460405,30.7865438],[79.246295,30.7890481],[79.2440588,30.7919774],[79.2420065,30.7931622],[79.2404782,30.7947118],[79.2393525,30.7978167],[79.2392849,30.7990347],[79.2409086,30.801735],[79.2409757,30.8023522],[79.2404159,30.8029311],[79.2374653,30.8052386],[79.2370188,30.8054341],[79.2356894,30.8059006],[79.2347499,30.8060615],[79.2329728,30.806239],[79.2311191,30.806433],[79.2296526,30.806868],[79.2283247,30.8074506],[79.2272295,30.8083285],[79.2255122,30.8097077],[79.2253753,30.8113644],[79.2253238,30.813233],[79.2254527,30.8151178],[79.2257958,30.8170092],[79.2263288,30.8186109],[79.2273546,30.8195514],[79.230238,30.820683],[79.2333507,30.8215645],[79.2361249,30.8226544],[79.2387299,30.8232794],[79.2404519,30.8237638],[79.2404586,30.8249312],[79.239921,30.8275804],[79.2399008,30.8293024],[79.2396544,30.8310294],[79.2392284,30.8322092],[79.2380492,30.833977],[79.2369151,30.8363226],[79.2358262,30.8385909],[79.2381152,30.839789],[79.2402576,30.8412037],[79.2416365,30.8419603],[79.244939,30.8420157],[79.2473419,30.8419818],[79.2502473,30.8420777],[79.2505815,30.8427775],[79.2508321,30.8454597],[79.2512062,30.847746],[79.2522594,30.8496039],[79.253141,30.851167],[79.2541046,30.8533428],[79.2547471,30.8566934],[79.2547946,30.8587026],[79.2562993,30.8602559],[79.2578557,30.8619602],[79.2583171,30.8642776],[79.2588139,30.8668539],[79.259221,30.8672135],[79.2644653,30.8680925],[79.2675845,30.8687581],[79.2700417,30.8691048],[79.2715747,30.8695736],[79.2721539,30.8703252],[79.272446,30.8713953],[79.2729639,30.8727039],[79.2734272,30.8732436],[79.2745076,30.8735246],[79.2766259,30.8739492],[79.278254,30.8743446],[79.2802266,30.8753056],[79.2789487,30.8762265],[79.2775646,30.8771999],[79.2772342,30.8775936],[79.2771066,30.8787951],[79.2762399,30.8816782],[79.2758123,30.8838688],[79.2747642,30.8856062],[79.2731724,30.8865971],[79.272958,30.8881085],[79.2729677,30.8891573],[79.2715467,30.8897687],[79.2703562,30.8903637],[79.2695857,30.8913551],[79.2693154,30.893061],[79.2694918,30.8952413],[79.2697916,30.8965546],[79.2705855,30.8976799],[79.2719209,30.8987267],[79.2727826,30.8994764],[79.2729541,30.9002012],[79.2727385,30.9015215],[79.2719113,30.9024629],[79.2704802,30.9038012],[79.2698187,30.9050159],[79.2697919,30.9059895],[79.2705299,30.9072017],[79.2717913,30.908496],[79.2736557,30.9095711],[79.2755442,30.9103423],[79.2785402,30.911046],[79.2808677,30.9113704],[79.2819333,30.9122154],[79.2827495,30.9134457],[79.2829026,30.9152336],[79.2826746,30.9169325],[79.2820239,30.9179761],[79.280653,30.9202753],[79.2805832,30.9206238],[79.280435,30.9213643],[79.280063,30.9230028],[79.2802876,30.9239741],[79.2809421,30.9261593],[79.2824121,30.9275774],[79.2834928,30.9293208],[79.284426,30.9315589],[79.2846246,30.9328087],[79.2837807,30.9349122],[79.2828956,30.9367227],[79.2818088,30.9383522],[79.2806245,30.939849],[79.2785991,30.9410781],[79.2766069,30.9419819],[79.276015,30.943186],[79.273575,30.94521],[79.2715064,30.9472016],[79.2704581,30.9492163],[79.2682797,30.9520375],[79.2660893,30.9534775],[79.263008,30.954662],[79.264263,30.955686],[79.265121,30.956313],[79.266112,30.957271],[79.26707,30.958097],[79.268259,30.958922],[79.269745,30.959649],[79.270768,30.960045],[79.274699,30.960805],[79.276218,30.961465],[79.276944,30.96163],[79.27777,30.96163],[79.27876,30.961762],[79.279619,30.961795],[79.280313,30.961895],[79.28061,30.962126],[79.281171,30.962225],[79.281468,30.962588],[79.281898,30.962786],[79.282492,30.962753],[79.282756,30.963216],[79.283186,30.964272],[79.283615,30.965098],[79.283946,30.966023],[79.285035,30.966419],[79.285497,30.966419],[79.286092,30.966551],[79.290154,30.968235],[79.290451,30.968433],[79.290881,30.9684],[79.291607,30.968202],[79.292268,30.968103],[79.29306,30.96807],[79.294678,30.968235],[79.29557,30.9685],[79.296891,30.968533],[79.297386,30.968599],[79.297816,30.968566],[79.298972,30.968367],[79.299995,30.9684],[79.300391,30.968235],[79.300755,30.968202],[79.301217,30.967212],[79.301778,30.965725],[79.302142,30.965395],[79.302703,30.964669],[79.303826,30.964041],[79.304817,30.963414],[79.305444,30.963348],[79.306138,30.963216],[79.307029,30.962918],[79.30802,30.962456],[79.309275,30.962027],[79.309903,30.961564],[79.310299,30.961036],[79.310728,30.960342],[79.311059,30.959649],[79.311488,30.959451],[79.312247,30.959253],[79.312908,30.959187],[79.314757,30.959187],[79.315781,30.959021],[79.31697,30.958757],[79.317861,30.959187],[79.318753,30.959781],[79.32123,30.96097],[79.323211,30.961994],[79.323476,30.962687],[79.324268,30.964008],[79.324698,30.965065],[79.325094,30.96556],[79.325688,30.966155],[79.326745,30.966947],[79.328,30.96774],[79.329156,30.9684],[79.329156,30.968797],[79.329387,30.970217],[79.329255,30.970712],[79.329024,30.971108],[79.32909,30.973222],[79.328958,30.974213],[79.328628,30.974939],[79.328099,30.975402],[79.327406,30.975633],[79.327108,30.976822],[79.326613,30.977746],[79.324863,30.979794],[79.323905,30.981082],[79.323146,30.982469],[79.322716,30.983427],[79.323509,30.983922],[79.324565,30.984748],[79.325457,30.985342],[79.325721,30.986102],[79.325788,30.987323],[79.32592,30.988149],[79.326184,30.989008],[79.326514,30.989734],[79.327075,30.990725],[79.328,30.991914],[79.328826,30.992773],[79.330774,30.994226],[79.330972,30.994589],[79.330939,30.995018],[79.330543,30.995514],[79.330147,30.99591],[79.329915,30.996702],[79.32942,30.997627],[79.328727,30.99842],[79.327901,30.998849],[79.326778,30.999179],[79.325391,30.999443],[79.323839,30.999642],[79.322287,30.999906],[79.320702,31.000401],[79.318885,31.000897],[79.317663,31.001392],[79.316574,31.001656],[79.315187,31.002284],[79.313833,31.002812],[79.312578,31.003142],[79.311389,31.003671],[79.310068,31.004133],[79.308681,31.004826],[79.307723,31.005421],[79.307954,31.006346],[79.308152,31.007435],[79.308417,31.010176],[79.308582,31.013578],[79.308681,31.014569],[79.309539,31.015196],[79.312314,31.016352],[79.313568,31.017046],[79.314493,31.017673],[79.316045,31.019159],[79.31763,31.020414],[79.318324,31.021207],[79.319017,31.021834],[79.319645,31.02266],[79.320537,31.023221],[79.321428,31.024014],[79.322155,31.024905],[79.322716,31.025863],[79.324004,31.026028],[79.328462,31.026259],[79.329057,31.02659],[79.331203,31.026854],[79.33368,31.027085],[79.334968,31.027118],[79.335265,31.026986],[79.336124,31.027151],[79.336752,31.027349],[79.337181,31.027679],[79.33794,31.028604],[79.338403,31.028868],[79.340087,31.029],[79.340648,31.029199],[79.341309,31.029562],[79.342366,31.030553],[79.342894,31.03151],[79.343158,31.031642],[79.345734,31.03151],[79.348376,31.03118],[79.349763,31.031081],[79.352042,31.030784],[79.353495,31.03085],[79.353825,31.031345],[79.354684,31.032237],[79.35551,31.032963],[79.356368,31.033492],[79.358614,31.034615],[79.359506,31.035308],[79.360265,31.036134],[79.360995,31.036055],[79.362351,31.03611],[79.36608,31.038113],[79.366839,31.038641],[79.367334,31.039137],[79.367863,31.039962],[79.368424,31.041547],[79.369415,31.045213],[79.369977,31.0466],[79.370703,31.047954],[79.371991,31.049572],[79.374171,31.05162],[79.375392,31.052445],[79.375954,31.052974],[79.37635,31.0537],[79.377671,31.053634],[79.380809,31.054196],[79.381866,31.05479],[79.383352,31.055286],[79.38454,31.055352],[79.384937,31.057465],[79.385135,31.058819],[79.385168,31.05981],[79.385003,31.061197],[79.38454,31.062815],[79.386324,31.064532],[79.387248,31.065556],[79.388834,31.068],[79.38923,31.068363],[79.390386,31.068297],[79.391674,31.068297],[79.39273,31.068528],[79.39491,31.069486],[79.395504,31.069585],[79.396264,31.06942],[79.397321,31.069057],[79.398477,31.068793],[79.400854,31.068495],[79.402572,31.068495],[79.403562,31.068627],[79.406865,31.070047],[79.408615,31.070642],[79.409738,31.071335],[79.41143,31.072093],[79.412382,31.0723409],[79.413291,31.073244],[79.413753,31.073937],[79.413951,31.074697],[79.414215,31.075357],[79.414744,31.076282],[79.41514,31.077273],[79.415602,31.078693],[79.416626,31.081335],[79.417088,31.084076],[79.417254,31.08576],[79.417254,31.087775],[79.416857,31.091969],[79.416527,31.094347],[79.415866,31.098078],[79.414975,31.101645],[79.414611,31.102834],[79.414149,31.103891],[79.413786,31.105013],[79.413918,31.105707],[79.413852,31.106566],[79.41339,31.107127],[79.412762,31.108019],[79.411937,31.108976],[79.410979,31.109835],[79.409658,31.110793],[79.408766,31.11175],[79.407775,31.113501],[79.406223,31.113897],[79.405398,31.114029],[79.404638,31.114227],[79.4044112,31.1143404],[79.404044,31.114524],[79.403449,31.115053],[79.402954,31.115251],[79.402095,31.115317],[79.399916,31.115251],[79.399189,31.115416],[79.398529,31.115713],[79.398297,31.116011],[79.397901,31.115945],[79.396481,31.116044],[79.395854,31.116143],[79.395457,31.116407],[79.39516,31.116836],[79.394467,31.117133],[79.393674,31.117365],[79.392056,31.117464],[79.3909,31.117464],[79.390008,31.117398],[79.389414,31.116902],[79.388291,31.116176],[79.387366,31.115746],[79.386475,31.115515],[79.385418,31.11535],[79.384526,31.11535],[79.383437,31.115548],[79.382512,31.115779],[79.381092,31.115416],[79.380728,31.115251],[79.37987,31.114987],[79.378945,31.114822],[79.378615,31.114128],[79.378087,31.1136],[79.377459,31.113402],[79.376666,31.113468],[79.375973,31.113798],[79.375544,31.114326],[79.375411,31.115218],[79.375213,31.11568],[79.374883,31.115945],[79.373001,31.116341],[79.370491,31.116968],[79.368297,31.117761],[79.367703,31.11819],[79.367141,31.119016],[79.365589,31.122384],[79.364994,31.123837],[79.364103,31.123639],[79.361791,31.123243],[79.358588,31.122979],[79.356507,31.122549],[79.354196,31.122516],[79.353073,31.122351],[79.352082,31.12245],[79.351356,31.123177],[79.35053,31.124167],[79.349539,31.124927],[79.346303,31.126149],[79.345048,31.126545],[79.342075,31.126974],[79.341613,31.127701],[79.340589,31.129055],[79.339929,31.130079],[79.338608,31.132787],[79.337881,31.132853],[79.335405,31.132655],[79.331144,31.132457],[79.330352,31.13249],[79.328965,31.13348],[79.327611,31.134339],[79.325695,31.135429],[79.323681,31.137212],[79.321237,31.138566],[79.319652,31.141175],[79.319025,31.142331],[79.318232,31.143454],[79.317406,31.144279],[79.316151,31.145237],[79.314137,31.146987],[79.313113,31.147549],[79.312353,31.148275],[79.311462,31.149695],[79.311528,31.150554],[79.311,31.151413],[79.309778,31.153989],[79.309447,31.15488],[79.309282,31.155673],[79.309249,31.156531],[79.308754,31.158777],[79.308721,31.159933],[79.30849,31.161155],[79.308853,31.161584],[79.309051,31.162245],[79.309018,31.163136],[79.308622,31.164523],[79.307829,31.165448],[79.306905,31.166175],[79.306112,31.16667],[79.305551,31.167264],[79.305154,31.168123],[79.304725,31.169576],[79.305881,31.170666],[79.30773,31.172185],[79.308853,31.172879],[79.308622,31.175223],[79.308391,31.176544],[79.307664,31.177733],[79.307202,31.178724],[79.306871,31.179682],[79.306277,31.18054],[79.305782,31.181102],[79.305782,31.182258],[79.305848,31.183314],[79.306277,31.184966],[79.306574,31.187046],[79.306442,31.187971],[79.306244,31.1884],[79.305517,31.18873],[79.30489,31.189391],[79.304824,31.189985],[79.305616,31.193717],[79.306145,31.194774],[79.306277,31.195566],[79.306211,31.196425],[79.306079,31.197317],[79.30565,31.197746],[79.305187,31.197977],[79.304923,31.198241],[79.304923,31.198294],[79.304923,31.198803],[79.304791,31.199794],[79.304361,31.202171],[79.304064,31.203129],[79.303635,31.20369],[79.30347,31.204153],[79.303635,31.20478],[79.303899,31.205342],[79.304692,31.206465],[79.304692,31.207059],[79.304428,31.207686],[79.303932,31.208512],[79.30347,31.209965],[79.303272,31.211947],[79.303107,31.21264],[79.30281,31.213499],[79.30162,31.214291],[79.300266,31.215084],[79.300696,31.217032],[79.300828,31.218089],[79.300861,31.219047],[79.300465,31.219245],[79.299111,31.219641],[79.297426,31.220467],[79.29627,31.221227],[79.294983,31.222283],[79.293365,31.224364],[79.291449,31.225289],[79.290095,31.225784],[79.28884,31.226444],[79.289236,31.22694],[79.289468,31.227699],[79.289633,31.228459],[79.289401,31.229152],[79.288708,31.23011],[79.287981,31.230969],[79.287783,31.232059],[79.286925,31.234205],[79.286528,31.235559],[79.286264,31.236154],[79.285042,31.23721],[79.282697,31.238895],[79.28032,31.238267],[79.279296,31.238201],[79.278305,31.238201],[79.275993,31.238564],[79.272658,31.238796],[79.271568,31.23863],[79.270214,31.238333],[79.266284,31.238267],[79.265128,31.238498],[79.262024,31.239522],[79.260604,31.239786],[79.260175,31.240017],[79.259646,31.240744],[79.258986,31.241537],[79.258292,31.241603],[79.25674,31.242131],[79.25608,31.242593],[79.254627,31.244212],[79.25324,31.246028],[79.252678,31.246655],[79.252084,31.247052],[79.251324,31.247349],[79.250664,31.247778],[79.249574,31.248901],[79.247196,31.249396],[79.245578,31.250024],[79.244389,31.25075],[79.243332,31.251609],[79.242474,31.252501],[79.240954,31.253723],[79.239931,31.254812],[79.239072,31.25544],[79.237619,31.256167],[79.235835,31.256794],[79.233887,31.257653],[79.231972,31.258875],[79.230519,31.2597],[79.229759,31.259832],[79.228075,31.259568],[79.227481,31.259865],[79.226325,31.260592],[79.226721,31.261814],[79.228273,31.265314],[79.229033,31.266173],[79.229924,31.267032],[79.232203,31.268947],[79.233986,31.269905],[79.234878,31.270268],[79.235373,31.269607],[79.236001,31.269541],[79.236859,31.269574],[79.237817,31.270103],[79.238544,31.270697],[79.242209,31.272613],[79.24254,31.273075],[79.242771,31.273802],[79.243233,31.274099],[79.244422,31.275023],[79.245082,31.275585],[79.245578,31.276212],[79.246569,31.276939],[79.246965,31.277566],[79.247064,31.278095],[79.246965,31.278722],[79.246569,31.279746],[79.246569,31.280506],[79.247031,31.281265],[79.248517,31.283015],[79.248946,31.283907],[79.249211,31.284667],[79.24888,31.286318],[79.248913,31.287441],[79.249045,31.28863],[79.249574,31.29114],[79.250201,31.293253],[79.250069,31.293649],[79.24964,31.294112],[79.248814,31.294607],[79.24713,31.296027],[79.246536,31.296688],[79.244422,31.297381],[79.240228,31.297943],[79.239501,31.298636],[79.238841,31.299495],[79.237949,31.300452],[79.236595,31.301245],[79.232963,31.302467],[79.231774,31.302929],[79.228967,31.303689],[79.228537,31.304448],[79.22791,31.306034],[79.227513,31.307189],[79.227282,31.308246],[79.22682,31.308874],[79.226457,31.309864],[79.225895,31.311119],[79.225367,31.311582],[79.224211,31.311879],[79.223451,31.312143],[79.222593,31.312969],[79.221767,31.314125],[79.221008,31.315016],[79.220248,31.316502],[79.220942,31.316899],[79.22147,31.317658],[79.222262,31.319309],[79.22256,31.320399],[79.222626,31.321357],[79.22256,31.322216],[79.222659,31.323041],[79.223022,31.324098],[79.223319,31.324593],[79.223584,31.325287],[79.223914,31.326377],[79.224343,31.326674],[79.225268,31.327169],[79.225994,31.327698],[79.22715,31.328986],[79.227613,31.329745],[79.22824,31.330175],[79.22933,31.330274],[79.229957,31.330274],[79.230618,31.330604],[79.231774,31.331694],[79.233986,31.332552],[79.235241,31.33351],[79.236496,31.334996],[79.235538,31.335161],[79.232863,31.335921],[79.232104,31.33635],[79.231245,31.337242],[79.229924,31.339421],[79.228867,31.340907],[79.2287314,31.3409991],[79.227943,31.341535],[79.226589,31.34279],[79.2254,31.344639],[79.224442,31.345564],[79.223286,31.346191],[79.222031,31.346489],[79.220512,31.346786],[79.21939,31.347182],[79.217969,31.347611],[79.215856,31.348833],[79.215294,31.349428],[79.214964,31.350187],[79.214832,31.350914],[79.214072,31.352433],[79.213412,31.353985],[79.212058,31.353952],[79.211067,31.353853],[79.208722,31.353259],[79.207303,31.352994],[79.205916,31.352796],[79.204033,31.352961],[79.202778,31.353226],[79.200103,31.354481],[79.198881,31.35491],[79.19756,31.355174],[79.196503,31.355207],[79.194819,31.355075],[79.193366,31.354877],[79.192276,31.354877],[79.191121,31.355471],[79.190229,31.356099],[79.18937,31.356462],[79.188082,31.356759],[79.187257,31.357387],[79.186233,31.357915],[79.183921,31.359005],[79.182699,31.359864],[79.181246,31.36059],[79.180751,31.36026],[79.177613,31.360194],[79.176259,31.360392],[79.174509,31.360953],[79.173882,31.361515],[79.172561,31.362109],[79.170612,31.363133],[79.17048,31.364586],[79.169324,31.368912],[79.168961,31.370464],[79.168697,31.372281],[79.168664,31.374394],[79.169423,31.37522],[79.170777,31.377466],[79.172197,31.378919],[79.172957,31.380075],[79.173584,31.381296],[79.174707,31.38275],[79.176259,31.384203],[79.17725,31.385491],[79.176755,31.386217],[79.17616,31.387373],[79.175665,31.388628],[79.172693,31.391468],[79.171504,31.393615],[79.171405,31.395002],[79.171603,31.397016],[79.171405,31.397974],[79.170909,31.399064],[79.169027,31.398139],[79.167673,31.397677],[79.165361,31.397445],[79.163248,31.39979],[79.160936,31.402036],[79.159615,31.403819],[79.157766,31.405801],[79.155982,31.407584],[79.154661,31.40907],[79.153737,31.41049],[79.152944,31.411877],[79.152449,31.413198],[79.15192,31.415972],[79.15126,31.417557],[79.150467,31.418581],[79.149113,31.419836],[79.147726,31.421289],[79.147099,31.421752],[79.144424,31.423238],[79.14373,31.424261],[79.143004,31.425979],[79.142706,31.427366],[79.142343,31.432088],[79.141352,31.432385],[79.139965,31.432947],[79.137092,31.434433],[79.1363,31.435424],[79.133526,31.436613],[79.128737,31.438858],[79.125963,31.439387],[79.123783,31.439486],[79.12167,31.439783],[79.118929,31.440377],[79.118169,31.440675],[79.117277,31.441269],[79.116287,31.442095],[79.115098,31.442854],[79.114206,31.44325],[79.11305,31.443482],[79.112027,31.443746],[79.109121,31.444902],[79.108493,31.445397],[79.107832,31.445661],[79.107469,31.44619],[79.106842,31.447247],[79.106379,31.448303],[79.106148,31.449789],[79.10562,31.449955],[79.105091,31.450351],[79.103011,31.451441],[79.100963,31.452299],[79.100468,31.452696],[79.100204,31.453554],[79.099444,31.454512],[79.099114,31.454677],[79.098123,31.454446],[79.097199,31.454116],[79.094326,31.452696],[79.092939,31.452068],[79.09165,31.451837],[79.089702,31.451606],[79.087753,31.451143],[79.086036,31.450417],[79.084215,31.450991],[79.081771,31.452345],[79.081011,31.453071],[79.080285,31.453996],[79.079889,31.454789],[79.079657,31.45677],[79.078964,31.457563],[79.078204,31.457629],[79.077082,31.457827],[79.075166,31.459016],[79.073449,31.455779],[79.072821,31.454855],[79.071831,31.453864],[79.07051,31.452972],[79.069552,31.451751],[79.068627,31.450165],[79.068462,31.448745],[79.068561,31.447688],[79.069156,31.445014],[79.069816,31.4429],[79.068925,31.440819],[79.068,31.439432],[79.066646,31.437814],[79.065358,31.436031],[79.06516,31.435304],[79.064433,31.435007],[79.063277,31.434611],[79.062188,31.433785],[79.061659,31.432563],[79.060767,31.429558],[79.058951,31.429855],[79.057432,31.429855],[79.05446,31.429492],[79.053667,31.428898],[79.053007,31.428699],[79.052214,31.428072],[79.051521,31.427246],[79.050596,31.426718],[79.050167,31.426057],[79.049737,31.425628],[79.04868,31.427114],[79.044783,31.43329],[79.042802,31.432563],[79.041646,31.432431],[79.037122,31.433224],[79.033819,31.431903],[79.032763,31.430978],[79.030946,31.430516],[79.029031,31.430252],[79.026983,31.430219],[79.025894,31.430086],[79.025266,31.429723],[79.02411,31.428666],[79.023945,31.428006],[79.023912,31.427312],[79.024209,31.426388],[79.023747,31.425991],[79.023318,31.425958],[79.022789,31.425991],[79.022228,31.42619],[79.021765,31.426652],[79.021369,31.426817],[79.02018,31.426751],[79.019322,31.426883],[79.018892,31.426718],[79.018793,31.425067],[79.018529,31.424307],[79.0181,31.423548],[79.017571,31.422953],[79.017439,31.421236],[79.017142,31.420311],[79.016581,31.419122],[79.016283,31.418066],[79.016217,31.41724],[79.01625,31.416414],[79.016449,31.415192],[79.016415,31.414334],[79.015953,31.412583],[79.015788,31.411295],[79.016052,31.410305],[79.016415,31.40829],[79.01668,31.407266],[79.016647,31.406606],[79.016151,31.405417],[79.016085,31.404162],[79.016184,31.403171],[79.016449,31.402148],[79.016614,31.400364],[79.016911,31.399341],[79.017043,31.396699],[79.017208,31.396203],[79.017043,31.394552],[79.017076,31.393858],[79.017274,31.393231],[79.017704,31.392967],[79.017968,31.392537],[79.018067,31.391646],[79.018034,31.390985],[79.016548,31.388575],[79.016283,31.387584],[79.015689,31.386626],[79.01483,31.385767],[79.013741,31.385041],[79.012585,31.38448],[79.011528,31.384149],[79.011297,31.383522],[79.010933,31.383126],[79.010504,31.382993],[79.010108,31.382168],[79.010768,31.376289],[79.011561,31.371105],[79.012948,31.369519],[79.014005,31.368099],[79.014071,31.367208],[79.014038,31.366613],[79.014236,31.366085],[79.014764,31.365821],[79.015062,31.365523],[79.015028,31.365259],[79.015326,31.36483],[79.015425,31.364335],[79.015491,31.363608],[79.015986,31.362683],[79.01668,31.361957],[79.017472,31.361329],[79.017836,31.360273],[79.018265,31.358753],[79.018959,31.357895],[79.01843,31.357003],[79.018199,31.35588],[79.018133,31.35479],[79.018694,31.349011],[79.017968,31.348813],[79.017274,31.348549],[79.01635,31.347954],[79.015689,31.347723],[79.014368,31.347525],[79.013278,31.347162],[79.011957,31.346105],[79.009943,31.345544],[79.008225,31.344421],[79.007268,31.343958],[79.002512,31.342637],[79.000465,31.341845],[78.999837,31.342373],[78.99888,31.34277],[78.995313,31.343859],[78.994223,31.344256],[78.993001,31.345048],[78.99234,31.345279],[78.991746,31.345742],[78.991284,31.345907],[78.99069,31.345973],[78.990359,31.346105],[78.989864,31.346567],[78.989137,31.347129],[78.987651,31.347954],[78.987222,31.348516],[78.986528,31.349969],[78.987552,31.350695],[78.988873,31.351752],[78.989203,31.352215],[78.989368,31.353866],[78.989401,31.354956],[78.989203,31.356211],[78.986892,31.357499],[78.985604,31.358423],[78.98458,31.358985],[78.983391,31.359744],[78.982499,31.36024],[78.981872,31.361032],[78.981145,31.36156],[78.980188,31.362981],[78.979362,31.363938],[78.978603,31.36341],[78.978074,31.362551],[78.977381,31.361957],[78.97672,31.360768],[78.975729,31.360008],[78.974607,31.359282],[78.972526,31.358159],[78.9697289,31.3569773],[78.968266,31.357135],[78.9671945,31.3547731],[78.9656496,31.3518412],[78.9626883,31.3430817],[78.95977,31.3320853],[78.9594267,31.3266599],[78.9625166,31.3169814],[78.9717863,31.3065686],[78.9760779,31.2968881],[78.9700695,31.28706],[78.9529774,31.2806339],[78.9295544,31.262438],[78.9285277,31.2559547],[78.9239787,31.2522126],[78.919146,31.248802]]],"type":"Polygon"}},{"type":"Feature","properties":{"name":"G B Pant High Altitude Zoo"},"geometry":{"coordinates":[79.46894126324707,29.38054375093948],"type":"Point"}},{"type":"Feature","properties":{"name":"Mrig Vihar Zoo"},"geometry":{"coordinates":[79.67529336806575,29.612950949911507],"type":"Point"}},{"type":"Feature","properties":{"name":"Dehradun Zoo"},"geometry":{"coordinates":[78.07488394714437,30.39014324146717],"type":"Point"}},{"type":"Feature","properties":{"name":"Jhilmil Jheel Conservation Reserve"},"geometry":{"coordinates":[[[78.20628222932947,29.789427100922282],[78.20952794225394,29.788670341751356],[78.21432384642372,29.787409063750772],[78.21882908973504,29.786568202921316],[78.22096060269996,29.786652289322078],[78.22081527227135,29.78837604497261],[78.22178414179967,29.789889562043527],[78.22299522871208,29.79152917970889],[78.22357655042907,29.79295856806452],[78.22420631562312,29.7937573350181],[78.2250298547242,29.794766294687875],[78.22440008953009,29.795480968298648],[78.22406098519451,29.79657398865389],[78.22343122000046,29.79720457188907],[78.2225592374237,29.79791922808515],[78.2213965939884,29.798171458464637],[78.22033083750591,29.79888610775444],[78.2197010723118,29.799264449428932],[78.21921663754767,29.80023131609792],[78.21805399411238,29.80052557801224],[78.21742422891828,29.801030024994205],[78.21674602024717,29.801660580144443],[78.21538960290621,29.801030024994205],[78.21446917685364,29.801408358561503],[78.2140331855652,29.802249094698894],[78.21228922041166,29.801996874599695],[78.2108843595949,29.800483540648983],[78.20996393354102,29.798171458464637],[78.21025459440085,29.79787718962676],[78.20884973358272,29.795901362156073],[78.20851062924714,29.794514055723894],[78.20773553362454,29.79321081094939],[78.20802619448307,29.792580202545352],[78.20700888147633,29.791445097405216],[78.20628222932947,29.789427100922282]]],"type":"Polygon"}},{"type":"Feature","properties":{"name":"Sonanadi WLS"},"geometry":{"coordinates":[[[78.68956679355563,29.73887710644044],[78.62789816855997,29.710993614755893],[78.59528005286,29.71055095718853],[78.5850868917048,29.700369294563245],[78.56724885968043,29.703910859510344],[78.52800518922942,29.6720322803977],[78.52953416340296,29.65431759031712],[78.53972732455992,29.637928725258618],[78.55297843406208,29.625524567625092],[78.55654604046623,29.619764975248344],[78.56571988550701,29.610017222862368],[78.56979714997016,29.599382236176652],[78.58865449810895,29.58209799099818],[78.59782834314973,29.58032508050036],[78.61668569128847,29.564810785453304],[78.62942714273339,29.556387741415108],[78.63809132971693,29.551067562296637],[78.65541970368224,29.547963995128242],[78.66765149706993,29.53776588917529],[78.67121910347407,29.53820930647798],[78.68447021297624,29.561707640412465],[78.70077927082713,29.58032508050036],[78.72422354148625,29.59184844205363],[78.74155191545157,29.584314085327392],[78.75684165718621,29.589189321563936],[78.75938994747412,29.598939087391614],[78.74562917991472,29.608244802972848],[78.73747465098842,29.630397811720428],[78.73645533487394,29.645459075654458],[78.74308088962505,29.653874683100412],[78.75429336689649,29.675574844056683],[78.76652516028417,29.689301099312686],[78.74460986379853,29.69549943887192],[78.71606901256172,29.71010829766975],[78.68956679355563,29.73887710644044]]],"type":"Polygon"}},{"type":"Feature","properties":{"name":"Binsar WLS"},"geometry":{"coordinates":[[[79.73719388306449,29.662274720281104],[79.75269815902692,29.666384908146952],[79.76925357234529,29.672321549678756],[79.77923937720283,29.67528973903194],[79.79526922184323,29.674604780034628],[79.79815984956565,29.67049492806953],[79.80735730140714,29.668439939102072],[79.80788287008511,29.671179915061202],[79.81550361589643,29.68510697189133],[79.80472945802467,29.68875965100338],[79.80578059537697,29.690814224664052],[79.80210161464032,29.693553590867097],[79.7844950639697,29.683280582554005],[79.77556039646623,29.686705035337454],[79.77293255308189,29.69309703501925],[79.79080188809064,29.70177124135813],[79.80551781103884,29.709759979269123],[79.80315275199439,29.712727062915974],[79.79763428088773,29.71204235908756],[79.79526922184323,29.716378737802287],[79.79080188809064,29.719573844364135],[79.78370671095547,29.720943144613273],[79.77713710249651,29.722540637959042],[79.77845102418684,29.726420158790418],[79.77450925911216,29.73007133550138],[79.77109306271359,29.733722379341827],[79.76636294462287,29.736688754618925],[79.76268396388627,29.736004214264256],[79.76058168917808,29.740795898635596],[79.75716549277956,29.737373290301775],[79.75243537468884,29.739655042169616],[79.74901917829033,29.73554785143287],[79.7461285505679,29.73760146782506],[79.74192400115521,29.734635119539533],[79.73719388306449,29.738285997278595],[79.73325211798794,29.736460575020047],[79.73246376497372,29.738742347651595],[79.73614274571037,29.74193674212387],[79.73430325534207,29.743762064708974],[79.73062427460547,29.741024068372013],[79.72878478423536,29.742849407569324],[79.72668250952898,29.740795898635596],[79.72090125408602,29.743077572633368],[79.71827341070167,29.740795898635596],[79.72090125408602,29.737373290301775],[79.72274074445431,29.732125064011697],[79.72983592158943,29.729386749988706],[79.73141262761965,29.722997059959127],[79.726945293867,29.713411762074955],[79.72957313725135,29.710901175663167],[79.7290475685752,29.706792807943685],[79.7180106263636,29.70154298236632],[79.7153827829793,29.697890767948707],[79.70487140944556,29.697890767948707],[79.69961572267692,29.69264047709683],[79.6948856045862,29.689672800038238],[79.70145521304704,29.68784649367116],[79.71196658658073,29.686248448373817],[79.7180106263636,29.683508883035756],[79.72405466614646,29.67848615265686],[79.72168960710019,29.664786521710383],[79.72379188180656,29.662503068456843],[79.7300987059275,29.665243206140616],[79.73719388306449,29.662274720281104]]],"type":"Polygon"}}]}